<?xml version="1.0" encoding="UTF-8"?>
<gpx version="1.1" creator="BC Bike Stops (bccycletourism.ca)" xmlns="http://www.topografix.com/GPX/1/1">
<metadata>
<name>Ridgeway Greenway</name>
<link href="https://bccycletourism.ca/trail/ridgeway-greenway/"><text>BC Bike Stops</text></link>
</metadata>
<wpt lat="49.256319" lon="-123.185361">
<name>BC Liquor Store</name>
<cmt>convenience_store</cmt>
<desc>Liquor Store</desc>
<sym>Dot</sym>
<type>store</type>
</wpt>
<wpt lat="49.256783" lon="-123.184916">
<name>Dairy Queen</name>
<cmt>food</cmt>
<desc>Ice Cream</desc>
<sym>Dot</sym>
<type>food</type>
</wpt>
<wpt lat="49.256142" lon="-123.185517">
<name>Tim Hortons</name>
<cmt>food</cmt>
<desc>Fast Food / Chain</desc>
<sym>Dot</sym>
<type>food</type>
</wpt>
<wpt lat="49.256072" lon="-123.184911">
<name>Kuma</name>
<cmt>food</cmt>
<desc>Restaurant</desc>
<sym>Dot</sym>
<type>food</type>
</wpt>
<wpt lat="49.263460" lon="-123.203682">
<name>Shell Select</name>
<cmt>convenience_store</cmt>
<desc>Convenience Store</desc>
<sym>Dot</sym>
<type>store</type>
</wpt>
<wpt lat="49.257054" lon="-123.184895">
<name>Chicko Chicken</name>
<cmt>food</cmt>
<desc>Fast Food / Chain</desc>
<sym>Dot</sym>
<type>food</type>
</wpt>
<wpt lat="49.257729" lon="-123.185701">
<name>Sip Song Thai Cuisine</name>
<cmt>food</cmt>
<desc>Restaurant</desc>
<sym>Dot</sym>
<type>food</type>
</wpt>
<wpt lat="49.263878" lon="-123.205001">
<name>Subway</name>
<cmt>food</cmt>
<desc>Fast Food / Chain</desc>
<sym>Dot</sym>
<type>food</type>
</wpt>
<wpt lat="49.263648" lon="-123.205172">
<name>Little Umbrella</name>
<cmt>coffee</cmt>
<desc>Café / Coffee</desc>
<sym>Dot</sym>
<type>food</type>
</wpt>
<wpt lat="49.264103" lon="-123.211523">
<name>Liberty Wine Merchants</name>
<cmt>winery</cmt>
<desc>Winery / Cidery</desc>
<sym>Dot</sym>
<type>food</type>
</wpt>
<wpt lat="49.263959" lon="-123.209590">
<name>Crazy Zhang Fusion Tea &amp; BBQ Rice</name>
<cmt>coffee</cmt>
<desc>Café / Coffee</desc>
<sym>Dot</sym>
<type>food</type>
</wpt>
<wpt lat="49.263922" lon="-123.206365">
<name>Ginger &amp; Chili</name>
<cmt>food</cmt>
<desc>Restaurant</desc>
<sym>Dot</sym>
<type>food</type>
</wpt>
<wpt lat="49.237972" lon="-123.155675">
<name>Homeslice Cafe &amp; Bakery</name>
<cmt>food</cmt>
<desc>Bakery / Donuts</desc>
<sym>Dot</sym>
<type>food</type>
</wpt>
<wpt lat="49.263711" lon="-123.209583">
<name>Four Olives Restaurant</name>
<cmt>food</cmt>
<desc>Restaurant</desc>
<sym>Dot</sym>
<type>food</type>
</wpt>
<wpt lat="49.263743" lon="-123.210410">
<name>Pizza Hut</name>
<cmt>food</cmt>
<desc>Fast Food / Chain</desc>
<sym>Dot</sym>
<type>food</type>
</wpt>
<wpt lat="49.263738" lon="-123.211066">
<name>West Point Grey Library Branch</name>
<cmt>library</cmt>
<desc>Library</desc>
<sym>Dot</sym>
<type>info</type>
</wpt>
<wpt lat="49.263672" lon="-123.206905">
<name>Domino's</name>
<cmt>food</cmt>
<desc>Fast Food / Chain</desc>
<sym>Dot</sym>
<type>food</type>
</wpt>
<wpt lat="49.263675" lon="-123.207129">
<name>Burgoo</name>
<cmt>food</cmt>
<desc>Restaurant</desc>
<sym>Dot</sym>
<type>food</type>
</wpt>
<wpt lat="49.263708" lon="-123.209720">
<name>Sun Sushi</name>
<cmt>food</cmt>
<desc>Restaurant</desc>
<sym>Dot</sym>
<type>food</type>
</wpt>
<wpt lat="49.263686" lon="-123.207936">
<name>Bean Around The World</name>
<cmt>coffee</cmt>
<desc>Café / Coffee</desc>
<sym>Dot</sym>
<type>food</type>
</wpt>
<wpt lat="49.263689" lon="-123.208092">
<name>Bella Roma</name>
<cmt>food</cmt>
<desc>Restaurant</desc>
<sym>Dot</sym>
<type>food</type>
</wpt>
<wpt lat="49.263729" lon="-123.211525">
<name>Pizza Pizza</name>
<cmt>food</cmt>
<desc>Fast Food / Chain</desc>
<sym>Dot</sym>
<type>food</type>
</wpt>
<wpt lat="49.263661" lon="-123.207015">
<name>Mix the Bakery</name>
<cmt>food</cmt>
<desc>Bakery / Donuts</desc>
<sym>Dot</sym>
<type>food</type>
</wpt>
<wpt lat="49.263688" lon="-123.211354">
<name>Everyday Sushi</name>
<cmt>food</cmt>
<desc>Fast Food / Chain</desc>
<sym>Dot</sym>
<type>food</type>
</wpt>
<wpt lat="49.237657" lon="-123.155639">
<name>White Spot</name>
<cmt>food</cmt>
<desc>Fast Food / Chain</desc>
<sym>Dot</sym>
<type>food</type>
</wpt>
<wpt lat="49.227316" lon="-123.044641">
<name>Killarney Community Centre</name>
<cmt>rest_stop</cmt>
<desc>Community Centre</desc>
<sym>Dot</sym>
<type>rest_area</type>
</wpt>
<wpt lat="49.258078" lon="-123.177955">
<name>The Local Farm Market</name>
<cmt>convenience_store</cmt>
<desc>Farmers' Market</desc>
<sym>Dot</sym>
<type>store</type>
</wpt>
<wpt lat="49.237453" lon="-123.155636">
<name>Bufala</name>
<cmt>food</cmt>
<desc>Restaurant</desc>
<sym>Dot</sym>
<type>food</type>
</wpt>
<wpt lat="49.231344" lon="-123.032223">
<name>BC Liquor Store</name>
<cmt>convenience_store</cmt>
<desc>Liquor Store</desc>
<sym>Dot</sym>
<type>store</type>
</wpt>
<wpt lat="49.231433" lon="-123.031638">
<name>Panago</name>
<cmt>food</cmt>
<desc>Fast Food / Chain</desc>
<sym>Dot</sym>
<type>food</type>
</wpt>
<wpt lat="49.231468" lon="-123.031604">
<name>Balkan Bakery</name>
<cmt>food</cmt>
<desc>Bakery / Donuts</desc>
<sym>Dot</sym>
<type>food</type>
</wpt>
<wpt lat="49.231467" lon="-123.030810">
<name>Desi Bazaar</name>
<cmt>convenience_store</cmt>
<desc>Grocery Store</desc>
<sym>Dot</sym>
<type>store</type>
</wpt>
<wpt lat="49.231659" lon="-123.030811">
<name>Green Leaf Sushi</name>
<cmt>food</cmt>
<desc>Restaurant</desc>
<sym>Dot</sym>
<type>food</type>
</wpt>
<wpt lat="49.231688" lon="-123.029634">
<name>Chun Fun How</name>
<cmt>coffee</cmt>
<desc>Café / Coffee</desc>
<sym>Dot</sym>
<type>food</type>
</wpt>
<wpt lat="49.231691" lon="-123.029571">
<name>Dumpling King</name>
<cmt>food</cmt>
<desc>Restaurant</desc>
<sym>Dot</sym>
<type>food</type>
</wpt>
<wpt lat="49.231763" lon="-123.028337">
<name>Happy Lemon</name>
<cmt>coffee</cmt>
<desc>Café / Coffee</desc>
<sym>Dot</sym>
<type>food</type>
</wpt>
<wpt lat="49.231772" lon="-123.030041">
<name>Kuan Zhai Road Restaurant</name>
<cmt>food</cmt>
<desc>Restaurant</desc>
<sym>Dot</sym>
<type>food</type>
</wpt>
<wpt lat="49.231777" lon="-123.029384">
<name>Kas Tasty Kitchen</name>
<cmt>food</cmt>
<desc>Restaurant</desc>
<sym>Dot</sym>
<type>food</type>
</wpt>
<wpt lat="49.231785" lon="-123.028614">
<name>Todak Todak Restaurant</name>
<cmt>food</cmt>
<desc>Restaurant</desc>
<sym>Dot</sym>
<type>food</type>
</wpt>
<wpt lat="49.231820" lon="-123.030407">
<name>Cho Sun Korean BBQ</name>
<cmt>food</cmt>
<desc>Restaurant</desc>
<sym>Dot</sym>
<type>food</type>
</wpt>
<wpt lat="49.231861" lon="-123.029381">
<name>Subway</name>
<cmt>food</cmt>
<desc>Fast Food / Chain</desc>
<sym>Dot</sym>
<type>food</type>
</wpt>
<wpt lat="49.231884" lon="-123.033133">
<name>Starbucks</name>
<cmt>food</cmt>
<desc>Fast Food / Chain</desc>
<sym>Dot</sym>
<type>food</type>
</wpt>
<wpt lat="49.242207" lon="-123.170405">
<name>Butter Baked Goods</name>
<cmt>food</cmt>
<desc>Bakery / Donuts</desc>
<sym>Dot</sym>
<type>food</type>
</wpt>
<wpt lat="49.231892" lon="-123.028880">
<name>Happy Tree House BBQ</name>
<cmt>food</cmt>
<desc>Restaurant</desc>
<sym>Dot</sym>
<type>food</type>
</wpt>
<wpt lat="49.259212" lon="-123.193014">
<name>Lord Byng Pool</name>
<cmt>rest_stop</cmt>
<desc>Community Centre</desc>
<sym>Dot</sym>
<type>rest_area</type>
</wpt>
<wpt lat="49.231987" lon="-123.027496">
<name>Potato Corner</name>
<cmt>food</cmt>
<desc>Fast Food / Chain</desc>
<sym>Dot</sym>
<type>food</type>
</wpt>
<wpt lat="49.250622" lon="-123.168003">
<name>Moki's Pizza</name>
<cmt>food</cmt>
<desc>Restaurant</desc>
<sym>Dot</sym>
<type>food</type>
</wpt>
<wpt lat="49.231986" lon="-123.027402">
<name>Max's Restaurant</name>
<cmt>food</cmt>
<desc>Restaurant</desc>
<sym>Dot</sym>
<type>food</type>
</wpt>
<wpt lat="49.236318" lon="-123.155699">
<name>West Coast Liquor</name>
<cmt>convenience_store</cmt>
<desc>Liquor Store</desc>
<sym>Dot</sym>
<type>store</type>
</wpt>
<wpt lat="49.250751" lon="-123.168003">
<name>The Patty Shop</name>
<cmt>food</cmt>
<desc>Bakery / Donuts</desc>
<sym>Dot</sym>
<type>food</type>
</wpt>
<wpt lat="49.250815" lon="-123.168021">
<name>Ridge Garden</name>
<cmt>food</cmt>
<desc>Fast Food / Chain</desc>
<sym>Dot</sym>
<type>food</type>
</wpt>
<wpt lat="49.232022" lon="-123.026301">
<name>Indian Burgers Joint</name>
<cmt>food</cmt>
<desc>Restaurant</desc>
<sym>Dot</sym>
<type>food</type>
</wpt>
<wpt lat="49.232025" lon="-123.026180">
<name>Yuki Cafe</name>
<cmt>food</cmt>
<desc>Restaurant</desc>
<sym>Dot</sym>
<type>food</type>
</wpt>
<wpt lat="49.232039" lon="-123.026083">
<name>Icy Bar</name>
<cmt>food</cmt>
<desc>Restaurant</desc>
<sym>Dot</sym>
<type>food</type>
</wpt>
<wpt lat="49.232093" lon="-123.033071">
<name>Safeway</name>
<cmt>convenience_store</cmt>
<desc>Grocery Store</desc>
<sym>Dot</sym>
<type>store</type>
</wpt>
<wpt lat="49.232204" lon="-123.031207">
<name>Tim Hortons</name>
<cmt>food</cmt>
<desc>Fast Food / Chain</desc>
<sym>Dot</sym>
<type>food</type>
</wpt>
<wpt lat="49.232328" lon="-123.026942">
<name>Canffle</name>
<cmt>food</cmt>
<desc>Restaurant</desc>
<sym>Dot</sym>
<type>food</type>
</wpt>
<wpt lat="49.232374" lon="-123.026161">
<name>Snackshot</name>
<cmt>coffee</cmt>
<desc>Café / Coffee</desc>
<sym>Dot</sym>
<type>food</type>
</wpt>
<wpt lat="49.232378" lon="-123.025466">
<name>Sharetea</name>
<cmt>coffee</cmt>
<desc>Café / Coffee</desc>
<sym>Dot</sym>
<type>food</type>
</wpt>
<wpt lat="49.232380" lon="-123.025607">
<name>Jack's Spot</name>
<cmt>coffee</cmt>
<desc>Café / Coffee</desc>
<sym>Dot</sym>
<type>food</type>
</wpt>
<wpt lat="49.232414" lon="-123.032009">
<name>K &amp; H Seafood Restaurant</name>
<cmt>food</cmt>
<desc>Restaurant</desc>
<sym>Dot</sym>
<type>food</type>
</wpt>
<wpt lat="49.232476" lon="-123.024088">
<name>Starbucks</name>
<cmt>food</cmt>
<desc>Fast Food / Chain</desc>
<sym>Dot</sym>
<type>food</type>
</wpt>
<wpt lat="49.232498" lon="-123.024445">
<name>Michi Craft Kitchen</name>
<cmt>food</cmt>
<desc>Restaurant</desc>
<sym>Dot</sym>
<type>food</type>
</wpt>
<wpt lat="49.235457" lon="-123.156086">
<name>Secret Garden Tea Company</name>
<cmt>coffee</cmt>
<desc>Café / Coffee</desc>
<sym>Dot</sym>
<type>food</type>
</wpt>
<wpt lat="49.235024" lon="-123.157554">
<name>Shota Sushi &amp; Grill</name>
<cmt>food</cmt>
<desc>Restaurant</desc>
<sym>Dot</sym>
<type>food</type>
</wpt>
<wpt lat="49.232749" lon="-123.033525">
<name>Pine House Bread &amp; Cake Shop</name>
<cmt>food</cmt>
<desc>Bakery / Donuts</desc>
<sym>Dot</sym>
<type>food</type>
</wpt>
<wpt lat="49.232758" lon="-123.032803">
<name>Fresh Legend by Eliza Sweet</name>
<cmt>food</cmt>
<desc>Restaurant</desc>
<sym>Dot</sym>
<type>food</type>
</wpt>
<wpt lat="49.232795" lon="-123.034803">
<name>Wang's Shanghai Cuisine</name>
<cmt>food</cmt>
<desc>Restaurant</desc>
<sym>Dot</sym>
<type>food</type>
</wpt>
<wpt lat="49.232809" lon="-123.035151">
<name>88 Supermarket</name>
<cmt>convenience_store</cmt>
<desc>Grocery Store</desc>
<sym>Dot</sym>
<type>store</type>
</wpt>
<wpt lat="49.234870" lon="-123.157412">
<name>Starbucks</name>
<cmt>food</cmt>
<desc>Fast Food / Chain</desc>
<sym>Dot</sym>
<type>food</type>
</wpt>
<wpt lat="49.234779" lon="-123.158118">
<name>Kin's Farm Market</name>
<cmt>convenience_store</cmt>
<desc>Farmers' Market</desc>
<sym>Dot</sym>
<type>store</type>
</wpt>
<wpt lat="49.235212" lon="-123.155748">
<name>Subway</name>
<cmt>food</cmt>
<desc>Fast Food / Chain</desc>
<sym>Dot</sym>
<type>food</type>
</wpt>
<wpt lat="49.234796" lon="-123.159134">
<name>Ramen Danbo</name>
<cmt>food</cmt>
<desc>Restaurant</desc>
<sym>Dot</sym>
<type>food</type>
</wpt>
<wpt lat="49.234792" lon="-123.159196">
<name>41 Noodle And Rice Pot House</name>
<cmt>food</cmt>
<desc>Restaurant</desc>
<sym>Dot</sym>
<type>food</type>
</wpt>
<wpt lat="49.232905" lon="-123.033073">
<name>Li's China Grill</name>
<cmt>food</cmt>
<desc>Restaurant</desc>
<sym>Dot</sym>
<type>food</type>
</wpt>
<wpt lat="49.234751" lon="-123.158264">
<name>Tim Hortons</name>
<cmt>food</cmt>
<desc>Fast Food / Chain</desc>
<sym>Dot</sym>
<type>food</type>
</wpt>
<wpt lat="49.234868" lon="-123.160004">
<name>Konbiniya Japan Centre</name>
<cmt>convenience_store</cmt>
<desc>Grocery Store</desc>
<sym>Dot</sym>
<type>store</type>
</wpt>
<wpt lat="49.234773" lon="-123.159422">
<name>Dairy Queen</name>
<cmt>food</cmt>
<desc>Ice Cream</desc>
<sym>Dot</sym>
<type>food</type>
</wpt>
<wpt lat="49.232956" lon="-123.033180">
<name>Bubble World</name>
<cmt>food</cmt>
<desc>Restaurant</desc>
<sym>Dot</sym>
<type>food</type>
</wpt>
<wpt lat="49.232974" lon="-123.033230">
<name>BlackBall Taiwanese Dessert</name>
<cmt>coffee</cmt>
<desc>Café / Coffee</desc>
<sym>Dot</sym>
<type>food</type>
</wpt>
<wpt lat="49.225628" lon="-123.053817">
<name>88 Supermarket</name>
<cmt>convenience_store</cmt>
<desc>Grocery Store</desc>
<sym>Dot</sym>
<type>store</type>
</wpt>
<wpt lat="49.234704" lon="-123.157260">
<name>Nando's</name>
<cmt>food</cmt>
<desc>Restaurant</desc>
<sym>Dot</sym>
<type>food</type>
</wpt>
<wpt lat="49.234702" lon="-123.157175">
<name>Donair Dude</name>
<cmt>food</cmt>
<desc>Restaurant</desc>
<sym>Dot</sym>
<type>food</type>
</wpt>
<wpt lat="49.263830" lon="-123.197227">
<name>Point Grey Guest House</name>
<cmt>lodging</cmt>
<desc>B&amp;B / Inn</desc>
<sym>Dot</sym>
<type>shelter</type>
</wpt>
<wpt lat="49.233085" lon="-123.034533">
<name>PrinkleChicken</name>
<cmt>food</cmt>
<desc>Fast Food / Chain</desc>
<sym>Dot</sym>
<type>food</type>
</wpt>
<wpt lat="49.225550" lon="-123.054278">
<name>Yu Ki BBQ Kitchen</name>
<cmt>food</cmt>
<desc>Restaurant</desc>
<sym>Dot</sym>
<type>food</type>
</wpt>
<wpt lat="49.234706" lon="-123.156781">
<name>Big Way Hot Pot</name>
<cmt>food</cmt>
<desc>Restaurant</desc>
<sym>Dot</sym>
<type>food</type>
</wpt>
<wpt lat="49.234710" lon="-123.156695">
<name>Baan Wasana</name>
<cmt>food</cmt>
<desc>Restaurant</desc>
<sym>Dot</sym>
<type>food</type>
</wpt>
<wpt lat="49.234775" lon="-123.160464">
<name>Saint Germain Bakery</name>
<cmt>food</cmt>
<desc>Bakery / Donuts</desc>
<sym>Dot</sym>
<type>food</type>
</wpt>
<wpt lat="49.234706" lon="-123.156524">
<name>Nana's Green Tea</name>
<cmt>coffee</cmt>
<desc>Café / Coffee</desc>
<sym>Dot</sym>
<type>food</type>
</wpt>
<wpt lat="49.234507" lon="-123.158090">
<name>Faubourg</name>
<cmt>coffee</cmt>
<desc>Café / Coffee</desc>
<sym>Dot</sym>
<type>food</type>
</wpt>
<wpt lat="49.225486" lon="-123.053512">
<name>Bubble Waffle Cafe</name>
<cmt>coffee</cmt>
<desc>Café / Coffee</desc>
<sym>Dot</sym>
<type>food</type>
</wpt>
<wpt lat="49.234504" lon="-123.157945">
<name>ASA Sushi</name>
<cmt>food</cmt>
<desc>Restaurant</desc>
<sym>Dot</sym>
<type>food</type>
</wpt>
<wpt lat="49.234505" lon="-123.157809">
<name>Cobs Breads</name>
<cmt>food</cmt>
<desc>Bakery / Donuts</desc>
<sym>Dot</sym>
<type>food</type>
</wpt>
<wpt lat="49.233180" lon="-123.034436">
<name>Hot Spot Buffet</name>
<cmt>food</cmt>
<desc>Restaurant</desc>
<sym>Dot</sym>
<type>food</type>
</wpt>
<wpt lat="49.234696" lon="-123.156438">
<name>ZUBU Ramen</name>
<cmt>food</cmt>
<desc>Restaurant</desc>
<sym>Dot</sym>
<type>food</type>
</wpt>
<wpt lat="49.235071" lon="-123.161561">
<name>Cathy's</name>
<cmt>coffee</cmt>
<desc>Café / Coffee</desc>
<sym>Dot</sym>
<type>food</type>
</wpt>
<wpt lat="49.234497" lon="-123.157446">
<name>Plethore by Fauburg</name>
<cmt>food</cmt>
<desc>Bakery / Donuts</desc>
<sym>Dot</sym>
<type>food</type>
</wpt>
<wpt lat="49.234475" lon="-123.159232">
<name>Legato Cafe</name>
<cmt>coffee</cmt>
<desc>Café / Coffee</desc>
<sym>Dot</sym>
<type>food</type>
</wpt>
<wpt lat="49.234496" lon="-123.157318">
<name>Caffè Artigiano</name>
<cmt>coffee</cmt>
<desc>Café / Coffee</desc>
<sym>Dot</sym>
<type>food</type>
</wpt>
<wpt lat="49.234484" lon="-123.159370">
<name>Vegan Shoku Japanese Restaurant</name>
<cmt>food</cmt>
<desc>Restaurant</desc>
<sym>Dot</sym>
<type>food</type>
</wpt>
<wpt lat="49.233255" lon="-123.034794">
<name>Papa John's</name>
<cmt>food</cmt>
<desc>Fast Food / Chain</desc>
<sym>Dot</sym>
<type>food</type>
</wpt>
<wpt lat="49.236123" lon="-123.064932">
<name>Golden Swan Restaurant</name>
<cmt>food</cmt>
<desc>Restaurant</desc>
<sym>Dot</sym>
<type>food</type>
</wpt>
<wpt lat="49.233308" lon="-123.033883">
<name>Milk &amp; Sugar Cafe</name>
<cmt>coffee</cmt>
<desc>Café / Coffee</desc>
<sym>Dot</sym>
<type>food</type>
</wpt>
<wpt lat="49.225335" lon="-123.053507">
<name>Wally's Burgers</name>
<cmt>food</cmt>
<desc>Fast Food / Chain</desc>
<sym>Dot</sym>
<type>food</type>
</wpt>
<wpt lat="49.233336" lon="-123.034702">
<name>Gold Train Express Restaurant</name>
<cmt>food</cmt>
<desc>Restaurant</desc>
<sym>Dot</sym>
<type>food</type>
</wpt>
<wpt lat="49.234424" lon="-123.156706">
<name>Moore's Bakery</name>
<cmt>food</cmt>
<desc>Bakery / Donuts</desc>
<sym>Dot</sym>
<type>food</type>
</wpt>
<wpt lat="49.233419" lon="-123.034894">
<name>Cantonese BBQ Seafood Restaurant</name>
<cmt>food</cmt>
<desc>Restaurant</desc>
<sym>Dot</sym>
<type>food</type>
</wpt>
<wpt lat="49.233425" lon="-123.035338">
<name>Kung Fu Noodle</name>
<cmt>food</cmt>
<desc>Restaurant</desc>
<sym>Dot</sym>
<type>food</type>
</wpt>
<wpt lat="49.234474" lon="-123.156198">
<name>Baoguette Vietnamese Bistro</name>
<cmt>food</cmt>
<desc>Restaurant</desc>
<sym>Dot</sym>
<type>food</type>
</wpt>
<wpt lat="49.237255" lon="-123.064840">
<name>On the Run</name>
<cmt>convenience_store</cmt>
<desc>Convenience Store</desc>
<sym>Dot</sym>
<type>store</type>
</wpt>
<wpt lat="49.234474" lon="-123.156113">
<name>Yi Fang Tea</name>
<cmt>coffee</cmt>
<desc>Café / Coffee</desc>
<sym>Dot</sym>
<type>food</type>
</wpt>
<wpt lat="49.234790" lon="-123.161709">
<name>Minerva</name>
<cmt>food</cmt>
<desc>Restaurant</desc>
<sym>Dot</sym>
<type>food</type>
</wpt>
<wpt lat="49.234472" lon="-123.156035">
<name>Neptune Eats</name>
<cmt>food</cmt>
<desc>Restaurant</desc>
<sym>Dot</sym>
<type>food</type>
</wpt>
<wpt lat="49.232945" lon="-123.065310">
<name>Tim Hortons</name>
<cmt>food</cmt>
<desc>Fast Food / Chain</desc>
<sym>Dot</sym>
<type>food</type>
</wpt>
<wpt lat="49.232380" lon="-123.065304">
<name>Jun Yuan Restaurant</name>
<cmt>food</cmt>
<desc>Restaurant</desc>
<sym>Dot</sym>
<type>food</type>
</wpt>
<wpt lat="49.233586" lon="-123.065319">
<name>Sumi Korean Restaurant</name>
<cmt>food</cmt>
<desc>Restaurant</desc>
<sym>Dot</sym>
<type>food</type>
</wpt>
<wpt lat="49.233523" lon="-123.065316">
<name>Happy Sushi</name>
<cmt>food</cmt>
<desc>Restaurant</desc>
<sym>Dot</sym>
<type>food</type>
</wpt>
<wpt lat="49.234340" lon="-123.065322">
<name>Kamo Bakery</name>
<cmt>food</cmt>
<desc>Bakery / Donuts</desc>
<sym>Dot</sym>
<type>food</type>
</wpt>
<wpt lat="49.234379" lon="-123.065321">
<name>I Love Yao Yen Kitchen &amp; Cafe Delicious Restaurant</name>
<cmt>food</cmt>
<desc>Restaurant</desc>
<sym>Dot</sym>
<type>food</type>
</wpt>
<wpt lat="49.235535" lon="-123.065270">
<name>Hapag</name>
<cmt>food</cmt>
<desc>Restaurant</desc>
<sym>Dot</sym>
<type>food</type>
</wpt>
<wpt lat="49.234467" lon="-123.155920">
<name>Burrata Pizzeria</name>
<cmt>food</cmt>
<desc>Fast Food / Chain</desc>
<sym>Dot</sym>
<type>food</type>
</wpt>
<wpt lat="49.239875" lon="-123.056427">
<name>2400 Motel</name>
<cmt>lodging</cmt>
<desc>Hotel / Motel</desc>
<sym>Dot</sym>
<type>shelter</type>
</wpt>
<wpt lat="49.233617" lon="-123.034460">
<name>Sushi Aji</name>
<cmt>food</cmt>
<desc>Restaurant</desc>
<sym>Dot</sym>
<type>food</type>
</wpt>
<wpt lat="49.233649" lon="-123.036118">
<name>Domino's</name>
<cmt>food</cmt>
<desc>Fast Food / Chain</desc>
<sym>Dot</sym>
<type>food</type>
</wpt>
<wpt lat="49.233648" lon="-123.035310">
<name>Happy Day Cafe</name>
<cmt>food</cmt>
<desc>Restaurant</desc>
<sym>Dot</sym>
<type>food</type>
</wpt>
<wpt lat="49.237532" lon="-123.065046">
<name>El Caracol Mexican Cafe</name>
<cmt>coffee</cmt>
<desc>Café / Coffee</desc>
<sym>Dot</sym>
<type>food</type>
</wpt>
<wpt lat="49.245026" lon="-123.153972">
<name>On the Run</name>
<cmt>convenience_store</cmt>
<desc>Convenience Store</desc>
<sym>Dot</sym>
<type>store</type>
</wpt>
<wpt lat="49.234714" lon="-123.154554">
<name>McDonald's</name>
<cmt>food</cmt>
<desc>Fast Food / Chain</desc>
<sym>Dot</sym>
<type>food</type>
</wpt>
<wpt lat="49.233811" lon="-123.065736">
<name>Yoshida Sushi</name>
<cmt>food</cmt>
<desc>Restaurant</desc>
<sym>Dot</sym>
<type>food</type>
</wpt>
<wpt lat="49.234534" lon="-123.161902">
<name>Lok's Chinese Restaurant</name>
<cmt>food</cmt>
<desc>Restaurant</desc>
<sym>Dot</sym>
<type>food</type>
</wpt>
<wpt lat="49.228544" lon="-123.022757">
<name>Central Park Outdoor Pool</name>
<cmt>rest_stop</cmt>
<desc>Community Centre</desc>
<sym>Dot</sym>
<type>rest_area</type>
</wpt>
<wpt lat="49.264462" lon="-123.215592">
<name>BC Golf Museum and Hall of Fame</name>
<cmt>monument</cmt>
<desc>Museum / Gallery</desc>
<sym>Dot</sym>
<type>info</type>
</wpt>
<wpt lat="49.254409" lon="-123.197639">
<name>Camosun Bog | xʷməm̓qʷe:m</name>
<cmt>viewpoint</cmt>
<desc>Activity / Experience</desc>
<sym>Dot</sym>
<type>overlook</type>
</wpt>
<trk><name>Ridgeway Greenway</name>
<trkseg>
<trkpt lat="49.238597" lon="-123.175809"/>
<trkpt lat="49.239497" lon="-123.175799"/>
<trkpt lat="49.242337" lon="-123.175772"/>
<trkpt lat="49.244238" lon="-123.175753"/>
<trkpt lat="49.244225" lon="-123.172998"/>
<trkpt lat="49.246129" lon="-123.172966"/>
<trkpt lat="49.246139" lon="-123.175735"/>
<trkpt lat="49.247037" lon="-123.175731"/>
</trkseg>
<trkseg>
<trkpt lat="49.247134" lon="-123.175731"/>
<trkpt lat="49.248939" lon="-123.175709"/>
</trkseg>
<trkseg>
<trkpt lat="49.249037" lon="-123.175708"/>
<trkpt lat="49.251878" lon="-123.175685"/>
</trkseg>
<trkseg>
<trkpt lat="49.251974" lon="-123.175685"/>
<trkpt lat="49.252982" lon="-123.175536"/>
</trkseg>
<trkseg>
<trkpt lat="49.252982" lon="-123.175536"/>
<trkpt lat="49.254645" lon="-123.176756"/>
<trkpt lat="49.254654" lon="-123.178556"/>
<trkpt lat="49.254658" lon="-123.179220"/>
<trkpt lat="49.256024" lon="-123.179268"/>
<trkpt lat="49.256464" lon="-123.179819"/>
<trkpt lat="49.256474" lon="-123.181767"/>
</trkseg>
<trkseg>
<trkpt lat="49.256475" lon="-123.181914"/>
<trkpt lat="49.256491" lon="-123.185151"/>
<trkpt lat="49.256509" lon="-123.190747"/>
</trkseg>
<trkseg>
<trkpt lat="49.256510" lon="-123.190879"/>
<trkpt lat="49.256533" lon="-123.196578"/>
<trkpt lat="49.257823" lon="-123.196579"/>
<trkpt lat="49.257929" lon="-123.196578"/>
<trkpt lat="49.258038" lon="-123.197153"/>
<trkpt lat="49.258195" lon="-123.197146"/>
<trkpt lat="49.259107" lon="-123.197105"/>
<trkpt lat="49.259199" lon="-123.203188"/>
<trkpt lat="49.260059" lon="-123.203170"/>
</trkseg>
<trkseg>
<trkpt lat="49.260153" lon="-123.203166"/>
<trkpt lat="49.261869" lon="-123.203099"/>
</trkseg>
<trkseg>
<trkpt lat="49.261960" lon="-123.203096"/>
<trkpt lat="49.263744" lon="-123.203026"/>
<trkpt lat="49.265489" lon="-123.202972"/>
<trkpt lat="49.265539" lon="-123.206019"/>
<trkpt lat="49.265591" lon="-123.208962"/>
</trkseg>
<trkseg>
<trkpt lat="49.265592" lon="-123.209127"/>
<trkpt lat="49.265672" lon="-123.215163"/>
</trkseg>
<trkseg>
<trkpt lat="49.252982" lon="-123.175536"/>
<trkpt lat="49.252764" lon="-123.175163"/>
<trkpt lat="49.250124" lon="-123.172214"/>
<trkpt lat="49.249912" lon="-123.172054"/>
<trkpt lat="49.249725" lon="-123.171915"/>
<trkpt lat="49.249018" lon="-123.171383"/>
<trkpt lat="49.247848" lon="-123.170217"/>
<trkpt lat="49.247304" lon="-123.169068"/>
<trkpt lat="49.246110" lon="-123.167927"/>
<trkpt lat="49.245155" lon="-123.167931"/>
<trkpt lat="49.245132" lon="-123.166360"/>
<trkpt lat="49.244794" lon="-123.165454"/>
<trkpt lat="49.244184" lon="-123.164343"/>
<trkpt lat="49.244171" lon="-123.163545"/>
<trkpt lat="49.244213" lon="-123.162808"/>
<trkpt lat="49.244015" lon="-123.162718"/>
<trkpt lat="49.243410" lon="-123.161579"/>
<trkpt lat="49.242223" lon="-123.160155"/>
<trkpt lat="49.242214" lon="-123.159650"/>
<trkpt lat="49.241268" lon="-123.159689"/>
<trkpt lat="49.241235" lon="-123.157488"/>
<trkpt lat="49.238391" lon="-123.158389"/>
</trkseg>
<trkseg>
<trkpt lat="49.235900" lon="-123.058801"/>
<trkpt lat="49.233948" lon="-123.058812"/>
</trkseg>
<trkseg>
<trkpt lat="49.233847" lon="-123.058812"/>
<trkpt lat="49.230791" lon="-123.058880"/>
<trkpt lat="49.229462" lon="-123.059048"/>
</trkseg>
<trkseg>
<trkpt lat="49.229411" lon="-123.058972"/>
<trkpt lat="49.229375" lon="-123.051628"/>
<trkpt lat="49.229361" lon="-123.050096"/>
<trkpt lat="49.229349" lon="-123.048830"/>
<trkpt lat="49.229293" lon="-123.043138"/>
<trkpt lat="49.229284" lon="-123.037449"/>
<trkpt lat="49.229276" lon="-123.036424"/>
<trkpt lat="49.229262" lon="-123.032154"/>
<trkpt lat="49.229252" lon="-123.029190"/>
<trkpt lat="49.229247" lon="-123.027871"/>
</trkseg>
<trkseg>
<trkpt lat="49.229247" lon="-123.027721"/>
<trkpt lat="49.229233" lon="-123.024276"/>
<trkpt lat="49.229231" lon="-123.023824"/>
</trkseg>
<trkseg>
<trkpt lat="49.229231" lon="-123.023824"/>
<trkpt lat="49.229281" lon="-123.023512"/>
</trkseg>
<trkseg>
<trkpt lat="49.229194" lon="-123.023511"/>
<trkpt lat="49.229231" lon="-123.023824"/>
</trkseg>
</trk>
</gpx>