<?xml version="1.0" encoding="UTF-8"?>
<gpx version="1.1" creator="We Welcome Cyclists (bccycletourism.ca)" xmlns="http://www.topografix.com/GPX/1/1">
<metadata>
<name>Highway 17A</name>
<link href="https://bccycletourism.ca/trail/highway-17a/"><text>We Welcome Cyclists</text></link>
</metadata>
<wpt lat="49.111801" lon="-123.052474">
<name>Ramie's Greek Restaurant</name>
<cmt>food</cmt>
<desc>Restaurant</desc>
<sym>Dot</sym>
<type>food</type>
</wpt>
<wpt lat="49.083876" lon="-123.058372">
<name>Douglas J. Husband Discovery Centre</name>
<cmt>monument</cmt>
<desc>Museum / Gallery</desc>
<sym>Dot</sym>
<type>info</type>
</wpt>
<wpt lat="49.086207" lon="-123.058499">
<name>Blenz Coffee</name>
<cmt>coffee</cmt>
<desc>Café / Coffee</desc>
<sym>Dot</sym>
<type>food</type>
</wpt>
<wpt lat="49.086090" lon="-123.058682">
<name>Ladner Leisure Centre</name>
<cmt>rest_stop</cmt>
<desc>Community Centre</desc>
<sym>Dot</sym>
<type>rest_area</type>
</wpt>
<wpt lat="49.109267" lon="-123.056659">
<name>Summit Bar</name>
<cmt>bar</cmt>
<desc>Brewery / Pub</desc>
<sym>Dot</sym>
<type>food</type>
</wpt>
<wpt lat="49.109376" lon="-123.056905">
<name>the Buffet</name>
<cmt>food</cmt>
<desc>Restaurant</desc>
<sym>Dot</sym>
<type>food</type>
</wpt>
<wpt lat="49.109559" lon="-123.057120">
<name>Match Eatery &amp; Public House</name>
<cmt>bar</cmt>
<desc>Brewery / Pub</desc>
<sym>Dot</sym>
<type>food</type>
</wpt>
<wpt lat="49.110320" lon="-123.056295">
<name>Delta Hotels by Marriott Vancouver Delta</name>
<cmt>lodging</cmt>
<desc>Hotel / Motel</desc>
<sym>Dot</sym>
<type>shelter</type>
</wpt>
<wpt lat="49.085709" lon="-123.060927">
<name>Courtyard Cafe</name>
<cmt>coffee</cmt>
<desc>Café / Coffee</desc>
<sym>Dot</sym>
<type>food</type>
</wpt>
<wpt lat="49.112213" lon="-123.046706">
<name>Schoolhouse Farm</name>
<cmt>convenience_store</cmt>
<desc>Farmers' Market</desc>
<sym>Dot</sym>
<type>store</type>
</wpt>
<wpt lat="49.089827" lon="-123.063506">
<name>McDonald's</name>
<cmt>food</cmt>
<desc>Fast Food / Chain</desc>
<sym>Dot</sym>
<type>food</type>
</wpt>
<trk><name>Highway 17A</name>
<trkseg>
<trkpt lat="49.053236" lon="-123.057251"/>
<trkpt lat="49.053880" lon="-123.057111"/>
</trkseg>
<trkseg>
<trkpt lat="49.053880" lon="-123.057111"/>
<trkpt lat="49.057031" lon="-123.056346"/>
<trkpt lat="49.057529" lon="-123.056577"/>
<trkpt lat="49.058956" lon="-123.057222"/>
<trkpt lat="49.059610" lon="-123.057214"/>
<trkpt lat="49.065188" lon="-123.057169"/>
<trkpt lat="49.067915" lon="-123.057165"/>
<trkpt lat="49.082947" lon="-123.057085"/>
<trkpt lat="49.086148" lon="-123.057051"/>
<trkpt lat="49.087049" lon="-123.056966"/>
<trkpt lat="49.087556" lon="-123.056910"/>
<trkpt lat="49.088541" lon="-123.056840"/>
<trkpt lat="49.089813" lon="-123.056866"/>
<trkpt lat="49.090112" lon="-123.056887"/>
<trkpt lat="49.090233" lon="-123.056893"/>
<trkpt lat="49.090475" lon="-123.056905"/>
<trkpt lat="49.093761" lon="-123.057299"/>
<trkpt lat="49.102354" lon="-123.057361"/>
<trkpt lat="49.105182" lon="-123.057383"/>
<trkpt lat="49.105970" lon="-123.057201"/>
<trkpt lat="49.107502" lon="-123.055784"/>
<trkpt lat="49.107905" lon="-123.055363"/>
<trkpt lat="49.108466" lon="-123.054757"/>
</trkseg>
<trkseg>
<trkpt lat="49.108785" lon="-123.054523"/>
<trkpt lat="49.109149" lon="-123.054173"/>
</trkseg>
<trkseg>
<trkpt lat="49.109149" lon="-123.054173"/>
<trkpt lat="49.109568" lon="-123.053817"/>
</trkseg>
<trkseg>
<trkpt lat="49.109568" lon="-123.053817"/>
<trkpt lat="49.109149" lon="-123.054173"/>
</trkseg>
<trkseg>
<trkpt lat="49.109274" lon="-123.054382"/>
<trkpt lat="49.108781" lon="-123.055204"/>
<trkpt lat="49.108680" lon="-123.055002"/>
<trkpt lat="49.108630" lon="-123.055050"/>
<trkpt lat="49.108020" lon="-123.055595"/>
<trkpt lat="49.107609" lon="-123.056025"/>
<trkpt lat="49.107329" lon="-123.056431"/>
<trkpt lat="49.107224" lon="-123.056412"/>
<trkpt lat="49.106761" lon="-123.056967"/>
<trkpt lat="49.105230" lon="-123.057554"/>
<trkpt lat="49.103147" lon="-123.057550"/>
<trkpt lat="49.092452" lon="-123.057382"/>
<trkpt lat="49.092061" lon="-123.057337"/>
<trkpt lat="49.090480" lon="-123.057147"/>
<trkpt lat="49.090234" lon="-123.057126"/>
<trkpt lat="49.090119" lon="-123.057118"/>
<trkpt lat="49.089823" lon="-123.057105"/>
<trkpt lat="49.086612" lon="-123.057182"/>
<trkpt lat="49.086150" lon="-123.057200"/>
<trkpt lat="49.082906" lon="-123.057216"/>
<trkpt lat="49.067074" lon="-123.057311"/>
<trkpt lat="49.064503" lon="-123.057325"/>
<trkpt lat="49.059612" lon="-123.057357"/>
<trkpt lat="49.058960" lon="-123.057360"/>
<trkpt lat="49.054699" lon="-123.057378"/>
</trkseg>
<trkseg>
<trkpt lat="49.053880" lon="-123.057111"/>
<trkpt lat="49.053805" lon="-123.056691"/>
<trkpt lat="49.053757" lon="-123.055970"/>
</trkseg>
<trkseg>
<trkpt lat="49.109568" lon="-123.053817"/>
<trkpt lat="49.111351" lon="-123.051986"/>
<trkpt lat="49.112148" lon="-123.051253"/>
</trkseg>
<trkseg>
<trkpt lat="49.112148" lon="-123.051253"/>
<trkpt lat="49.111949" lon="-123.051561"/>
<trkpt lat="49.110370" lon="-123.053144"/>
<trkpt lat="49.109721" lon="-123.053801"/>
</trkseg>
<trkseg>
<trkpt lat="49.112148" lon="-123.051253"/>
<trkpt lat="49.112379" lon="-123.051005"/>
<trkpt lat="49.112503" lon="-123.050867"/>
<trkpt lat="49.112662" lon="-123.050704"/>
<trkpt lat="49.112941" lon="-123.050438"/>
<trkpt lat="49.113622" lon="-123.049988"/>
<trkpt lat="49.122446" lon="-123.049648"/>
<trkpt lat="49.124477" lon="-123.049615"/>
<trkpt lat="49.126227" lon="-123.049581"/>
</trkseg>
</trk>
</gpx>