<?xml version="1.0" encoding="UTF-8"?>
<gpx version="1.1" creator="BC Bike Stops (bccycletourism.ca)" xmlns="http://www.topografix.com/GPX/1/1">
<metadata>
<name>Markin-MacPhail Westside Legacy Trail — cycling stops</name>
<link href="https://bccycletourism.ca/route/ok-36/"><text>BC Bike Stops</text></link>
</metadata>
<wpt lat="50.320377" lon="-115.867773">
<name>Spruce Grove RV Park and Campground</name>
<cmt>camping</cmt>
<desc>Private Campground</desc>
<sym>Dot</sym>
<type>campsite</type>
</wpt>
<wpt lat="50.338911" lon="-115.855865">
<name>Gas Plus</name>
<cmt>convenience_store</cmt>
<desc>Convenience Store</desc>
<sym>Dot</sym>
<type>store</type>
</wpt>
<wpt lat="50.338192" lon="-115.855842">
<name>Fairside Inn</name>
<cmt>food</cmt>
<desc>Restaurant</desc>
<sym>Dot</sym>
<type>food</type>
</wpt>
<wpt lat="50.337810" lon="-115.855951">
<name>Fairmont Mountainside Market</name>
<cmt>convenience_store</cmt>
<desc>Grocery Store</desc>
<sym>Dot</sym>
<type>store</type>
</wpt>
<wpt lat="50.342010" lon="-115.856366">
<name>Funtasia</name>
<cmt>coffee</cmt>
<desc>Café / Coffee</desc>
<sym>Dot</sym>
<type>food</type>
</wpt>
<wpt lat="50.585230" lon="-116.032984">
<name>Dry Gulch Provincial Campground</name>
<cmt>camping</cmt>
<desc>Public Campground</desc>
<sym>Dot</sym>
<type>campsite</type>
</wpt>
</gpx>