<?xml version="1.0" encoding="UTF-8"?>
<gpx version="1.1" creator="BC Bike Stops (bccycletourism.ca)" xmlns="http://www.topografix.com/GPX/1/1">
<metadata>
<name>Texada Island Two Step — cycling stops</name>
<link href="https://bccycletourism.ca/route/texada-island-two-step/"><text>BC Bike Stops</text></link>
</metadata>
<wpt lat="49.605750" lon="-124.297146">
<name>Bob's Lake Recreation Site North Campground</name>
<cmt>camping</cmt>
<desc>Public Campground</desc>
<sym>Dot</sym>
<type>campsite</type>
</wpt>
<wpt lat="49.602867" lon="-124.294059">
<name>Bob's Lake Recreation Site South Campground</name>
<cmt>camping</cmt>
<desc>Public Campground</desc>
<sym>Dot</sym>
<type>campsite</type>
</wpt>
<wpt lat="49.654738" lon="-124.464849">
<name>Shelter Point Regional Campground</name>
<cmt>camping</cmt>
<desc>Private Campground</desc>
<sym>Dot</sym>
<type>campsite</type>
</wpt>
<wpt lat="49.760772" lon="-124.558821">
<name>Texada Island Museum</name>
<cmt>monument</cmt>
<desc>Museum / Gallery</desc>
<sym>Dot</sym>
<type>info</type>
</wpt>
</gpx>