<?xml version="1.0" encoding="UTF-8"?>
<gpx version="1.1" creator="We Welcome Cyclists (bccycletourism.ca)" xmlns="http://www.topografix.com/GPX/1/1">
<metadata>
<name>Traboulay PoCo Trail</name>
<link href="https://bccycletourism.ca/trail/traboulay-poco-trail/"><text>We Welcome Cyclists</text></link>
</metadata>
<wpt lat="49.251190" lon="-122.732744">
<name>Tinhouse Tasting Lounge</name>
<cmt>bar</cmt>
<desc>Brewery / Pub</desc>
<sym>Dot</sym>
<type>food</type>
</wpt>
<wpt lat="49.235082" lon="-122.767172">
<name>Gillnetter Pub</name>
<cmt>bar</cmt>
<desc>Brewery / Pub</desc>
<sym>Dot</sym>
<type>food</type>
</wpt>
<wpt lat="49.251238" lon="-122.732836">
<name>Tinhouse Brewing</name>
<cmt>bar</cmt>
<desc>Brewery / Pub</desc>
<sym>Dot</sym>
<type>food</type>
</wpt>
<wpt lat="49.263706" lon="-122.781608">
<name>Samz Neighbourhood Pub</name>
<cmt>bar</cmt>
<desc>Brewery / Pub</desc>
<sym>Dot</sym>
<type>food</type>
</wpt>
<wpt lat="49.263630" lon="-122.781371">
<name>Samz Liquor Store</name>
<cmt>convenience_store</cmt>
<desc>Liquor Store</desc>
<sym>Dot</sym>
<type>store</type>
</wpt>
<wpt lat="49.263220" lon="-122.781642">
<name>Ava Bakery</name>
<cmt>food</cmt>
<desc>Bakery / Donuts</desc>
<sym>Dot</sym>
<type>food</type>
</wpt>
<wpt lat="49.263179" lon="-122.781541">
<name>Gardenia Foods</name>
<cmt>convenience_store</cmt>
<desc>Grocery Store</desc>
<sym>Dot</sym>
<type>store</type>
</wpt>
<wpt lat="49.261552" lon="-122.783621">
<name>Patina Brewing</name>
<cmt>bar</cmt>
<desc>Brewery / Pub</desc>
<sym>Dot</sym>
<type>food</type>
</wpt>
<wpt lat="49.258868" lon="-122.790505">
<name>Game Day Cafe</name>
<cmt>food</cmt>
<desc>Fast Food / Chain</desc>
<sym>Dot</sym>
<type>food</type>
</wpt>
<wpt lat="49.263607" lon="-122.780588">
<name>Fresh Bite Food</name>
<cmt>food</cmt>
<desc>Fast Food / Chain</desc>
<sym>Dot</sym>
<type>food</type>
</wpt>
<wpt lat="49.263562" lon="-122.780624">
<name>Pizza Pietra</name>
<cmt>food</cmt>
<desc>Restaurant</desc>
<sym>Dot</sym>
<type>food</type>
</wpt>
<wpt lat="49.266586" lon="-122.778052">
<name>Fruiticana</name>
<cmt>convenience_store</cmt>
<desc>Grocery Store</desc>
<sym>Dot</sym>
<type>store</type>
</wpt>
<wpt lat="49.263281" lon="-122.780937">
<name>City Avenue Market</name>
<cmt>convenience_store</cmt>
<desc>Grocery Store</desc>
<sym>Dot</sym>
<type>store</type>
</wpt>
<wpt lat="49.263121" lon="-122.781092">
<name>Waves Coffee House</name>
<cmt>coffee</cmt>
<desc>Café / Coffee</desc>
<sym>Dot</sym>
<type>food</type>
</wpt>
<wpt lat="49.266748" lon="-122.777869">
<name>Pizza64</name>
<cmt>food</cmt>
<desc>Fast Food / Chain</desc>
<sym>Dot</sym>
<type>food</type>
</wpt>
<wpt lat="49.262019" lon="-122.782518">
<name>Papa John's</name>
<cmt>food</cmt>
<desc>Fast Food / Chain</desc>
<sym>Dot</sym>
<type>food</type>
</wpt>
<wpt lat="49.252992" lon="-122.733207">
<name>Side Quest Brewing Co.</name>
<cmt>bar</cmt>
<desc>Brewery / Pub</desc>
<sym>Dot</sym>
<type>food</type>
</wpt>
<wpt lat="49.261925" lon="-122.782613">
<name>Maria's European Deli</name>
<cmt>convenience_store</cmt>
<desc>Specialty / Health Food</desc>
<sym>Dot</sym>
<type>store</type>
</wpt>
<wpt lat="49.263664" lon="-122.780078">
<name>Jimmy's Lunch Box</name>
<cmt>food</cmt>
<desc>Restaurant</desc>
<sym>Dot</sym>
<type>food</type>
</wpt>
<wpt lat="49.263399" lon="-122.780349">
<name>Sushi Fu</name>
<cmt>food</cmt>
<desc>Restaurant</desc>
<sym>Dot</sym>
<type>food</type>
</wpt>
<wpt lat="49.267087" lon="-122.777534">
<name>The Kebob House</name>
<cmt>food</cmt>
<desc>Fast Food / Chain</desc>
<sym>Dot</sym>
<type>food</type>
</wpt>
<wpt lat="49.283823" lon="-122.744713">
<name>Hyde Creek Nature Reserve</name>
<cmt>park</cmt>
<desc>Park / Nature</desc>
<sym>Dot</sym>
<type>rest_area</type>
</wpt>
<wpt lat="49.267310" lon="-122.777348">
<name>Kosho Sushi</name>
<cmt>food</cmt>
<desc>Restaurant</desc>
<sym>Dot</sym>
<type>food</type>
</wpt>
<wpt lat="49.262084" lon="-122.781655">
<name>Europe Old Fashion Bakery and Deli</name>
<cmt>food</cmt>
<desc>Bakery / Donuts</desc>
<sym>Dot</sym>
<type>food</type>
</wpt>
<wpt lat="49.262758" lon="-122.780623">
<name>Ron's Kitchen</name>
<cmt>food</cmt>
<desc>Restaurant</desc>
<sym>Dot</sym>
<type>food</type>
</wpt>
<wpt lat="49.261716" lon="-122.781999">
<name>Subway</name>
<cmt>food</cmt>
<desc>Fast Food / Chain</desc>
<sym>Dot</sym>
<type>food</type>
</wpt>
<wpt lat="49.266180" lon="-122.777139">
<name>Earls</name>
<cmt>food</cmt>
<desc>Restaurant</desc>
<sym>Dot</sym>
<type>food</type>
</wpt>
<wpt lat="49.261832" lon="-122.781678">
<name>Dairy Queen</name>
<cmt>food</cmt>
<desc>Ice Cream</desc>
<sym>Dot</sym>
<type>food</type>
</wpt>
<wpt lat="49.261311" lon="-122.782330">
<name>A&amp;W</name>
<cmt>food</cmt>
<desc>Fast Food / Chain</desc>
<sym>Dot</sym>
<type>food</type>
</wpt>
<wpt lat="49.252026" lon="-122.735614">
<name>The Hive</name>
<cmt>rest_stop</cmt>
<desc>Community Centre</desc>
<sym>Dot</sym>
<type>rest_area</type>
</wpt>
<wpt lat="49.251735" lon="-122.735940">
<name>C Market Coffee</name>
<cmt>coffee</cmt>
<desc>Café / Coffee</desc>
<sym>Dot</sym>
<type>food</type>
</wpt>
<wpt lat="49.266681" lon="-122.776679">
<name>Eastern Pearl Seafood Restaurant</name>
<cmt>food</cmt>
<desc>Restaurant</desc>
<sym>Dot</sym>
<type>food</type>
</wpt>
<wpt lat="49.252128" lon="-122.736412">
<name>Pizza Hut</name>
<cmt>food</cmt>
<desc>Fast Food / Chain</desc>
<sym>Dot</sym>
<type>food</type>
</wpt>
<wpt lat="49.261973" lon="-122.780310">
<name>Leigh Square Community Arts Village</name>
<cmt>monument</cmt>
<desc>Museum / Gallery</desc>
<sym>Dot</sym>
<type>info</type>
</wpt>
<wpt lat="49.252163" lon="-122.736559">
<name>Pür &amp; Simple</name>
<cmt>food</cmt>
<desc>Restaurant</desc>
<sym>Dot</sym>
<type>food</type>
</wpt>
<wpt lat="49.264900" lon="-122.777012">
<name>Sushi Kamizato</name>
<cmt>food</cmt>
<desc>Restaurant</desc>
<sym>Dot</sym>
<type>food</type>
</wpt>
<wpt lat="49.262155" lon="-122.779901">
<name>PoCo Heritage Museum and Archives</name>
<cmt>monument</cmt>
<desc>Museum / Gallery</desc>
<sym>Dot</sym>
<type>info</type>
</wpt>
<wpt lat="49.268463" lon="-122.775032">
<name>Centennial Outdoor Pool</name>
<cmt>rest_stop</cmt>
<desc>Community Centre</desc>
<sym>Dot</sym>
<type>rest_area</type>
</wpt>
<wpt lat="49.265034" lon="-122.776619">
<name>Pizza Hut</name>
<cmt>food</cmt>
<desc>Fast Food / Chain</desc>
<sym>Dot</sym>
<type>food</type>
</wpt>
<wpt lat="49.272984" lon="-122.755573">
<name>7-Eleven</name>
<cmt>convenience_store</cmt>
<desc>Convenience Store</desc>
<sym>Dot</sym>
<type>store</type>
</wpt>
<wpt lat="49.252457" lon="-122.737076">
<name>Grelhados</name>
<cmt>food</cmt>
<desc>Restaurant</desc>
<sym>Dot</sym>
<type>food</type>
</wpt>
<wpt lat="49.265092" lon="-122.776198">
<name>Quiznos</name>
<cmt>food</cmt>
<desc>Fast Food / Chain</desc>
<sym>Dot</sym>
<type>food</type>
</wpt>
<wpt lat="49.260978" lon="-122.780640">
<name>Green Olive Pizza</name>
<cmt>food</cmt>
<desc>Restaurant</desc>
<sym>Dot</sym>
<type>food</type>
</wpt>
<wpt lat="49.272980" lon="-122.756447">
<name>Reggiano's Pizza</name>
<cmt>food</cmt>
<desc>Restaurant</desc>
<sym>Dot</sym>
<type>food</type>
</wpt>
<wpt lat="49.242052" lon="-122.760669">
<name>Sushiway</name>
<cmt>food</cmt>
<desc>Restaurant</desc>
<sym>Dot</sym>
<type>food</type>
</wpt>
<wpt lat="49.262058" lon="-122.778920">
<name>Me-n-Ed's Pizza Parlors</name>
<cmt>food</cmt>
<desc>Restaurant</desc>
<sym>Dot</sym>
<type>food</type>
</wpt>
<wpt lat="49.241490" lon="-122.761751">
<name>A&amp;W</name>
<cmt>food</cmt>
<desc>Fast Food / Chain</desc>
<sym>Dot</sym>
<type>food</type>
</wpt>
<wpt lat="49.247039" lon="-122.749407">
<name>On the Run</name>
<cmt>convenience_store</cmt>
<desc>Convenience Store</desc>
<sym>Dot</sym>
<type>store</type>
</wpt>
<wpt lat="49.241842" lon="-122.761240">
<name>Subway</name>
<cmt>food</cmt>
<desc>Fast Food / Chain</desc>
<sym>Dot</sym>
<type>food</type>
</wpt>
<wpt lat="49.246948" lon="-122.749874">
<name>Tim Hortons</name>
<cmt>food</cmt>
<desc>Fast Food / Chain</desc>
<sym>Dot</sym>
<type>food</type>
</wpt>
<wpt lat="49.241781" lon="-122.761747">
<name>Quesada</name>
<cmt>food</cmt>
<desc>Fast Food / Chain</desc>
<sym>Dot</sym>
<type>food</type>
</wpt>
<wpt lat="49.261729" lon="-122.778818">
<name>Amigo Pancake House Restaurant</name>
<cmt>food</cmt>
<desc>Restaurant</desc>
<sym>Dot</sym>
<type>food</type>
</wpt>
<wpt lat="49.253038" lon="-122.737845">
<name>Kai Japanese Restaurant</name>
<cmt>food</cmt>
<desc>Restaurant</desc>
<sym>Dot</sym>
<type>food</type>
</wpt>
<wpt lat="49.265593" lon="-122.775067">
<name>Safeway</name>
<cmt>convenience_store</cmt>
<desc>Grocery Store</desc>
<sym>Dot</sym>
<type>store</type>
</wpt>
<wpt lat="49.261987" lon="-122.778269">
<name>Matteo's Gelato</name>
<cmt>food</cmt>
<desc>Ice Cream</desc>
<sym>Dot</sym>
<type>food</type>
</wpt>
<wpt lat="49.241838" lon="-122.761913">
<name>Starbucks</name>
<cmt>food</cmt>
<desc>Fast Food / Chain</desc>
<sym>Dot</sym>
<type>food</type>
</wpt>
<wpt lat="49.253102" lon="-122.738030">
<name>NoodleBox</name>
<cmt>food</cmt>
<desc>Fast Food / Chain</desc>
<sym>Dot</sym>
<type>food</type>
</wpt>
<wpt lat="49.272054" lon="-122.755737">
<name>Blend Bubble Tea</name>
<cmt>coffee</cmt>
<desc>Café / Coffee</desc>
<sym>Dot</sym>
<type>food</type>
</wpt>
<wpt lat="49.261512" lon="-122.778566">
<name>Phở T&amp;T</name>
<cmt>food</cmt>
<desc>Restaurant</desc>
<sym>Dot</sym>
<type>food</type>
</wpt>
<wpt lat="49.254865" lon="-122.735427">
<name>McDonald's</name>
<cmt>food</cmt>
<desc>Fast Food / Chain</desc>
<sym>Dot</sym>
<type>food</type>
</wpt>
<wpt lat="49.271826" lon="-122.755494">
<name>Spice Cart Indian Cuisine</name>
<cmt>food</cmt>
<desc>Restaurant</desc>
<sym>Dot</sym>
<type>food</type>
</wpt>
<wpt lat="49.253403" lon="-122.737379">
<name>A&amp;W</name>
<cmt>food</cmt>
<desc>Fast Food / Chain</desc>
<sym>Dot</sym>
<type>food</type>
</wpt>
<wpt lat="49.271809" lon="-122.755646">
<name>Little Caesars</name>
<cmt>food</cmt>
<desc>Fast Food / Chain</desc>
<sym>Dot</sym>
<type>food</type>
</wpt>
<wpt lat="49.271521" lon="-122.754067">
<name>Natureway Farm Market</name>
<cmt>convenience_store</cmt>
<desc>Farmers' Market</desc>
<sym>Dot</sym>
<type>store</type>
</wpt>
<wpt lat="49.254881" lon="-122.735697">
<name>Walmart</name>
<cmt>convenience_store</cmt>
<desc>Grocery Store</desc>
<sym>Dot</sym>
<type>store</type>
</wpt>
<wpt lat="49.261278" lon="-122.778205">
<name>Donair Affair</name>
<cmt>food</cmt>
<desc>Restaurant</desc>
<sym>Dot</sym>
<type>food</type>
</wpt>
<wpt lat="49.267601" lon="-122.773323">
<name>San Remo Pizza</name>
<cmt>food</cmt>
<desc>Restaurant</desc>
<sym>Dot</sym>
<type>food</type>
</wpt>
<wpt lat="49.253332" lon="-122.740367">
<name>Burger King</name>
<cmt>food</cmt>
<desc>Fast Food / Chain</desc>
<sym>Dot</sym>
<type>food</type>
</wpt>
<wpt lat="49.261235" lon="-122.778019">
<name>Miu Japanese Cuisine</name>
<cmt>food</cmt>
<desc>Restaurant</desc>
<sym>Dot</sym>
<type>food</type>
</wpt>
<wpt lat="49.261170" lon="-122.777997">
<name>Megabite Pizza</name>
<cmt>food</cmt>
<desc>Fast Food / Chain</desc>
<sym>Dot</sym>
<type>food</type>
</wpt>
<wpt lat="49.271321" lon="-122.755135">
<name>Subway</name>
<cmt>food</cmt>
<desc>Fast Food / Chain</desc>
<sym>Dot</sym>
<type>food</type>
</wpt>
<wpt lat="49.271921" lon="-122.757155">
<name>The Arms Pub</name>
<cmt>bar</cmt>
<desc>Brewery / Pub</desc>
<sym>Dot</sym>
<type>food</type>
</wpt>
<wpt lat="49.261061" lon="-122.778044">
<name>7-Eleven</name>
<cmt>convenience_store</cmt>
<desc>Convenience Store</desc>
<sym>Dot</sym>
<type>store</type>
</wpt>
<wpt lat="49.271335" lon="-122.755624">
<name>Dairy Queen</name>
<cmt>food</cmt>
<desc>Ice Cream</desc>
<sym>Dot</sym>
<type>food</type>
</wpt>
<wpt lat="49.248174" lon="-122.807824">
<name>S.P.A.R.C. Museum</name>
<cmt>monument</cmt>
<desc>Museum / Gallery</desc>
<sym>Dot</sym>
<type>info</type>
</wpt>
<wpt lat="49.246604" lon="-122.809809">
<name>Riverview Lands Arboretum</name>
<cmt>park</cmt>
<desc>Park / Nature</desc>
<sym>Dot</sym>
<type>rest_area</type>
</wpt>
<trk><name>Traboulay PoCo Trail</name>
<trkseg>
<trkpt lat="49.229458" lon="-122.803354"/>
<trkpt lat="49.229745" lon="-122.803410"/>
<trkpt lat="49.232775" lon="-122.800946"/>
<trkpt lat="49.232812" lon="-122.801045"/>
<trkpt lat="49.233185" lon="-122.801934"/>
<trkpt lat="49.233206" lon="-122.801981"/>
<trkpt lat="49.234126" lon="-122.801326"/>
<trkpt lat="49.235026" lon="-122.801325"/>
<trkpt lat="49.235540" lon="-122.801686"/>
<trkpt lat="49.235738" lon="-122.802249"/>
<trkpt lat="49.235793" lon="-122.804996"/>
<trkpt lat="49.236264" lon="-122.806595"/>
<trkpt lat="49.237174" lon="-122.807919"/>
<trkpt lat="49.238118" lon="-122.808339"/>
<trkpt lat="49.239104" lon="-122.807858"/>
<trkpt lat="49.240735" lon="-122.807656"/>
<trkpt lat="49.241995" lon="-122.806605"/>
<trkpt lat="49.242710" lon="-122.804632"/>
<trkpt lat="49.243570" lon="-122.805012"/>
<trkpt lat="49.244714" lon="-122.803130"/>
<trkpt lat="49.245633" lon="-122.803291"/>
<trkpt lat="49.247308" lon="-122.801810"/>
<trkpt lat="49.249669" lon="-122.800960"/>
<trkpt lat="49.250319" lon="-122.800117"/>
<trkpt lat="49.250129" lon="-122.797988"/>
<trkpt lat="49.250530" lon="-122.796919"/>
<trkpt lat="49.251026" lon="-122.796072"/>
<trkpt lat="49.251499" lon="-122.795281"/>
</trkseg>
<trkseg>
<trkpt lat="49.251499" lon="-122.795281"/>
<trkpt lat="49.250925" lon="-122.795995"/>
<trkpt lat="49.251280" lon="-122.796275"/>
<trkpt lat="49.251590" lon="-122.795641"/>
</trkseg>
<trkseg>
<trkpt lat="49.251590" lon="-122.795641"/>
<trkpt lat="49.252063" lon="-122.794905"/>
<trkpt lat="49.252017" lon="-122.794770"/>
</trkseg>
<trkseg>
<trkpt lat="49.252017" lon="-122.794770"/>
<trkpt lat="49.252045" lon="-122.794733"/>
</trkseg>
<trkseg>
<trkpt lat="49.252045" lon="-122.794733"/>
<trkpt lat="49.252017" lon="-122.794770"/>
</trkseg>
<trkseg>
<trkpt lat="49.252045" lon="-122.794733"/>
<trkpt lat="49.253085" lon="-122.792799"/>
<trkpt lat="49.254216" lon="-122.792660"/>
<trkpt lat="49.255600" lon="-122.793013"/>
<trkpt lat="49.257287" lon="-122.791673"/>
<trkpt lat="49.257890" lon="-122.792158"/>
<trkpt lat="49.258432" lon="-122.794653"/>
<trkpt lat="49.258918" lon="-122.795426"/>
<trkpt lat="49.259766" lon="-122.795294"/>
<trkpt lat="49.260299" lon="-122.793847"/>
</trkseg>
<trkseg>
<trkpt lat="49.260299" lon="-122.793847"/>
<trkpt lat="49.259766" lon="-122.795294"/>
<trkpt lat="49.258918" lon="-122.795426"/>
<trkpt lat="49.258432" lon="-122.794653"/>
<trkpt lat="49.257890" lon="-122.792158"/>
<trkpt lat="49.257287" lon="-122.791673"/>
<trkpt lat="49.255600" lon="-122.793013"/>
<trkpt lat="49.254216" lon="-122.792660"/>
<trkpt lat="49.253085" lon="-122.792799"/>
<trkpt lat="49.252045" lon="-122.794733"/>
</trkseg>
<trkseg>
<trkpt lat="49.251804" lon="-122.794744"/>
<trkpt lat="49.251499" lon="-122.795281"/>
</trkseg>
<trkseg>
<trkpt lat="49.251499" lon="-122.795281"/>
<trkpt lat="49.250925" lon="-122.795995"/>
<trkpt lat="49.251280" lon="-122.796275"/>
<trkpt lat="49.251590" lon="-122.795641"/>
</trkseg>
<trkseg>
<trkpt lat="49.260299" lon="-122.793847"/>
<trkpt lat="49.260888" lon="-122.789887"/>
<trkpt lat="49.262377" lon="-122.785312"/>
<trkpt lat="49.264582" lon="-122.782258"/>
<trkpt lat="49.266127" lon="-122.780802"/>
<trkpt lat="49.266875" lon="-122.780288"/>
<trkpt lat="49.268188" lon="-122.780113"/>
<trkpt lat="49.271330" lon="-122.778049"/>
</trkseg>
<trkseg>
<trkpt lat="49.271330" lon="-122.778049"/>
<trkpt lat="49.268188" lon="-122.780113"/>
<trkpt lat="49.266875" lon="-122.780288"/>
<trkpt lat="49.266127" lon="-122.780802"/>
<trkpt lat="49.264582" lon="-122.782258"/>
<trkpt lat="49.262377" lon="-122.785312"/>
<trkpt lat="49.260888" lon="-122.789887"/>
<trkpt lat="49.260299" lon="-122.793847"/>
</trkseg>
<trkseg>
<trkpt lat="49.271330" lon="-122.778049"/>
<trkpt lat="49.272682" lon="-122.777147"/>
<trkpt lat="49.272905" lon="-122.776353"/>
<trkpt lat="49.273258" lon="-122.776375"/>
<trkpt lat="49.273768" lon="-122.775866"/>
<trkpt lat="49.274136" lon="-122.776279"/>
<trkpt lat="49.276554" lon="-122.776023"/>
</trkseg>
<trkseg>
<trkpt lat="49.276554" lon="-122.776023"/>
<trkpt lat="49.274136" lon="-122.776279"/>
<trkpt lat="49.273768" lon="-122.775866"/>
<trkpt lat="49.273258" lon="-122.776375"/>
<trkpt lat="49.272905" lon="-122.776353"/>
<trkpt lat="49.272682" lon="-122.777147"/>
<trkpt lat="49.271330" lon="-122.778049"/>
</trkseg>
<trkseg>
<trkpt lat="49.276554" lon="-122.776023"/>
<trkpt lat="49.276856" lon="-122.776027"/>
<trkpt lat="49.277739" lon="-122.776043"/>
<trkpt lat="49.278027" lon="-122.775377"/>
<trkpt lat="49.278400" lon="-122.775470"/>
<trkpt lat="49.278428" lon="-122.775577"/>
<trkpt lat="49.279044" lon="-122.775544"/>
<trkpt lat="49.279668" lon="-122.776136"/>
<trkpt lat="49.280169" lon="-122.775908"/>
<trkpt lat="49.279790" lon="-122.774742"/>
<trkpt lat="49.279787" lon="-122.773955"/>
<trkpt lat="49.279358" lon="-122.773065"/>
<trkpt lat="49.280466" lon="-122.772588"/>
<trkpt lat="49.280015" lon="-122.772119"/>
<trkpt lat="49.279478" lon="-122.770454"/>
<trkpt lat="49.278785" lon="-122.770449"/>
<trkpt lat="49.278611" lon="-122.769735"/>
<trkpt lat="49.278772" lon="-122.769226"/>
<trkpt lat="49.278686" lon="-122.767893"/>
<trkpt lat="49.278480" lon="-122.767330"/>
<trkpt lat="49.278478" lon="-122.767172"/>
<trkpt lat="49.278437" lon="-122.767112"/>
<trkpt lat="49.278331" lon="-122.767111"/>
<trkpt lat="49.278343" lon="-122.765264"/>
</trkseg>
<trkseg>
<trkpt lat="49.278343" lon="-122.765264"/>
<trkpt lat="49.278392" lon="-122.765303"/>
</trkseg>
<trkseg>
<trkpt lat="49.278343" lon="-122.765264"/>
<trkpt lat="49.277727" lon="-122.764980"/>
<trkpt lat="49.277119" lon="-122.763895"/>
<trkpt lat="49.276604" lon="-122.761825"/>
<trkpt lat="49.276512" lon="-122.761824"/>
<trkpt lat="49.276479" lon="-122.761825"/>
<trkpt lat="49.276479" lon="-122.761774"/>
<trkpt lat="49.276480" lon="-122.761637"/>
<trkpt lat="49.276510" lon="-122.757686"/>
<trkpt lat="49.276513" lon="-122.757485"/>
<trkpt lat="49.276511" lon="-122.756263"/>
<trkpt lat="49.276512" lon="-122.756247"/>
<trkpt lat="49.276516" lon="-122.756034"/>
<trkpt lat="49.276589" lon="-122.756007"/>
<trkpt lat="49.276591" lon="-122.755257"/>
<trkpt lat="49.276559" lon="-122.754837"/>
<trkpt lat="49.275775" lon="-122.753927"/>
<trkpt lat="49.275539" lon="-122.753243"/>
<trkpt lat="49.275725" lon="-122.751554"/>
<trkpt lat="49.281548" lon="-122.746326"/>
<trkpt lat="49.281937" lon="-122.745229"/>
<trkpt lat="49.282362" lon="-122.740426"/>
<trkpt lat="49.282816" lon="-122.738743"/>
<trkpt lat="49.282838" lon="-122.738435"/>
<trkpt lat="49.282867" lon="-122.738416"/>
<trkpt lat="49.283076" lon="-122.738283"/>
<trkpt lat="49.284858" lon="-122.735429"/>
<trkpt lat="49.285664" lon="-122.733997"/>
<trkpt lat="49.285383" lon="-122.733873"/>
<trkpt lat="49.285374" lon="-122.733781"/>
<trkpt lat="49.284035" lon="-122.730326"/>
<trkpt lat="49.282552" lon="-122.729549"/>
<trkpt lat="49.281265" lon="-122.727970"/>
<trkpt lat="49.281413" lon="-122.723751"/>
<trkpt lat="49.280768" lon="-122.717179"/>
<trkpt lat="49.280237" lon="-122.715351"/>
<trkpt lat="49.280143" lon="-122.715000"/>
<trkpt lat="49.279937" lon="-122.714223"/>
<trkpt lat="49.279886" lon="-122.714061"/>
<trkpt lat="49.279032" lon="-122.711059"/>
<trkpt lat="49.278575" lon="-122.710599"/>
<trkpt lat="49.274164" lon="-122.713015"/>
<trkpt lat="49.272061" lon="-122.713801"/>
<trkpt lat="49.268368" lon="-122.716113"/>
<trkpt lat="49.266834" lon="-122.717756"/>
<trkpt lat="49.263133" lon="-122.720146"/>
<trkpt lat="49.255885" lon="-122.724094"/>
<trkpt lat="49.253078" lon="-122.727238"/>
<trkpt lat="49.252935" lon="-122.727832"/>
<trkpt lat="49.253100" lon="-122.729748"/>
<trkpt lat="49.250674" lon="-122.732818"/>
<trkpt lat="49.250389" lon="-122.732794"/>
<trkpt lat="49.250033" lon="-122.731728"/>
<trkpt lat="49.250534" lon="-122.730652"/>
<trkpt lat="49.249801" lon="-122.731183"/>
<trkpt lat="49.249576" lon="-122.731527"/>
<trkpt lat="49.248946" lon="-122.731633"/>
<trkpt lat="49.248687" lon="-122.732741"/>
<trkpt lat="49.248083" lon="-122.733779"/>
<trkpt lat="49.248055" lon="-122.733868"/>
<trkpt lat="49.248271" lon="-122.734218"/>
<trkpt lat="49.248213" lon="-122.735478"/>
<trkpt lat="49.249364" lon="-122.735463"/>
<trkpt lat="49.249396" lon="-122.736097"/>
<trkpt lat="49.249384" lon="-122.737673"/>
<trkpt lat="49.248821" lon="-122.738732"/>
<trkpt lat="49.247632" lon="-122.740345"/>
<trkpt lat="49.246882" lon="-122.742240"/>
<trkpt lat="49.246837" lon="-122.742391"/>
<trkpt lat="49.246779" lon="-122.742295"/>
<trkpt lat="49.247033" lon="-122.740800"/>
</trkseg>
<trkseg>
<trkpt lat="49.247033" lon="-122.740800"/>
<trkpt lat="49.247316" lon="-122.740037"/>
<trkpt lat="49.247123" lon="-122.739361"/>
</trkseg>
<trkseg>
<trkpt lat="49.247123" lon="-122.739361"/>
<trkpt lat="49.247316" lon="-122.740037"/>
<trkpt lat="49.247033" lon="-122.740800"/>
</trkseg>
<trkseg>
<trkpt lat="49.247123" lon="-122.739361"/>
<trkpt lat="49.247096" lon="-122.739269"/>
</trkseg>
<trkseg>
<trkpt lat="49.247096" lon="-122.739269"/>
<trkpt lat="49.247123" lon="-122.739361"/>
</trkseg>
<trkseg>
<trkpt lat="49.247096" lon="-122.739269"/>
<trkpt lat="49.246722" lon="-122.738394"/>
<trkpt lat="49.246466" lon="-122.738495"/>
</trkseg>
<trkseg>
<trkpt lat="49.246466" lon="-122.738495"/>
<trkpt lat="49.246048" lon="-122.741484"/>
<trkpt lat="49.245235" lon="-122.744168"/>
<trkpt lat="49.242596" lon="-122.750768"/>
<trkpt lat="49.239668" lon="-122.757194"/>
<trkpt lat="49.236554" lon="-122.762545"/>
<trkpt lat="49.236046" lon="-122.764297"/>
</trkseg>
<trkseg>
<trkpt lat="49.236046" lon="-122.764297"/>
<trkpt lat="49.235809" lon="-122.765942"/>
</trkseg>
<trkseg>
<trkpt lat="49.235809" lon="-122.765942"/>
<trkpt lat="49.235407" lon="-122.767216"/>
<trkpt lat="49.234415" lon="-122.769076"/>
</trkseg>
<trkseg>
<trkpt lat="49.234415" lon="-122.769076"/>
<trkpt lat="49.235407" lon="-122.767216"/>
<trkpt lat="49.235809" lon="-122.765942"/>
</trkseg>
<trkseg>
<trkpt lat="49.235809" lon="-122.765942"/>
<trkpt lat="49.235764" lon="-122.766097"/>
</trkseg>
<trkseg>
<trkpt lat="49.235809" lon="-122.765942"/>
<trkpt lat="49.236046" lon="-122.764297"/>
</trkseg>
<trkseg>
<trkpt lat="49.236046" lon="-122.764297"/>
<trkpt lat="49.236554" lon="-122.762545"/>
<trkpt lat="49.239668" lon="-122.757194"/>
<trkpt lat="49.242596" lon="-122.750768"/>
<trkpt lat="49.245235" lon="-122.744168"/>
<trkpt lat="49.246048" lon="-122.741484"/>
<trkpt lat="49.246466" lon="-122.738495"/>
</trkseg>
<trkseg>
<trkpt lat="49.246466" lon="-122.738495"/>
<trkpt lat="49.246722" lon="-122.738394"/>
<trkpt lat="49.247096" lon="-122.739269"/>
</trkseg>
<trkseg>
<trkpt lat="49.234415" lon="-122.769076"/>
<trkpt lat="49.234276" lon="-122.768974"/>
</trkseg>
<trkseg>
<trkpt lat="49.234276" lon="-122.768974"/>
<trkpt lat="49.234415" lon="-122.769076"/>
</trkseg>
<trkseg>
<trkpt lat="49.234276" lon="-122.768974"/>
<trkpt lat="49.234154" lon="-122.768947"/>
</trkseg>
<trkseg>
<trkpt lat="49.234154" lon="-122.768947"/>
<trkpt lat="49.234102" lon="-122.769096"/>
</trkseg>
<trkseg>
<trkpt lat="49.234102" lon="-122.769096"/>
<trkpt lat="49.233824" lon="-122.769832"/>
</trkseg>
<trkseg>
<trkpt lat="49.233824" lon="-122.769832"/>
<trkpt lat="49.231635" lon="-122.772364"/>
<trkpt lat="49.230212" lon="-122.772947"/>
<trkpt lat="49.229524" lon="-122.773653"/>
<trkpt lat="49.228760" lon="-122.775384"/>
<trkpt lat="49.228112" lon="-122.778586"/>
</trkseg>
<trkseg>
<trkpt lat="49.228112" lon="-122.778586"/>
<trkpt lat="49.227512" lon="-122.783320"/>
<trkpt lat="49.227602" lon="-122.784273"/>
<trkpt lat="49.227262" lon="-122.785124"/>
<trkpt lat="49.226655" lon="-122.790493"/>
<trkpt lat="49.226433" lon="-122.795419"/>
<trkpt lat="49.226620" lon="-122.795843"/>
<trkpt lat="49.227053" lon="-122.795974"/>
</trkseg>
<trkseg>
<trkpt lat="49.227053" lon="-122.795974"/>
<trkpt lat="49.227058" lon="-122.795960"/>
</trkseg>
<trkseg>
<trkpt lat="49.227058" lon="-122.795960"/>
<trkpt lat="49.227053" lon="-122.795974"/>
</trkseg>
<trkseg>
<trkpt lat="49.227053" lon="-122.795974"/>
<trkpt lat="49.226620" lon="-122.795843"/>
<trkpt lat="49.226433" lon="-122.795419"/>
<trkpt lat="49.226655" lon="-122.790493"/>
<trkpt lat="49.227262" lon="-122.785124"/>
<trkpt lat="49.227602" lon="-122.784273"/>
<trkpt lat="49.227512" lon="-122.783320"/>
<trkpt lat="49.228112" lon="-122.778586"/>
</trkseg>
<trkseg>
<trkpt lat="49.228112" lon="-122.778586"/>
<trkpt lat="49.228760" lon="-122.775384"/>
<trkpt lat="49.229524" lon="-122.773653"/>
<trkpt lat="49.230212" lon="-122.772947"/>
<trkpt lat="49.231635" lon="-122.772364"/>
<trkpt lat="49.233824" lon="-122.769832"/>
</trkseg>
<trkseg>
<trkpt lat="49.233824" lon="-122.769832"/>
<trkpt lat="49.234102" lon="-122.769096"/>
</trkseg>
<trkseg>
<trkpt lat="49.234102" lon="-122.769096"/>
<trkpt lat="49.234154" lon="-122.768947"/>
</trkseg>
<trkseg>
<trkpt lat="49.234154" lon="-122.768947"/>
<trkpt lat="49.234276" lon="-122.768974"/>
</trkseg>
<trkseg>
<trkpt lat="49.227437" lon="-122.795755"/>
<trkpt lat="49.227845" lon="-122.795596"/>
<trkpt lat="49.228095" lon="-122.795878"/>
<trkpt lat="49.228116" lon="-122.797591"/>
<trkpt lat="49.229458" lon="-122.803354"/>
</trkseg>
<trkseg>
<trkpt lat="49.229458" lon="-122.803354"/>
<trkpt lat="49.228116" lon="-122.797591"/>
<trkpt lat="49.228095" lon="-122.795878"/>
<trkpt lat="49.227845" lon="-122.795596"/>
<trkpt lat="49.227437" lon="-122.795755"/>
</trkseg>
<trkseg>
<trkpt lat="49.227437" lon="-122.795755"/>
<trkpt lat="49.227376" lon="-122.795725"/>
</trkseg>
<trkseg>
<trkpt lat="49.227376" lon="-122.795725"/>
<trkpt lat="49.227437" lon="-122.795755"/>
</trkseg>
<trkseg>
<trkpt lat="49.227376" lon="-122.795725"/>
<trkpt lat="49.227335" lon="-122.795736"/>
</trkseg>
<trkseg>
<trkpt lat="49.227335" lon="-122.795736"/>
<trkpt lat="49.227129" lon="-122.795811"/>
</trkseg>
<trkseg>
<trkpt lat="49.227129" lon="-122.795811"/>
<trkpt lat="49.227113" lon="-122.795814"/>
</trkseg>
<trkseg>
<trkpt lat="49.227113" lon="-122.795814"/>
<trkpt lat="49.227105" lon="-122.795828"/>
</trkseg>
<trkseg>
<trkpt lat="49.227105" lon="-122.795828"/>
<trkpt lat="49.227058" lon="-122.795960"/>
</trkseg>
<trkseg>
<trkpt lat="49.227058" lon="-122.795960"/>
<trkpt lat="49.227105" lon="-122.795828"/>
</trkseg>
<trkseg>
<trkpt lat="49.227105" lon="-122.795828"/>
<trkpt lat="49.227113" lon="-122.795814"/>
</trkseg>
<trkseg>
<trkpt lat="49.227113" lon="-122.795814"/>
<trkpt lat="49.227129" lon="-122.795811"/>
</trkseg>
<trkseg>
<trkpt lat="49.227129" lon="-122.795811"/>
<trkpt lat="49.227335" lon="-122.795736"/>
</trkseg>
</trk>
</gpx>