<?xml version="1.0" encoding="UTF-8"?>
<gpx version="1.1" creator="BC Bike Stops (bccycletourism.ca)" xmlns="http://www.topografix.com/GPX/1/1">
<metadata>
<name>Mary Hill Bypass</name>
<link href="https://bccycletourism.ca/trail/mary-hill-bypass/"><text>BC Bike Stops</text></link>
</metadata>
<wpt lat="49.235082" lon="-122.767172">
<name>Gillnetter Pub</name>
<cmt>bar</cmt>
<desc>Brewery / Pub</desc>
<sym>Dot</sym>
<type>food</type>
</wpt>
<wpt lat="49.241490" lon="-122.761751">
<name>A&amp;W</name>
<cmt>food</cmt>
<desc>Fast Food / Chain</desc>
<sym>Dot</sym>
<type>food</type>
</wpt>
<wpt lat="49.242052" lon="-122.760669">
<name>Sushiway</name>
<cmt>food</cmt>
<desc>Restaurant</desc>
<sym>Dot</sym>
<type>food</type>
</wpt>
<wpt lat="49.241842" lon="-122.761240">
<name>Subway</name>
<cmt>food</cmt>
<desc>Fast Food / Chain</desc>
<sym>Dot</sym>
<type>food</type>
</wpt>
<wpt lat="49.241781" lon="-122.761747">
<name>Quesada</name>
<cmt>food</cmt>
<desc>Fast Food / Chain</desc>
<sym>Dot</sym>
<type>food</type>
</wpt>
<wpt lat="49.247039" lon="-122.749407">
<name>On the Run</name>
<cmt>convenience_store</cmt>
<desc>Convenience Store</desc>
<sym>Dot</sym>
<type>store</type>
</wpt>
<wpt lat="49.246948" lon="-122.749874">
<name>Tim Hortons</name>
<cmt>food</cmt>
<desc>Fast Food / Chain</desc>
<sym>Dot</sym>
<type>food</type>
</wpt>
<wpt lat="49.241838" lon="-122.761913">
<name>Starbucks</name>
<cmt>food</cmt>
<desc>Fast Food / Chain</desc>
<sym>Dot</sym>
<type>food</type>
</wpt>
<wpt lat="49.253332" lon="-122.740367">
<name>Burger King</name>
<cmt>food</cmt>
<desc>Fast Food / Chain</desc>
<sym>Dot</sym>
<type>food</type>
</wpt>
<wpt lat="49.252163" lon="-122.736559">
<name>Pür &amp; Simple</name>
<cmt>food</cmt>
<desc>Restaurant</desc>
<sym>Dot</sym>
<type>food</type>
</wpt>
<wpt lat="49.251735" lon="-122.735940">
<name>C Market Coffee</name>
<cmt>coffee</cmt>
<desc>Café / Coffee</desc>
<sym>Dot</sym>
<type>food</type>
</wpt>
<wpt lat="49.252457" lon="-122.737076">
<name>Grelhados</name>
<cmt>food</cmt>
<desc>Restaurant</desc>
<sym>Dot</sym>
<type>food</type>
</wpt>
<wpt lat="49.252128" lon="-122.736412">
<name>Pizza Hut</name>
<cmt>food</cmt>
<desc>Fast Food / Chain</desc>
<sym>Dot</sym>
<type>food</type>
</wpt>
<wpt lat="49.253102" lon="-122.738030">
<name>NoodleBox</name>
<cmt>food</cmt>
<desc>Fast Food / Chain</desc>
<sym>Dot</sym>
<type>food</type>
</wpt>
<wpt lat="49.253038" lon="-122.737845">
<name>Kai Japanese Restaurant</name>
<cmt>food</cmt>
<desc>Restaurant</desc>
<sym>Dot</sym>
<type>food</type>
</wpt>
<wpt lat="49.252026" lon="-122.735614">
<name>The Hive</name>
<cmt>rest_stop</cmt>
<desc>Community Centre</desc>
<sym>Dot</sym>
<type>rest_area</type>
</wpt>
<wpt lat="49.254033" lon="-122.738870">
<name>Mucho Burrito</name>
<cmt>food</cmt>
<desc>Fast Food / Chain</desc>
<sym>Dot</sym>
<type>food</type>
</wpt>
<wpt lat="49.253403" lon="-122.737379">
<name>A&amp;W</name>
<cmt>food</cmt>
<desc>Fast Food / Chain</desc>
<sym>Dot</sym>
<type>food</type>
</wpt>
<wpt lat="49.254136" lon="-122.738868">
<name>Five Guys</name>
<cmt>food</cmt>
<desc>Fast Food / Chain</desc>
<sym>Dot</sym>
<type>food</type>
</wpt>
<wpt lat="49.255246" lon="-122.741545">
<name>Canadian Tire</name>
<cmt>convenience_store</cmt>
<desc>General merchandise</desc>
<sym>Dot</sym>
<type>store</type>
</wpt>
<wpt lat="49.254335" lon="-122.737988">
<name>Starbucks</name>
<cmt>food</cmt>
<desc>Fast Food / Chain</desc>
<sym>Dot</sym>
<type>food</type>
</wpt>
<wpt lat="49.254457" lon="-122.738022">
<name>Subway</name>
<cmt>food</cmt>
<desc>Fast Food / Chain</desc>
<sym>Dot</sym>
<type>food</type>
</wpt>
<wpt lat="49.255725" lon="-122.741168">
<name>H Mart</name>
<cmt>convenience_store</cmt>
<desc>Grocery Store</desc>
<sym>Dot</sym>
<type>store</type>
</wpt>
<wpt lat="49.251238" lon="-122.732836">
<name>Tinhouse Brewing</name>
<cmt>bar</cmt>
<desc>Brewery / Pub</desc>
<sym>Dot</sym>
<type>food</type>
</wpt>
<wpt lat="49.251190" lon="-122.732744">
<name>Tinhouse Tasting Lounge</name>
<cmt>bar</cmt>
<desc>Brewery / Pub</desc>
<sym>Dot</sym>
<type>food</type>
</wpt>
<wpt lat="49.254683" lon="-122.737928">
<name>Popeyes</name>
<cmt>food</cmt>
<desc>Fast Food / Chain</desc>
<sym>Dot</sym>
<type>food</type>
</wpt>
<wpt lat="49.254767" lon="-122.737921">
<name>Panago</name>
<cmt>food</cmt>
<desc>Fast Food / Chain</desc>
<sym>Dot</sym>
<type>food</type>
</wpt>
<wpt lat="49.255895" lon="-122.743829">
<name>Costco</name>
<cmt>convenience_store</cmt>
<desc>Grocery Store</desc>
<sym>Dot</sym>
<type>store</type>
</wpt>
<wpt lat="49.255962" lon="-122.739555">
<name>Cannoli King</name>
<cmt>food</cmt>
<desc>Bakery / Donuts</desc>
<sym>Dot</sym>
<type>food</type>
</wpt>
<wpt lat="49.256039" lon="-122.744875">
<name>Costco Food Court</name>
<cmt>food</cmt>
<desc>Fast Food / Chain</desc>
<sym>Dot</sym>
<type>food</type>
</wpt>
<wpt lat="49.252992" lon="-122.733207">
<name>Side Quest Brewing Co.</name>
<cmt>bar</cmt>
<desc>Brewery / Pub</desc>
<sym>Dot</sym>
<type>food</type>
</wpt>
<wpt lat="49.255495" lon="-122.746681">
<name>White Spot</name>
<cmt>food</cmt>
<desc>Fast Food / Chain</desc>
<sym>Dot</sym>
<type>food</type>
</wpt>
<wpt lat="49.254881" lon="-122.735697">
<name>Walmart</name>
<cmt>convenience_store</cmt>
<desc>Grocery Store</desc>
<sym>Dot</sym>
<type>store</type>
</wpt>
<wpt lat="49.254865" lon="-122.735427">
<name>McDonald's</name>
<cmt>food</cmt>
<desc>Fast Food / Chain</desc>
<sym>Dot</sym>
<type>food</type>
</wpt>
<trk><name>Mary Hill Bypass</name>
<trkseg>
<trkpt lat="49.227735" lon="-122.819815"/>
<trkpt lat="49.227725" lon="-122.819770"/>
<trkpt lat="49.227702" lon="-122.819675"/>
<trkpt lat="49.227665" lon="-122.819598"/>
<trkpt lat="49.227632" lon="-122.819486"/>
<trkpt lat="49.227572" lon="-122.819413"/>
<trkpt lat="49.227512" lon="-122.819376"/>
<trkpt lat="49.227466" lon="-122.818760"/>
<trkpt lat="49.227102" lon="-122.817674"/>
<trkpt lat="49.225422" lon="-122.813816"/>
<trkpt lat="49.225228" lon="-122.812594"/>
<trkpt lat="49.225316" lon="-122.811176"/>
<trkpt lat="49.226636" lon="-122.806973"/>
<trkpt lat="49.227087" lon="-122.805534"/>
<trkpt lat="49.227576" lon="-122.803787"/>
<trkpt lat="49.227820" lon="-122.801713"/>
<trkpt lat="49.227400" lon="-122.797398"/>
<trkpt lat="49.227203" lon="-122.796013"/>
<trkpt lat="49.227165" lon="-122.795715"/>
<trkpt lat="49.227150" lon="-122.795608"/>
<trkpt lat="49.227104" lon="-122.795287"/>
<trkpt lat="49.226772" lon="-122.791955"/>
<trkpt lat="49.226995" lon="-122.788983"/>
<trkpt lat="49.227531" lon="-122.786653"/>
<trkpt lat="49.229594" lon="-122.780270"/>
<trkpt lat="49.230509" lon="-122.775162"/>
<trkpt lat="49.231028" lon="-122.773977"/>
<trkpt lat="49.233485" lon="-122.770928"/>
<trkpt lat="49.234513" lon="-122.769400"/>
<trkpt lat="49.236196" lon="-122.765785"/>
<trkpt lat="49.237237" lon="-122.764501"/>
<trkpt lat="49.239374" lon="-122.764048"/>
<trkpt lat="49.240250" lon="-122.762801"/>
<trkpt lat="49.240581" lon="-122.762133"/>
<trkpt lat="49.240736" lon="-122.761818"/>
<trkpt lat="49.240866" lon="-122.761571"/>
<trkpt lat="49.241333" lon="-122.760658"/>
<trkpt lat="49.241577" lon="-122.760194"/>
<trkpt lat="49.242853" lon="-122.757745"/>
<trkpt lat="49.243399" lon="-122.756657"/>
<trkpt lat="49.243527" lon="-122.756402"/>
<trkpt lat="49.243697" lon="-122.756072"/>
<trkpt lat="49.243816" lon="-122.755829"/>
<trkpt lat="49.245005" lon="-122.753344"/>
<trkpt lat="49.245996" lon="-122.750259"/>
<trkpt lat="49.246262" lon="-122.749005"/>
<trkpt lat="49.246357" lon="-122.748441"/>
<trkpt lat="49.246412" lon="-122.748122"/>
</trkseg>
<trkseg>
<trkpt lat="49.246412" lon="-122.748122"/>
<trkpt lat="49.246438" lon="-122.747952"/>
<trkpt lat="49.246490" lon="-122.747476"/>
<trkpt lat="49.246524" lon="-122.747141"/>
<trkpt lat="49.246594" lon="-122.746401"/>
<trkpt lat="49.246673" lon="-122.744634"/>
<trkpt lat="49.246914" lon="-122.742463"/>
<trkpt lat="49.246837" lon="-122.742391"/>
</trkseg>
<trkseg>
<trkpt lat="49.246837" lon="-122.742391"/>
<trkpt lat="49.246363" lon="-122.747443"/>
<trkpt lat="49.246371" lon="-122.747620"/>
<trkpt lat="49.246369" lon="-122.747738"/>
<trkpt lat="49.246353" lon="-122.748056"/>
<trkpt lat="49.246352" lon="-122.748085"/>
<trkpt lat="49.246365" lon="-122.748093"/>
<trkpt lat="49.246412" lon="-122.748122"/>
</trkseg>
<trkseg>
<trkpt lat="49.246837" lon="-122.742391"/>
<trkpt lat="49.246882" lon="-122.742240"/>
<trkpt lat="49.247632" lon="-122.740345"/>
<trkpt lat="49.248821" lon="-122.738732"/>
<trkpt lat="49.249384" lon="-122.737673"/>
<trkpt lat="49.249396" lon="-122.736097"/>
</trkseg>
<trkseg>
<trkpt lat="49.253038" lon="-122.742157"/>
<trkpt lat="49.252995" lon="-122.742053"/>
<trkpt lat="49.252949" lon="-122.741937"/>
<trkpt lat="49.252250" lon="-122.740299"/>
<trkpt lat="49.250980" lon="-122.737762"/>
<trkpt lat="49.250123" lon="-122.737936"/>
<trkpt lat="49.249027" lon="-122.738877"/>
<trkpt lat="49.248851" lon="-122.739053"/>
<trkpt lat="49.248103" lon="-122.739937"/>
<trkpt lat="49.247848" lon="-122.740344"/>
<trkpt lat="49.246955" lon="-122.742844"/>
<trkpt lat="49.246737" lon="-122.745949"/>
<trkpt lat="49.246672" lon="-122.746848"/>
<trkpt lat="49.246598" lon="-122.747569"/>
<trkpt lat="49.246537" lon="-122.748043"/>
<trkpt lat="49.246483" lon="-122.748407"/>
<trkpt lat="49.246207" lon="-122.749875"/>
<trkpt lat="49.246123" lon="-122.750243"/>
<trkpt lat="49.246055" lon="-122.750518"/>
<trkpt lat="49.244633" lon="-122.754479"/>
<trkpt lat="49.244128" lon="-122.755474"/>
<trkpt lat="49.244033" lon="-122.755660"/>
<trkpt lat="49.243819" lon="-122.756104"/>
<trkpt lat="49.243695" lon="-122.756348"/>
<trkpt lat="49.241620" lon="-122.760392"/>
<trkpt lat="49.241245" lon="-122.761123"/>
<trkpt lat="49.240994" lon="-122.761614"/>
<trkpt lat="49.240838" lon="-122.761934"/>
<trkpt lat="49.240676" lon="-122.762248"/>
<trkpt lat="49.240009" lon="-122.763516"/>
<trkpt lat="49.239132" lon="-122.764325"/>
<trkpt lat="49.237263" lon="-122.764618"/>
<trkpt lat="49.236272" lon="-122.765851"/>
<trkpt lat="49.234826" lon="-122.769096"/>
<trkpt lat="49.234636" lon="-122.769447"/>
<trkpt lat="49.234597" lon="-122.769515"/>
<trkpt lat="49.234461" lon="-122.769759"/>
<trkpt lat="49.231141" lon="-122.773994"/>
<trkpt lat="49.230631" lon="-122.775030"/>
<trkpt lat="49.229583" lon="-122.780652"/>
<trkpt lat="49.227092" lon="-122.788983"/>
<trkpt lat="49.226864" lon="-122.791873"/>
<trkpt lat="49.227132" lon="-122.794648"/>
<trkpt lat="49.227223" lon="-122.795300"/>
<trkpt lat="49.227266" lon="-122.795619"/>
<trkpt lat="49.227322" lon="-122.796012"/>
<trkpt lat="49.227909" lon="-122.801537"/>
<trkpt lat="49.227712" lon="-122.803522"/>
<trkpt lat="49.227163" lon="-122.805590"/>
<trkpt lat="49.226925" lon="-122.806349"/>
<trkpt lat="49.226710" lon="-122.807029"/>
<trkpt lat="49.226229" lon="-122.808548"/>
<trkpt lat="49.225321" lon="-122.811981"/>
<trkpt lat="49.225421" lon="-122.813380"/>
<trkpt lat="49.225908" lon="-122.814778"/>
<trkpt lat="49.226886" lon="-122.816356"/>
<trkpt lat="49.227628" lon="-122.817542"/>
<trkpt lat="49.228293" lon="-122.819007"/>
<trkpt lat="49.228257" lon="-122.819081"/>
<trkpt lat="49.228228" lon="-122.819140"/>
<trkpt lat="49.228246" lon="-122.819258"/>
<trkpt lat="49.228248" lon="-122.819274"/>
<trkpt lat="49.228278" lon="-122.819465"/>
<trkpt lat="49.228286" lon="-122.819518"/>
</trkseg>
<trkseg>
<trkpt lat="49.225745" lon="-122.809704"/>
<trkpt lat="49.225772" lon="-122.809467"/>
</trkseg>
</trk>
</gpx>