<?xml version="1.0" encoding="UTF-8"?>
<gpx version="1.1" creator="We Welcome Cyclists (bccycletourism.ca)" xmlns="http://www.topografix.com/GPX/1/1">
<metadata>
<name>Tynehead Perimeter Trail</name>
<link href="https://bccycletourism.ca/trail/tynehead-perimeter-trail/"><text>We Welcome Cyclists</text></link>
</metadata>
<wpt lat="49.177585" lon="-122.756164">
<name>Tim Hortons</name>
<cmt>food</cmt>
<desc>Fast Food / Chain</desc>
<sym>Dot</sym>
<type>food</type>
</wpt>
<wpt lat="49.180003" lon="-122.764076">
<name>Raven's Nest Outdoor Group Campsite</name>
<cmt>camping</cmt>
<desc>Public Campground</desc>
<sym>Dot</sym>
<type>campsite</type>
</wpt>
<trk><name>Tynehead Perimeter Trail</name>
<trkseg>
<trkpt lat="49.177116" lon="-122.764071"/>
<trkpt lat="49.177112" lon="-122.763395"/>
<trkpt lat="49.177111" lon="-122.762992"/>
<trkpt lat="49.177249" lon="-122.761623"/>
<trkpt lat="49.177914" lon="-122.761346"/>
<trkpt lat="49.177582" lon="-122.760076"/>
<trkpt lat="49.177661" lon="-122.759516"/>
<trkpt lat="49.177728" lon="-122.759224"/>
<trkpt lat="49.177665" lon="-122.758379"/>
<trkpt lat="49.177154" lon="-122.757808"/>
<trkpt lat="49.177181" lon="-122.756785"/>
</trkseg>
<trkseg>
<trkpt lat="49.178212" lon="-122.755303"/>
<trkpt lat="49.178457" lon="-122.754937"/>
</trkseg>
<trkseg>
<trkpt lat="49.178118" lon="-122.754833"/>
<trkpt lat="49.179358" lon="-122.754946"/>
<trkpt lat="49.180320" lon="-122.756169"/>
<trkpt lat="49.183569" lon="-122.756004"/>
<trkpt lat="49.184382" lon="-122.756228"/>
<trkpt lat="49.184345" lon="-122.748214"/>
<trkpt lat="49.183506" lon="-122.744249"/>
<trkpt lat="49.182683" lon="-122.742657"/>
<trkpt lat="49.181912" lon="-122.740291"/>
<trkpt lat="49.181173" lon="-122.740072"/>
<trkpt lat="49.178707" lon="-122.735998"/>
<trkpt lat="49.177152" lon="-122.735455"/>
</trkseg>
<trkseg>
<trkpt lat="49.176785" lon="-122.735059"/>
<trkpt lat="49.177152" lon="-122.735455"/>
<trkpt lat="49.177502" lon="-122.740750"/>
<trkpt lat="49.178166" lon="-122.743683"/>
<trkpt lat="49.177817" lon="-122.745844"/>
<trkpt lat="49.177346" lon="-122.746820"/>
<trkpt lat="49.177518" lon="-122.748518"/>
<trkpt lat="49.177514" lon="-122.748632"/>
<trkpt lat="49.177402" lon="-122.750165"/>
<trkpt lat="49.177658" lon="-122.751287"/>
<trkpt lat="49.177468" lon="-122.752746"/>
<trkpt lat="49.177471" lon="-122.752909"/>
<trkpt lat="49.177591" lon="-122.754147"/>
</trkseg>
<trkseg>
<trkpt lat="49.177591" lon="-122.754147"/>
<trkpt lat="49.177827" lon="-122.754525"/>
<trkpt lat="49.177935" lon="-122.754685"/>
<trkpt lat="49.178212" lon="-122.755303"/>
<trkpt lat="49.177996" lon="-122.756000"/>
<trkpt lat="49.177735" lon="-122.756373"/>
<trkpt lat="49.177178" lon="-122.756424"/>
<trkpt lat="49.177194" lon="-122.755301"/>
<trkpt lat="49.177591" lon="-122.754147"/>
</trkseg>
<trkseg>
<trkpt lat="49.177255" lon="-122.736846"/>
<trkpt lat="49.177739" lon="-122.735800"/>
</trkseg>
</trk>
</gpx>