<?xml version="1.0" encoding="UTF-8"?>
<gpx version="1.1" creator="We Welcome Cyclists (bccycletourism.ca)" xmlns="http://www.topografix.com/GPX/1/1">
<metadata>
<name>Highway 15 Cycle Route</name>
<link href="https://bccycletourism.ca/trail/highway-15-cycle-route/"><text>We Welcome Cyclists</text></link>
</metadata>
<wpt lat="49.031061" lon="-122.728364">
<name>Creekside Greenhouses</name>
<cmt>convenience_store</cmt>
<desc>Farmers' Market</desc>
<sym>Dot</sym>
<type>store</type>
</wpt>
<wpt lat="49.120177" lon="-122.734632">
<name>Boston Pizza</name>
<cmt>food</cmt>
<desc>Fast Food / Chain</desc>
<sym>Dot</sym>
<type>food</type>
</wpt>
<wpt lat="49.015739" lon="-122.734888">
<name>Surrey Visitor Centre</name>
<cmt>generic</cmt>
<desc>Visitor Centre</desc>
<sym>Dot</sym>
<type>generic</type>
</wpt>
<wpt lat="49.105616" lon="-122.738875">
<name>Starbucks</name>
<cmt>food</cmt>
<desc>Fast Food / Chain</desc>
<sym>Dot</sym>
<type>food</type>
</wpt>
<wpt lat="49.111041" lon="-122.734292">
<name>7-Eleven</name>
<cmt>convenience_store</cmt>
<desc>Convenience Store</desc>
<sym>Dot</sym>
<type>store</type>
</wpt>
<wpt lat="49.005384" lon="-122.736194">
<name>Bennett Craft Kitchen</name>
<cmt>bar</cmt>
<desc>Brewery / Pub</desc>
<sym>Dot</sym>
<type>food</type>
</wpt>
<wpt lat="49.060534" lon="-122.736232">
<name>Tim Hortons</name>
<cmt>food</cmt>
<desc>Fast Food / Chain</desc>
<sym>Dot</sym>
<type>food</type>
</wpt>
<wpt lat="49.138431" lon="-122.733718">
<name>Honeybee Centre</name>
<cmt>coffee</cmt>
<desc>Café / Coffee</desc>
<sym>Dot</sym>
<type>food</type>
</wpt>
<wpt lat="49.119302" lon="-122.734067">
<name>Chevron</name>
<cmt>convenience_store</cmt>
<desc>Convenience Store</desc>
<sym>Dot</sym>
<type>store</type>
</wpt>
<wpt lat="49.119358" lon="-122.733988">
<name>McDonald's</name>
<cmt>food</cmt>
<desc>Fast Food / Chain</desc>
<sym>Dot</sym>
<type>food</type>
</wpt>
<wpt lat="49.113095" lon="-122.733630">
<name>Cloverdale Arena</name>
<cmt>rest_stop</cmt>
<desc>Community Centre</desc>
<sym>Dot</sym>
<type>rest_area</type>
</wpt>
<wpt lat="49.105767" lon="-122.739572">
<name>Vera's Burger Shack</name>
<cmt>food</cmt>
<desc>Restaurant</desc>
<sym>Dot</sym>
<type>food</type>
</wpt>
<wpt lat="49.120010" lon="-122.733651">
<name>Freshii</name>
<cmt>food</cmt>
<desc>Restaurant</desc>
<sym>Dot</sym>
<type>food</type>
</wpt>
<wpt lat="49.115485" lon="-122.733618">
<name>Cloverdale Recreation Centre</name>
<cmt>rest_stop</cmt>
<desc>Community Centre</desc>
<sym>Dot</sym>
<type>rest_area</type>
</wpt>
<wpt lat="49.120014" lon="-122.733542">
<name>Starbucks</name>
<cmt>food</cmt>
<desc>Fast Food / Chain</desc>
<sym>Dot</sym>
<type>food</type>
</wpt>
<wpt lat="49.030853" lon="-122.712088">
<name>Chevron</name>
<cmt>convenience_store</cmt>
<desc>Convenience Store</desc>
<sym>Dot</sym>
<type>store</type>
</wpt>
<wpt lat="49.119158" lon="-122.732984">
<name>Tim Hortons</name>
<cmt>food</cmt>
<desc>Fast Food / Chain</desc>
<sym>Dot</sym>
<type>food</type>
</wpt>
<wpt lat="49.003828" lon="-122.737395">
<name>Pacific Border RV Park</name>
<cmt>camping</cmt>
<desc>Private Campground</desc>
<sym>Dot</sym>
<type>campsite</type>
</wpt>
<wpt lat="49.118474" lon="-122.737525">
<name>Holiday Inn</name>
<cmt>lodging</cmt>
<desc>Hotel / Motel</desc>
<sym>Dot</sym>
<type>shelter</type>
</wpt>
<wpt lat="49.107109" lon="-122.734777">
<name>The Vault</name>
<cmt>food</cmt>
<desc>Restaurant</desc>
<sym>Dot</sym>
<type>food</type>
</wpt>
<wpt lat="49.120240" lon="-122.732218">
<name>Save-On-Foods</name>
<cmt>convenience_store</cmt>
<desc>Grocery Store</desc>
<sym>Dot</sym>
<type>store</type>
</wpt>
<wpt lat="49.119003" lon="-122.732175">
<name>Umami Sushi</name>
<cmt>food</cmt>
<desc>Restaurant</desc>
<sym>Dot</sym>
<type>food</type>
</wpt>
<wpt lat="49.107563" lon="-122.733518">
<name>Jumbo Pizza</name>
<cmt>food</cmt>
<desc>Restaurant</desc>
<sym>Dot</sym>
<type>food</type>
</wpt>
<wpt lat="49.105777" lon="-122.735176">
<name>Ken's Cafe &amp; Restaurant</name>
<cmt>coffee</cmt>
<desc>Café / Coffee</desc>
<sym>Dot</sym>
<type>food</type>
</wpt>
<wpt lat="49.104896" lon="-122.735141">
<name>Hawthorne Beer Market &amp; Bistro</name>
<cmt>bar</cmt>
<desc>Brewery / Pub</desc>
<sym>Dot</sym>
<type>food</type>
</wpt>
<wpt lat="49.119100" lon="-122.731596">
<name>Subway</name>
<cmt>food</cmt>
<desc>Fast Food / Chain</desc>
<sym>Dot</sym>
<type>food</type>
</wpt>
<wpt lat="49.038607" lon="-122.710046">
<name>Hazelmere Pumpkin Patch</name>
<cmt>viewpoint</cmt>
<desc>Activity / Experience</desc>
<sym>Dot</sym>
<type>overlook</type>
</wpt>
<wpt lat="49.105511" lon="-122.734779">
<name>Republica Coffee Roasters Cloverdale</name>
<cmt>coffee</cmt>
<desc>Café / Coffee</desc>
<sym>Dot</sym>
<type>food</type>
</wpt>
<wpt lat="49.103903" lon="-122.734552">
<name>Coast &amp; Country Diner</name>
<cmt>food</cmt>
<desc>Restaurant</desc>
<sym>Dot</sym>
<type>food</type>
</wpt>
<wpt lat="49.104318" lon="-122.734527">
<name>De Dutch</name>
<cmt>food</cmt>
<desc>Fast Food / Chain</desc>
<sym>Dot</sym>
<type>food</type>
</wpt>
<wpt lat="49.104319" lon="-122.734393">
<name>Mom's Dosa Palace</name>
<cmt>food</cmt>
<desc>Restaurant</desc>
<sym>Dot</sym>
<type>food</type>
</wpt>
<wpt lat="49.104002" lon="-122.734334">
<name>Clydesdale Inn</name>
<cmt>lodging</cmt>
<desc>Hotel / Motel</desc>
<sym>Dot</sym>
<type>shelter</type>
</wpt>
<wpt lat="49.103933" lon="-122.734095">
<name>Clydesdale Inn</name>
<cmt>bar</cmt>
<desc>Brewery / Pub</desc>
<sym>Dot</sym>
<type>food</type>
</wpt>
<wpt lat="49.118420" lon="-122.730661">
<name>Cloverdale Sport &amp; Ice Complex</name>
<cmt>rest_stop</cmt>
<desc>Community Centre</desc>
<sym>Dot</sym>
<type>rest_area</type>
</wpt>
<wpt lat="49.103730" lon="-122.733900">
<name>Cloverdale Station</name>
<cmt>monument</cmt>
<desc>Museum / Gallery</desc>
<sym>Dot</sym>
<type>info</type>
</wpt>
<wpt lat="49.104909" lon="-122.733411">
<name>Cloverdale Branch</name>
<cmt>library</cmt>
<desc>Library</desc>
<sym>Dot</sym>
<type>info</type>
</wpt>
<wpt lat="49.103652" lon="-122.732531">
<name>Subway</name>
<cmt>food</cmt>
<desc>Fast Food / Chain</desc>
<sym>Dot</sym>
<type>food</type>
</wpt>
<wpt lat="49.104328" lon="-122.732373">
<name>Museum of Surrey</name>
<cmt>monument</cmt>
<desc>Museum / Gallery</desc>
<sym>Dot</sym>
<type>info</type>
</wpt>
<wpt lat="49.103480" lon="-122.732176">
<name>Pizza Hut Delivery</name>
<cmt>food</cmt>
<desc>Fast Food / Chain</desc>
<sym>Dot</sym>
<type>food</type>
</wpt>
<wpt lat="49.103999" lon="-122.731751">
<name>Dairy Queen</name>
<cmt>food</cmt>
<desc>Ice Cream</desc>
<sym>Dot</sym>
<type>food</type>
</wpt>
<wpt lat="49.103264" lon="-122.731558">
<name>No Frills</name>
<cmt>convenience_store</cmt>
<desc>Grocery Store</desc>
<sym>Dot</sym>
<type>store</type>
</wpt>
<trk><name>Highway 15 Cycle Route</name>
<trkseg>
<trkpt lat="49.004017" lon="-122.735426"/>
<trkpt lat="49.004707" lon="-122.735435"/>
<trkpt lat="49.005557" lon="-122.735434"/>
</trkseg>
<trkseg>
<trkpt lat="49.005559" lon="-122.735595"/>
<trkpt lat="49.005623" lon="-122.735593"/>
<trkpt lat="49.005687" lon="-122.735676"/>
<trkpt lat="49.009294" lon="-122.735653"/>
<trkpt lat="49.009522" lon="-122.735645"/>
<trkpt lat="49.016492" lon="-122.735643"/>
<trkpt lat="49.016524" lon="-122.735587"/>
<trkpt lat="49.016572" lon="-122.735507"/>
<trkpt lat="49.016575" lon="-122.735411"/>
</trkseg>
<trkseg>
<trkpt lat="49.016575" lon="-122.735411"/>
<trkpt lat="49.016641" lon="-122.735409"/>
<trkpt lat="49.016708" lon="-122.735408"/>
<trkpt lat="49.017124" lon="-122.735400"/>
<trkpt lat="49.018267" lon="-122.735293"/>
</trkseg>
<trkseg>
<trkpt lat="49.018267" lon="-122.735293"/>
<trkpt lat="49.030581" lon="-122.735196"/>
<trkpt lat="49.031213" lon="-122.735179"/>
<trkpt lat="49.031215" lon="-122.734040"/>
<trkpt lat="49.031208" lon="-122.714404"/>
<trkpt lat="49.031208" lon="-122.713356"/>
<trkpt lat="49.035035" lon="-122.713403"/>
<trkpt lat="49.039808" lon="-122.713417"/>
<trkpt lat="49.042473" lon="-122.713437"/>
<trkpt lat="49.045698" lon="-122.713453"/>
<trkpt lat="49.046978" lon="-122.713466"/>
<trkpt lat="49.052937" lon="-122.713477"/>
<trkpt lat="49.055679" lon="-122.713469"/>
<trkpt lat="49.059292" lon="-122.713448"/>
<trkpt lat="49.060166" lon="-122.713444"/>
<trkpt lat="49.060161" lon="-122.714798"/>
<trkpt lat="49.060159" lon="-122.715444"/>
<trkpt lat="49.060147" lon="-122.732057"/>
<trkpt lat="49.060154" lon="-122.734265"/>
</trkseg>
<trkseg>
<trkpt lat="49.060154" lon="-122.734265"/>
<trkpt lat="49.060156" lon="-122.734933"/>
<trkpt lat="49.060155" lon="-122.735390"/>
<trkpt lat="49.060554" lon="-122.735505"/>
<trkpt lat="49.061777" lon="-122.735576"/>
<trkpt lat="49.074022" lon="-122.735686"/>
<trkpt lat="49.074585" lon="-122.735693"/>
<trkpt lat="49.075158" lon="-122.735672"/>
<trkpt lat="49.076074" lon="-122.735640"/>
<trkpt lat="49.085608" lon="-122.735375"/>
<trkpt lat="49.086155" lon="-122.735368"/>
<trkpt lat="49.088721" lon="-122.735269"/>
<trkpt lat="49.089576" lon="-122.735250"/>
<trkpt lat="49.089958" lon="-122.735243"/>
<trkpt lat="49.090642" lon="-122.735231"/>
<trkpt lat="49.095075" lon="-122.735157"/>
<trkpt lat="49.097391" lon="-122.735371"/>
<trkpt lat="49.098050" lon="-122.735741"/>
<trkpt lat="49.098849" lon="-122.736219"/>
<trkpt lat="49.102327" lon="-122.738189"/>
<trkpt lat="49.102975" lon="-122.738387"/>
<trkpt lat="49.104014" lon="-122.738422"/>
<trkpt lat="49.104152" lon="-122.738416"/>
<trkpt lat="49.104392" lon="-122.738399"/>
<trkpt lat="49.105613" lon="-122.738392"/>
<trkpt lat="49.105998" lon="-122.738378"/>
<trkpt lat="49.106925" lon="-122.738327"/>
<trkpt lat="49.107867" lon="-122.737766"/>
<trkpt lat="49.108204" lon="-122.737228"/>
<trkpt lat="49.108376" lon="-122.736856"/>
<trkpt lat="49.108782" lon="-122.735961"/>
<trkpt lat="49.109251" lon="-122.735307"/>
<trkpt lat="49.109977" lon="-122.734983"/>
<trkpt lat="49.110382" lon="-122.734965"/>
<trkpt lat="49.110841" lon="-122.734967"/>
<trkpt lat="49.111455" lon="-122.734962"/>
<trkpt lat="49.111519" lon="-122.734964"/>
<trkpt lat="49.112091" lon="-122.734967"/>
<trkpt lat="49.112843" lon="-122.734969"/>
<trkpt lat="49.113958" lon="-122.734975"/>
<trkpt lat="49.114987" lon="-122.734995"/>
<trkpt lat="49.115717" lon="-122.735028"/>
<trkpt lat="49.116705" lon="-122.735055"/>
<trkpt lat="49.118328" lon="-122.735060"/>
<trkpt lat="49.118737" lon="-122.735060"/>
<trkpt lat="49.118821" lon="-122.735060"/>
<trkpt lat="49.120284" lon="-122.735049"/>
<trkpt lat="49.121335" lon="-122.735051"/>
<trkpt lat="49.121928" lon="-122.735046"/>
<trkpt lat="49.123356" lon="-122.735040"/>
<trkpt lat="49.124615" lon="-122.735010"/>
<trkpt lat="49.126950" lon="-122.734915"/>
<trkpt lat="49.127243" lon="-122.734902"/>
<trkpt lat="49.127554" lon="-122.734902"/>
<trkpt lat="49.136571" lon="-122.734820"/>
<trkpt lat="49.137744" lon="-122.734833"/>
</trkseg>
<trkseg>
<trkpt lat="49.137744" lon="-122.734833"/>
<trkpt lat="49.138310" lon="-122.735276"/>
</trkseg>
<trkseg>
<trkpt lat="49.138554" lon="-122.734625"/>
<trkpt lat="49.140009" lon="-122.734635"/>
<trkpt lat="49.140245" lon="-122.734636"/>
<trkpt lat="49.142085" lon="-122.734688"/>
<trkpt lat="49.142659" lon="-122.734706"/>
<trkpt lat="49.147004" lon="-122.734722"/>
<trkpt lat="49.147714" lon="-122.734725"/>
<trkpt lat="49.148030" lon="-122.734726"/>
<trkpt lat="49.158832" lon="-122.734720"/>
<trkpt lat="49.159055" lon="-122.734717"/>
<trkpt lat="49.161008" lon="-122.734653"/>
<trkpt lat="49.161467" lon="-122.734651"/>
<trkpt lat="49.162340" lon="-122.734640"/>
<trkpt lat="49.162588" lon="-122.734637"/>
<trkpt lat="49.162841" lon="-122.734638"/>
<trkpt lat="49.166900" lon="-122.734625"/>
<trkpt lat="49.169245" lon="-122.734625"/>
<trkpt lat="49.169883" lon="-122.734632"/>
<trkpt lat="49.170105" lon="-122.734636"/>
<trkpt lat="49.174138" lon="-122.734659"/>
<trkpt lat="49.175221" lon="-122.734614"/>
<trkpt lat="49.175636" lon="-122.734603"/>
<trkpt lat="49.176011" lon="-122.734594"/>
<trkpt lat="49.176335" lon="-122.734578"/>
<trkpt lat="49.176477" lon="-122.734572"/>
<trkpt lat="49.176782" lon="-122.734564"/>
<trkpt lat="49.179038" lon="-122.734518"/>
<trkpt lat="49.180017" lon="-122.734661"/>
<trkpt lat="49.181094" lon="-122.734805"/>
<trkpt lat="49.181680" lon="-122.734756"/>
<trkpt lat="49.181984" lon="-122.734740"/>
</trkseg>
<trkseg>
<trkpt lat="49.182031" lon="-122.734905"/>
<trkpt lat="49.181494" lon="-122.734948"/>
<trkpt lat="49.181127" lon="-122.734938"/>
<trkpt lat="49.179993" lon="-122.734783"/>
<trkpt lat="49.179141" lon="-122.734772"/>
<trkpt lat="49.178567" lon="-122.734773"/>
<trkpt lat="49.177574" lon="-122.734810"/>
<trkpt lat="49.176881" lon="-122.734848"/>
<trkpt lat="49.176542" lon="-122.734844"/>
<trkpt lat="49.176399" lon="-122.734850"/>
<trkpt lat="49.176142" lon="-122.734865"/>
<trkpt lat="49.174139" lon="-122.734891"/>
<trkpt lat="49.171492" lon="-122.734820"/>
<trkpt lat="49.170176" lon="-122.734802"/>
<trkpt lat="49.163868" lon="-122.734811"/>
<trkpt lat="49.162926" lon="-122.734819"/>
<trkpt lat="49.162591" lon="-122.734825"/>
<trkpt lat="49.162329" lon="-122.734820"/>
<trkpt lat="49.159061" lon="-122.734854"/>
<trkpt lat="49.158833" lon="-122.734862"/>
<trkpt lat="49.149314" lon="-122.734887"/>
<trkpt lat="49.148433" lon="-122.734888"/>
<trkpt lat="49.148025" lon="-122.734891"/>
<trkpt lat="49.142555" lon="-122.734871"/>
<trkpt lat="49.141929" lon="-122.734860"/>
<trkpt lat="49.139929" lon="-122.734854"/>
<trkpt lat="49.138632" lon="-122.734841"/>
<trkpt lat="49.138209" lon="-122.734840"/>
<trkpt lat="49.138127" lon="-122.734839"/>
<trkpt lat="49.137744" lon="-122.734833"/>
</trkseg>
<trkseg>
<trkpt lat="49.137938" lon="-122.734205"/>
<trkpt lat="49.138554" lon="-122.734625"/>
</trkseg>
<trkseg>
<trkpt lat="49.138554" lon="-122.734625"/>
<trkpt lat="49.138115" lon="-122.734621"/>
<trkpt lat="49.138065" lon="-122.734620"/>
<trkpt lat="49.138025" lon="-122.734617"/>
<trkpt lat="49.137587" lon="-122.734612"/>
<trkpt lat="49.136459" lon="-122.734609"/>
<trkpt lat="49.130839" lon="-122.734697"/>
<trkpt lat="49.130362" lon="-122.734702"/>
<trkpt lat="49.129941" lon="-122.734707"/>
<trkpt lat="49.127551" lon="-122.734736"/>
<trkpt lat="49.127240" lon="-122.734732"/>
<trkpt lat="49.126949" lon="-122.734733"/>
<trkpt lat="49.123356" lon="-122.734865"/>
<trkpt lat="49.121283" lon="-122.734866"/>
<trkpt lat="49.121053" lon="-122.734871"/>
<trkpt lat="49.118898" lon="-122.734883"/>
<trkpt lat="49.118821" lon="-122.734882"/>
<trkpt lat="49.118737" lon="-122.734881"/>
<trkpt lat="49.117281" lon="-122.734874"/>
<trkpt lat="49.116594" lon="-122.734871"/>
<trkpt lat="49.115973" lon="-122.734860"/>
<trkpt lat="49.115721" lon="-122.734855"/>
<trkpt lat="49.114941" lon="-122.734820"/>
<trkpt lat="49.112480" lon="-122.734792"/>
<trkpt lat="49.111741" lon="-122.734791"/>
<trkpt lat="49.111517" lon="-122.734787"/>
<trkpt lat="49.111446" lon="-122.734785"/>
<trkpt lat="49.110690" lon="-122.734796"/>
<trkpt lat="49.110109" lon="-122.734805"/>
<trkpt lat="49.109344" lon="-122.735057"/>
<trkpt lat="49.108731" lon="-122.735787"/>
<trkpt lat="49.108478" lon="-122.736316"/>
<trkpt lat="49.108301" lon="-122.736711"/>
<trkpt lat="49.108252" lon="-122.736819"/>
<trkpt lat="49.107875" lon="-122.737524"/>
<trkpt lat="49.106889" lon="-122.738157"/>
<trkpt lat="49.105999" lon="-122.738177"/>
<trkpt lat="49.104359" lon="-122.738188"/>
<trkpt lat="49.104153" lon="-122.738191"/>
<trkpt lat="49.104013" lon="-122.738193"/>
<trkpt lat="49.103772" lon="-122.738196"/>
<trkpt lat="49.103199" lon="-122.738192"/>
<trkpt lat="49.102754" lon="-122.738133"/>
<trkpt lat="49.102357" lon="-122.737968"/>
<trkpt lat="49.098893" lon="-122.735984"/>
<trkpt lat="49.098151" lon="-122.735542"/>
<trkpt lat="49.097437" lon="-122.735162"/>
<trkpt lat="49.096997" lon="-122.735076"/>
<trkpt lat="49.095873" lon="-122.735019"/>
<trkpt lat="49.090676" lon="-122.735063"/>
<trkpt lat="49.089575" lon="-122.735073"/>
<trkpt lat="49.088769" lon="-122.735096"/>
<trkpt lat="49.088486" lon="-122.735109"/>
<trkpt lat="49.086178" lon="-122.735225"/>
<trkpt lat="49.085605" lon="-122.735237"/>
<trkpt lat="49.075123" lon="-122.735498"/>
<trkpt lat="49.074582" lon="-122.735512"/>
<trkpt lat="49.074006" lon="-122.735510"/>
<trkpt lat="49.073134" lon="-122.735509"/>
<trkpt lat="49.062035" lon="-122.735411"/>
<trkpt lat="49.061821" lon="-122.735398"/>
<trkpt lat="49.060545" lon="-122.735332"/>
<trkpt lat="49.060234" lon="-122.734943"/>
<trkpt lat="49.060154" lon="-122.734265"/>
</trkseg>
<trkseg>
<trkpt lat="49.018267" lon="-122.735293"/>
<trkpt lat="49.018138" lon="-122.735226"/>
<trkpt lat="49.017010" lon="-122.735189"/>
<trkpt lat="49.016666" lon="-122.735192"/>
<trkpt lat="49.016574" lon="-122.735193"/>
</trkseg>
<trkseg>
<trkpt lat="49.016574" lon="-122.735193"/>
<trkpt lat="49.016575" lon="-122.735411"/>
</trkseg>
<trkseg>
<trkpt lat="49.016574" lon="-122.735193"/>
<trkpt lat="49.016345" lon="-122.735195"/>
<trkpt lat="49.016265" lon="-122.735193"/>
<trkpt lat="49.015222" lon="-122.735193"/>
<trkpt lat="49.010711" lon="-122.735217"/>
<trkpt lat="49.009400" lon="-122.735262"/>
<trkpt lat="49.008756" lon="-122.735274"/>
<trkpt lat="49.007650" lon="-122.735291"/>
<trkpt lat="49.006624" lon="-122.735287"/>
<trkpt lat="49.005559" lon="-122.735267"/>
<trkpt lat="49.005126" lon="-122.735269"/>
<trkpt lat="49.004018" lon="-122.735235"/>
</trkseg>
<trkseg>
<trkpt lat="49.103785" lon="-122.738433"/>
<trkpt lat="49.104012" lon="-122.738868"/>
</trkseg>
</trk>
</gpx>