<?xml version="1.0" encoding="UTF-8"?>
<gpx version="1.1" creator="BC Bike Stops (bccycletourism.ca)" xmlns="http://www.topografix.com/GPX/1/1">
<metadata>
<name>AAA Kings - Haultain - Estevan</name>
<link href="https://bccycletourism.ca/trail/aaa-kings-haultain-estevan/"><text>BC Bike Stops</text></link>
</metadata>
<wpt lat="48.437365" lon="-123.358826">
<name>Caffè Fantastico</name>
<cmt>coffee</cmt>
<desc>Café / Coffee</desc>
<sym>Dot</sym>
<type>food</type>
</wpt>
<wpt lat="48.436267" lon="-123.340147">
<name>The Local General Store</name>
<cmt>convenience_store</cmt>
<desc>Grocery Store</desc>
<sym>Dot</sym>
<type>store</type>
</wpt>
<wpt lat="48.437659" lon="-123.307679">
<name>Nohra Thai Kitchen</name>
<cmt>food</cmt>
<desc>Restaurant</desc>
<sym>Dot</sym>
<type>food</type>
</wpt>
<wpt lat="48.437382" lon="-123.358221">
<name>Emmaline's</name>
<cmt>food</cmt>
<desc>Restaurant</desc>
<sym>Dot</sym>
<type>food</type>
</wpt>
<wpt lat="48.438509" lon="-123.364669">
<name>BC Liquor Store</name>
<cmt>convenience_store</cmt>
<desc>Liquor Store</desc>
<sym>Dot</sym>
<type>store</type>
</wpt>
<wpt lat="48.435949" lon="-123.340160">
<name>Koffi</name>
<cmt>coffee</cmt>
<desc>Café / Coffee</desc>
<sym>Dot</sym>
<type>food</type>
</wpt>
<wpt lat="48.436105" lon="-123.350423">
<name>Haultain Fish &amp; Chips</name>
<cmt>food</cmt>
<desc>Restaurant</desc>
<sym>Dot</sym>
<type>food</type>
</wpt>
<wpt lat="48.438181" lon="-123.364379">
<name>Fountain Restaurant</name>
<cmt>food</cmt>
<desc>Restaurant</desc>
<sym>Dot</sym>
<type>food</type>
</wpt>
<wpt lat="48.436627" lon="-123.363265">
<name>Subway</name>
<cmt>food</cmt>
<desc>Fast Food / Chain</desc>
<sym>Dot</sym>
<type>food</type>
</wpt>
<wpt lat="48.438954" lon="-123.365420">
<name>2% Jazz</name>
<cmt>coffee</cmt>
<desc>Café / Coffee</desc>
<sym>Dot</sym>
<type>food</type>
</wpt>
<wpt lat="48.438198" lon="-123.364138">
<name>Tim Hortons</name>
<cmt>food</cmt>
<desc>Fast Food / Chain</desc>
<sym>Dot</sym>
<type>food</type>
</wpt>
<wpt lat="48.437980" lon="-123.359176">
<name>Halal Urban Fresh Meats</name>
<cmt>convenience_store</cmt>
<desc>Grocery Store</desc>
<sym>Dot</sym>
<type>store</type>
</wpt>
<wpt lat="48.436330" lon="-123.363434">
<name>Domino's</name>
<cmt>food</cmt>
<desc>Fast Food / Chain</desc>
<sym>Dot</sym>
<type>food</type>
</wpt>
<wpt lat="48.438107" lon="-123.358444">
<name>Fairway Market Quadra Village</name>
<cmt>convenience_store</cmt>
<desc>Grocery Store</desc>
<sym>Dot</sym>
<type>store</type>
</wpt>
<wpt lat="48.438335" lon="-123.359317">
<name>Alysa's Pho &amp; Banh Mi</name>
<cmt>food</cmt>
<desc>Restaurant</desc>
<sym>Dot</sym>
<type>food</type>
</wpt>
<wpt lat="48.435950" lon="-123.363288">
<name>Wendy's</name>
<cmt>food</cmt>
<desc>Fast Food / Chain</desc>
<sym>Dot</sym>
<type>food</type>
</wpt>
<wpt lat="48.438408" lon="-123.359311">
<name>Young's Restaurant</name>
<cmt>food</cmt>
<desc>Restaurant</desc>
<sym>Dot</sym>
<type>food</type>
</wpt>
<wpt lat="48.438720" lon="-123.358564">
<name>Circle K</name>
<cmt>convenience_store</cmt>
<desc>Convenience Store</desc>
<sym>Dot</sym>
<type>store</type>
</wpt>
<wpt lat="48.438983" lon="-123.358106">
<name>Cascadia Liquor Stores</name>
<cmt>convenience_store</cmt>
<desc>Liquor Store</desc>
<sym>Dot</sym>
<type>store</type>
</wpt>
<wpt lat="48.438865" lon="-123.359474">
<name>Caribbean Village Cafe</name>
<cmt>coffee</cmt>
<desc>Café / Coffee</desc>
<sym>Dot</sym>
<type>food</type>
</wpt>
<wpt lat="48.438999" lon="-123.358642">
<name>Layla Shawarma</name>
<cmt>food</cmt>
<desc>Fast Food / Chain</desc>
<sym>Dot</sym>
<type>food</type>
</wpt>
<wpt lat="48.435952" lon="-123.365881">
<name>Working Culture Bread</name>
<cmt>food</cmt>
<desc>Bakery / Donuts</desc>
<sym>Dot</sym>
<type>food</type>
</wpt>
<wpt lat="48.439062" lon="-123.358908">
<name>The Roxy</name>
<cmt>monument</cmt>
<desc>Museum / Gallery</desc>
<sym>Dot</sym>
<type>info</type>
</wpt>
<wpt lat="48.434456" lon="-123.336048">
<name>Kappo Marta</name>
<cmt>food</cmt>
<desc>Restaurant</desc>
<sym>Dot</sym>
<type>food</type>
</wpt>
<wpt lat="48.439068" lon="-123.359205">
<name>Part and Parcel</name>
<cmt>food</cmt>
<desc>Restaurant</desc>
<sym>Dot</sym>
<type>food</type>
</wpt>
<wpt lat="48.435198" lon="-123.361321">
<name>Xin Korean Restaurant</name>
<cmt>food</cmt>
<desc>Restaurant</desc>
<sym>Dot</sym>
<type>food</type>
</wpt>
<wpt lat="48.435010" lon="-123.365635">
<name>Dairy Queen</name>
<cmt>food</cmt>
<desc>Ice Cream</desc>
<sym>Dot</sym>
<type>food</type>
</wpt>
<wpt lat="48.438297" lon="-123.368175">
<name>Russ Hay's</name>
<cmt>bike_shop</cmt>
<desc>Repair Shop</desc>
<sym>Dot</sym>
<type>gear</type>
</wpt>
<wpt lat="48.439715" lon="-123.358868">
<name>Cit-E Cycles</name>
<cmt>bike_shop</cmt>
<desc>Repair Shop</desc>
<sym>Dot</sym>
<type>gear</type>
</wpt>
<wpt lat="48.439683" lon="-123.359127">
<name>Biryani Palace</name>
<cmt>food</cmt>
<desc>Restaurant</desc>
<sym>Dot</sym>
<type>food</type>
</wpt>
<wpt lat="48.439548" lon="-123.360355">
<name>Taco Time</name>
<cmt>food</cmt>
<desc>Fast Food / Chain</desc>
<sym>Dot</sym>
<type>food</type>
</wpt>
<wpt lat="48.439830" lon="-123.358514">
<name>5th Street Bar &amp; Grill</name>
<cmt>bar</cmt>
<desc>Brewery / Pub</desc>
<sym>Dot</sym>
<type>food</type>
</wpt>
<wpt lat="48.433458" lon="-123.327946">
<name>Subway</name>
<cmt>food</cmt>
<desc>Fast Food / Chain</desc>
<sym>Dot</sym>
<type>food</type>
</wpt>
<wpt lat="48.439928" lon="-123.359410">
<name>Island Afrikan Supermarket</name>
<cmt>convenience_store</cmt>
<desc>Grocery Store</desc>
<sym>Dot</sym>
<type>store</type>
</wpt>
<wpt lat="48.433335" lon="-123.327549">
<name>Tim Hortons</name>
<cmt>food</cmt>
<desc>Fast Food / Chain</desc>
<sym>Dot</sym>
<type>food</type>
</wpt>
<wpt lat="48.439104" lon="-123.369067">
<name>Sandman Hotel Victoria</name>
<cmt>lodging</cmt>
<desc>Hotel / Motel</desc>
<sym>Dot</sym>
<type>shelter</type>
</wpt>
<wpt lat="48.438723" lon="-123.328916">
<name>Spirit Garden</name>
<cmt>park</cmt>
<desc>Park / Nature</desc>
<sym>Dot</sym>
<type>rest_area</type>
</wpt>
<wpt lat="48.436409" lon="-123.369043">
<name>Melt</name>
<cmt>food</cmt>
<desc>Fast Food / Chain</desc>
<sym>Dot</sym>
<type>food</type>
</wpt>
<wpt lat="48.433843" lon="-123.366813">
<name>BC Liquor Distribution Branch - Wholesale Customer Centre</name>
<cmt>convenience_store</cmt>
<desc>Grocery Store</desc>
<sym>Dot</sym>
<type>store</type>
</wpt>
<wpt lat="48.432314" lon="-123.322668">
<name>Le Pho</name>
<cmt>food</cmt>
<desc>Restaurant</desc>
<sym>Dot</sym>
<type>food</type>
</wpt>
<wpt lat="48.438086" lon="-123.370281">
<name>Cold Comfort Ice Cream</name>
<cmt>food</cmt>
<desc>Ice Cream</desc>
<sym>Dot</sym>
<type>food</type>
</wpt>
<wpt lat="48.437297" lon="-123.370125">
<name>Aunty Collective</name>
<cmt>viewpoint</cmt>
<desc>Activity / Experience</desc>
<sym>Dot</sym>
<type>overlook</type>
</wpt>
<wpt lat="48.437118" lon="-123.370047">
<name>Wheelies Cafe</name>
<cmt>food</cmt>
<desc>Restaurant</desc>
<sym>Dot</sym>
<type>food</type>
</wpt>
<wpt lat="48.433745" lon="-123.358604">
<name>Chicken 649</name>
<cmt>food</cmt>
<desc>Restaurant</desc>
<sym>Dot</sym>
<type>food</type>
</wpt>
<wpt lat="48.432127" lon="-123.323634">
<name>Subway</name>
<cmt>food</cmt>
<desc>Fast Food / Chain</desc>
<sym>Dot</sym>
<type>food</type>
</wpt>
<wpt lat="48.433730" lon="-123.357740">
<name>Crystal Pool and Fitness Centre</name>
<cmt>rest_stop</cmt>
<desc>Community Centre</desc>
<sym>Dot</sym>
<type>rest_area</type>
</wpt>
<wpt lat="48.441967" lon="-123.368605">
<name>Spoons Diner</name>
<cmt>food</cmt>
<desc>Restaurant</desc>
<sym>Dot</sym>
<type>food</type>
</wpt>
<wpt lat="48.441331" lon="-123.369937">
<name>Arbutus Inn</name>
<cmt>lodging</cmt>
<desc>Hotel / Motel</desc>
<sym>Dot</sym>
<type>shelter</type>
</wpt>
<wpt lat="48.431574" lon="-123.323731">
<name>Starbucks</name>
<cmt>food</cmt>
<desc>Fast Food / Chain</desc>
<sym>Dot</sym>
<type>food</type>
</wpt>
<wpt lat="48.432992" lon="-123.358503">
<name>North Perk Cafe</name>
<cmt>coffee</cmt>
<desc>Café / Coffee</desc>
<sym>Dot</sym>
<type>food</type>
</wpt>
<wpt lat="48.437723" lon="-123.307866">
<name>AsUsual Cafe</name>
<cmt>food</cmt>
<desc>Restaurant</desc>
<sym>Dot</sym>
<type>food</type>
</wpt>
<wpt lat="48.437697" lon="-123.307779">
<name>The Village Estevan Restaurant</name>
<cmt>food</cmt>
<desc>Restaurant</desc>
<sym>Dot</sym>
<type>food</type>
</wpt>
<wpt lat="48.437467" lon="-123.308136">
<name>Ruth &amp; Dean Restaurant &amp; Bakery</name>
<cmt>food</cmt>
<desc>Bakery / Donuts</desc>
<sym>Dot</sym>
<type>food</type>
</wpt>
<wpt lat="48.437108" lon="-123.307184">
<name>Willows Galley</name>
<cmt>food</cmt>
<desc>Fast Food / Chain</desc>
<sym>Dot</sym>
<type>food</type>
</wpt>
<wpt lat="48.437946" lon="-123.312403">
<name>The Old Farm Market</name>
<cmt>convenience_store</cmt>
<desc>Farmers' Market</desc>
<sym>Dot</sym>
<type>store</type>
</wpt>
<wpt lat="48.437855" lon="-123.312993">
<name>Pure Vanilla Bakery and Cafe</name>
<cmt>food</cmt>
<desc>Bakery / Donuts</desc>
<sym>Dot</sym>
<type>food</type>
</wpt>
<wpt lat="48.438288" lon="-123.308847">
<name>Lokier Gardens</name>
<cmt>park</cmt>
<desc>Park / Nature</desc>
<sym>Dot</sym>
<type>rest_area</type>
</wpt>
<wpt lat="48.437805" lon="-123.312521">
<name>Machi Sushi</name>
<cmt>food</cmt>
<desc>Restaurant</desc>
<sym>Dot</sym>
<type>food</type>
</wpt>
<wpt lat="48.437781" lon="-123.312521">
<name>49 Below Craft Ice Cream</name>
<cmt>food</cmt>
<desc>Ice Cream</desc>
<sym>Dot</sym>
<type>food</type>
</wpt>
<wpt lat="48.437760" lon="-123.312520">
<name>Estevan Liquor Plus</name>
<cmt>convenience_store</cmt>
<desc>Liquor Store</desc>
<sym>Dot</sym>
<type>store</type>
</wpt>
<wpt lat="48.432671" lon="-123.321308">
<name>Tim Hortons</name>
<cmt>food</cmt>
<desc>Fast Food / Chain</desc>
<sym>Dot</sym>
<type>food</type>
</wpt>
<wpt lat="48.432592" lon="-123.321470">
<name>Baan Thai</name>
<cmt>food</cmt>
<desc>Restaurant</desc>
<sym>Dot</sym>
<type>food</type>
</wpt>
<wpt lat="48.431921" lon="-123.321949">
<name>DQ Grill &amp; Chill</name>
<cmt>food</cmt>
<desc>Ice Cream</desc>
<sym>Dot</sym>
<type>food</type>
</wpt>
<wpt lat="48.431833" lon="-123.320875">
<name>Oak Bay Recreation Centre</name>
<cmt>rest_stop</cmt>
<desc>Community Centre</desc>
<sym>Dot</sym>
<type>rest_area</type>
</wpt>
<trk><name>AAA Kings - Haultain - Estevan</name>
<trkseg>
<trkpt lat="48.438675" lon="-123.365061"/>
<trkpt lat="48.438587" lon="-123.365010"/>
<trkpt lat="48.438241" lon="-123.364808"/>
<trkpt lat="48.437698" lon="-123.364498"/>
<trkpt lat="48.436808" lon="-123.363991"/>
<trkpt lat="48.436926" lon="-123.363116"/>
<trkpt lat="48.436966" lon="-123.362862"/>
<trkpt lat="48.437000" lon="-123.362656"/>
<trkpt lat="48.437120" lon="-123.361384"/>
<trkpt lat="48.437488" lon="-123.358627"/>
<trkpt lat="48.437674" lon="-123.357273"/>
<trkpt lat="48.437775" lon="-123.356547"/>
<trkpt lat="48.437852" lon="-123.355947"/>
<trkpt lat="48.437919" lon="-123.355384"/>
<trkpt lat="48.438015" lon="-123.354602"/>
<trkpt lat="48.438054" lon="-123.354246"/>
<trkpt lat="48.438210" lon="-123.353321"/>
<trkpt lat="48.438160" lon="-123.353157"/>
<trkpt lat="48.436530" lon="-123.352618"/>
<trkpt lat="48.436410" lon="-123.352121"/>
<trkpt lat="48.436397" lon="-123.351839"/>
<trkpt lat="48.436246" lon="-123.346882"/>
<trkpt lat="48.436219" lon="-123.344952"/>
<trkpt lat="48.436189" lon="-123.342345"/>
</trkseg>
<trkseg>
<trkpt lat="48.436189" lon="-123.342345"/>
<trkpt lat="48.436231" lon="-123.342265"/>
<trkpt lat="48.436187" lon="-123.342210"/>
</trkseg>
<trkseg>
<trkpt lat="48.436187" lon="-123.342210"/>
<trkpt lat="48.436143" lon="-123.342268"/>
<trkpt lat="48.436189" lon="-123.342345"/>
</trkseg>
<trkseg>
<trkpt lat="48.436187" lon="-123.342210"/>
<trkpt lat="48.436111" lon="-123.336251"/>
</trkseg>
<trkseg>
<trkpt lat="48.436111" lon="-123.336251"/>
<trkpt lat="48.436160" lon="-123.336172"/>
<trkpt lat="48.436110" lon="-123.336102"/>
</trkseg>
<trkseg>
<trkpt lat="48.436110" lon="-123.336102"/>
<trkpt lat="48.436061" lon="-123.336174"/>
<trkpt lat="48.436111" lon="-123.336251"/>
</trkseg>
<trkseg>
<trkpt lat="48.436110" lon="-123.336102"/>
<trkpt lat="48.436034" lon="-123.333582"/>
<trkpt lat="48.435922" lon="-123.328690"/>
<trkpt lat="48.435869" lon="-123.324943"/>
<trkpt lat="48.435855" lon="-123.323749"/>
<trkpt lat="48.435846" lon="-123.322252"/>
<trkpt lat="48.435814" lon="-123.320821"/>
<trkpt lat="48.435786" lon="-123.319474"/>
<trkpt lat="48.435763" lon="-123.318729"/>
<trkpt lat="48.435915" lon="-123.317546"/>
<trkpt lat="48.436415" lon="-123.316873"/>
<trkpt lat="48.437485" lon="-123.316227"/>
<trkpt lat="48.437848" lon="-123.315639"/>
<trkpt lat="48.438159" lon="-123.314624"/>
<trkpt lat="48.438184" lon="-123.312764"/>
<trkpt lat="48.438140" lon="-123.309580"/>
<trkpt lat="48.437702" lon="-123.308301"/>
<trkpt lat="48.436173" lon="-123.303734"/>
<trkpt lat="48.435725" lon="-123.302397"/>
</trkseg>
</trk>
</gpx>