<?xml version="1.0" encoding="UTF-8"?>
<gpx version="1.1" creator="We Welcome Cyclists (bccycletourism.ca)" xmlns="http://www.topografix.com/GPX/1/1">
<metadata>
<name>Kettle Valley Rail Trail (Summerland-Pentiction Alternate)</name>
<link href="https://bccycletourism.ca/trail/kettle-valley-rail-trail-summerland-pentiction-alternate/"><text>We Welcome Cyclists</text></link>
</metadata>
<wpt lat="49.484722" lon="-119.589149">
<name>Safeway</name>
<cmt>convenience_store</cmt>
<desc>Grocery Store</desc>
<sym>Dot</sym>
<type>store</type>
</wpt>
<wpt lat="49.479759" lon="-119.596853">
<name>Tim Hortons</name>
<cmt>food</cmt>
<desc>Fast Food / Chain</desc>
<sym>Dot</sym>
<type>food</type>
</wpt>
<wpt lat="49.485065" lon="-119.587894">
<name>Copper Mug</name>
<cmt>bar</cmt>
<desc>Brewery / Pub</desc>
<sym>Dot</sym>
<type>food</type>
</wpt>
<wpt lat="49.482969" lon="-119.594472">
<name>Tin Whistle Brewing Co</name>
<cmt>bar</cmt>
<desc>Brewery / Pub</desc>
<sym>Dot</sym>
<type>food</type>
</wpt>
<wpt lat="49.484075" lon="-119.588464">
<name>Starbucks</name>
<cmt>food</cmt>
<desc>Fast Food / Chain</desc>
<sym>Dot</sym>
<type>food</type>
</wpt>
<wpt lat="49.485072" lon="-119.587444">
<name>BC Liquour Store</name>
<cmt>convenience_store</cmt>
<desc>Liquor Store</desc>
<sym>Dot</sym>
<type>store</type>
</wpt>
<wpt lat="49.484240" lon="-119.586711">
<name>Wendy's</name>
<cmt>food</cmt>
<desc>Fast Food / Chain</desc>
<sym>Dot</sym>
<type>food</type>
</wpt>
<wpt lat="49.490914" lon="-119.589208">
<name>Penticton Museum</name>
<cmt>monument</cmt>
<desc>Museum / Gallery</desc>
<sym>Dot</sym>
<type>info</type>
</wpt>
<wpt lat="49.491275" lon="-119.589105">
<name>Penticton Public Library</name>
<cmt>library</cmt>
<desc>Library</desc>
<sym>Dot</sym>
<type>info</type>
</wpt>
<wpt lat="49.497182" lon="-119.586591">
<name>Grape Escape Wine Tours</name>
<cmt>winery</cmt>
<desc>Winery / Cidery</desc>
<sym>Dot</sym>
<type>food</type>
</wpt>
<wpt lat="49.502948" lon="-119.586801">
<name>The Bench Market</name>
<cmt>food</cmt>
<desc>Restaurant</desc>
<sym>Dot</sym>
<type>food</type>
</wpt>
<wpt lat="49.483272" lon="-119.586006">
<name>Kura</name>
<cmt>food</cmt>
<desc>Restaurant</desc>
<sym>Dot</sym>
<type>food</type>
</wpt>
<wpt lat="49.483084" lon="-119.586021">
<name>Dairy Queen</name>
<cmt>food</cmt>
<desc>Ice Cream</desc>
<sym>Dot</sym>
<type>food</type>
</wpt>
<wpt lat="49.505076" lon="-119.585356">
<name>Rusty's</name>
<cmt>food</cmt>
<desc>Restaurant</desc>
<sym>Dot</sym>
<type>food</type>
</wpt>
<wpt lat="49.483548" lon="-119.585421">
<name>A&amp;W</name>
<cmt>food</cmt>
<desc>Fast Food / Chain</desc>
<sym>Dot</sym>
<type>food</type>
</wpt>
<wpt lat="49.505002" lon="-119.578083">
<name>Blackwood Lane Winery</name>
<cmt>winery</cmt>
<desc>Winery / Cidery</desc>
<sym>Dot</sym>
<type>food</type>
</wpt>
<wpt lat="49.493138" lon="-119.589702">
<name>Theo's Restaurant</name>
<cmt>food</cmt>
<desc>Restaurant</desc>
<sym>Dot</sym>
<type>food</type>
</wpt>
<wpt lat="49.500995" lon="-119.590430">
<name>Cannery Brewing</name>
<cmt>food</cmt>
<desc>Restaurant</desc>
<sym>Dot</sym>
<type>food</type>
</wpt>
<wpt lat="49.493892" lon="-119.590534">
<name>Lala Ji's Pizzeria</name>
<cmt>food</cmt>
<desc>Restaurant</desc>
<sym>Dot</sym>
<type>food</type>
</wpt>
<wpt lat="49.495020" lon="-119.590218">
<name>Sushi Heaven</name>
<cmt>food</cmt>
<desc>Restaurant</desc>
<sym>Dot</sym>
<type>food</type>
</wpt>
<wpt lat="49.496405" lon="-119.589740">
<name>HI Penticton</name>
<cmt>lodging</cmt>
<desc>Hostel</desc>
<sym>Dot</sym>
<type>shelter</type>
</wpt>
<wpt lat="49.495125" lon="-119.590323">
<name>Gratify Foods</name>
<cmt>food</cmt>
<desc>Restaurant</desc>
<sym>Dot</sym>
<type>food</type>
</wpt>
<wpt lat="49.500778" lon="-119.591570">
<name>Tacos Del Norte</name>
<cmt>food</cmt>
<desc>Restaurant</desc>
<sym>Dot</sym>
<type>food</type>
</wpt>
<wpt lat="49.499239" lon="-119.591610">
<name>Britbar</name>
<cmt>bar</cmt>
<desc>Brewery / Pub</desc>
<sym>Dot</sym>
<type>food</type>
</wpt>
<wpt lat="49.499353" lon="-119.591668">
<name>Polish Bistro</name>
<cmt>food</cmt>
<desc>Restaurant</desc>
<sym>Dot</sym>
<type>food</type>
</wpt>
<wpt lat="49.495167" lon="-119.590435">
<name>Angry Vegan</name>
<cmt>coffee</cmt>
<desc>Café / Coffee</desc>
<sym>Dot</sym>
<type>food</type>
</wpt>
<wpt lat="49.568571" lon="-119.658122">
<name>Sleeping Giant Fruit Winery</name>
<cmt>winery</cmt>
<desc>Winery / Cidery</desc>
<sym>Dot</sym>
<type>food</type>
</wpt>
<wpt lat="49.566277" lon="-119.664270">
<name>Dirty Laundry Vineyard</name>
<cmt>winery</cmt>
<desc>Winery / Cidery</desc>
<sym>Dot</sym>
<type>food</type>
</wpt>
<wpt lat="49.566939" lon="-119.651839">
<name>Summerland Ornamental Gardens</name>
<cmt>park</cmt>
<desc>Park / Nature</desc>
<sym>Dot</sym>
<type>rest_area</type>
</wpt>
<trk><name>Kettle Valley Rail Trail (Summerland-Pentiction Alternate)</name>
<trkseg>
<trkpt lat="49.490984" lon="-119.585774"/>
<trkpt lat="49.489658" lon="-119.586794"/>
<trkpt lat="49.488548" lon="-119.587375"/>
<trkpt lat="49.488211" lon="-119.587247"/>
<trkpt lat="49.488104" lon="-119.587598"/>
<trkpt lat="49.486162" lon="-119.588585"/>
<trkpt lat="49.485833" lon="-119.588669"/>
<trkpt lat="49.485837" lon="-119.589036"/>
<trkpt lat="49.484853" lon="-119.589565"/>
<trkpt lat="49.484299" lon="-119.590302"/>
<trkpt lat="49.484227" lon="-119.592473"/>
<trkpt lat="49.483315" lon="-119.592868"/>
<trkpt lat="49.481801" lon="-119.593533"/>
<trkpt lat="49.480452" lon="-119.595007"/>
<trkpt lat="49.480005" lon="-119.595430"/>
<trkpt lat="49.479727" lon="-119.595732"/>
<trkpt lat="49.479037" lon="-119.597139"/>
<trkpt lat="49.478996" lon="-119.597285"/>
<trkpt lat="49.478967" lon="-119.597525"/>
<trkpt lat="49.478952" lon="-119.597576"/>
<trkpt lat="49.478773" lon="-119.598192"/>
<trkpt lat="49.478753" lon="-119.598260"/>
<trkpt lat="49.479092" lon="-119.598413"/>
<trkpt lat="49.479411" lon="-119.598664"/>
<trkpt lat="49.479490" lon="-119.598627"/>
<trkpt lat="49.481459" lon="-119.600418"/>
<trkpt lat="49.484398" lon="-119.605362"/>
<trkpt lat="49.483325" lon="-119.607703"/>
<trkpt lat="49.483144" lon="-119.609880"/>
<trkpt lat="49.483483" lon="-119.611257"/>
<trkpt lat="49.485877" lon="-119.616516"/>
<trkpt lat="49.489642" lon="-119.620190"/>
<trkpt lat="49.500653" lon="-119.625294"/>
<trkpt lat="49.501690" lon="-119.625458"/>
<trkpt lat="49.515644" lon="-119.624620"/>
<trkpt lat="49.516788" lon="-119.624103"/>
<trkpt lat="49.518085" lon="-119.621954"/>
<trkpt lat="49.518802" lon="-119.621448"/>
<trkpt lat="49.522576" lon="-119.622507"/>
<trkpt lat="49.523569" lon="-119.622136"/>
<trkpt lat="49.524460" lon="-119.621102"/>
<trkpt lat="49.525329" lon="-119.620779"/>
<trkpt lat="49.525971" lon="-119.621047"/>
<trkpt lat="49.527902" lon="-119.622988"/>
<trkpt lat="49.529734" lon="-119.623353"/>
<trkpt lat="49.536184" lon="-119.629547"/>
<trkpt lat="49.537842" lon="-119.632547"/>
<trkpt lat="49.540944" lon="-119.634817"/>
<trkpt lat="49.542848" lon="-119.635585"/>
<trkpt lat="49.544944" lon="-119.637484"/>
<trkpt lat="49.547161" lon="-119.638678"/>
<trkpt lat="49.551523" lon="-119.645480"/>
<trkpt lat="49.554238" lon="-119.647114"/>
<trkpt lat="49.557532" lon="-119.646907"/>
<trkpt lat="49.558818" lon="-119.647287"/>
<trkpt lat="49.562215" lon="-119.649858"/>
<trkpt lat="49.565446" lon="-119.653709"/>
<trkpt lat="49.565511" lon="-119.653782"/>
<trkpt lat="49.566674" lon="-119.655668"/>
<trkpt lat="49.567204" lon="-119.656852"/>
<trkpt lat="49.567207" lon="-119.658417"/>
<trkpt lat="49.566139" lon="-119.659993"/>
<trkpt lat="49.564806" lon="-119.663488"/>
<trkpt lat="49.564540" lon="-119.665573"/>
<trkpt lat="49.563341" lon="-119.669104"/>
<trkpt lat="49.563422" lon="-119.669480"/>
<trkpt lat="49.564120" lon="-119.669477"/>
<trkpt lat="49.564587" lon="-119.671651"/>
<trkpt lat="49.574090" lon="-119.671636"/>
</trkseg>
<trkseg>
<trkpt lat="49.503238" lon="-119.581821"/>
<trkpt lat="49.503187" lon="-119.581796"/>
<trkpt lat="49.500716" lon="-119.584830"/>
<trkpt lat="49.500664" lon="-119.584855"/>
<trkpt lat="49.499867" lon="-119.585031"/>
<trkpt lat="49.499055" lon="-119.584681"/>
<trkpt lat="49.498978" lon="-119.584634"/>
<trkpt lat="49.496101" lon="-119.581277"/>
<trkpt lat="49.495761" lon="-119.581744"/>
<trkpt lat="49.495726" lon="-119.581801"/>
<trkpt lat="49.495597" lon="-119.581553"/>
<trkpt lat="49.495570" lon="-119.581585"/>
<trkpt lat="49.495651" lon="-119.581912"/>
<trkpt lat="49.495502" lon="-119.581999"/>
<trkpt lat="49.495389" lon="-119.582073"/>
<trkpt lat="49.495294" lon="-119.582152"/>
<trkpt lat="49.494474" lon="-119.582883"/>
</trkseg>
<trkseg>
<trkpt lat="49.494358" lon="-119.582902"/>
<trkpt lat="49.493577" lon="-119.583411"/>
<trkpt lat="49.493475" lon="-119.583837"/>
</trkseg>
<trkseg>
<trkpt lat="49.493399" lon="-119.583803"/>
<trkpt lat="49.493194" lon="-119.584424"/>
<trkpt lat="49.491704" lon="-119.585185"/>
</trkseg>
</trk>
</gpx>