<?xml version="1.0" encoding="UTF-8"?>
<gpx version="1.1" creator="BC Bike Stops (bccycletourism.ca)" xmlns="http://www.topografix.com/GPX/1/1">
<metadata>
<name>Kalamalka Lake Park — cycling stops</name>
<link href="https://bccycletourism.ca/route/ok-25/"><text>BC Bike Stops</text></link>
</metadata>
<wpt lat="50.230413" lon="-119.263756">
<name>Alexander's Pub and Liquor Store</name>
<cmt>bar</cmt>
<desc>Brewery / Pub</desc>
<sym>Dot</sym>
<type>food</type>
</wpt>
<wpt lat="50.232118" lon="-119.268658">
<name>Rail Trail Cafe &amp; Market</name>
<cmt>convenience_store</cmt>
<desc>Convenience Store</desc>
<sym>Dot</sym>
<type>store</type>
</wpt>
</gpx>