<?xml version="1.0" encoding="UTF-8"?>
<gpx version="1.1" creator="BC Bike Stops (bccycletourism.ca)" xmlns="http://www.topografix.com/GPX/1/1">
<metadata>
<name>Township of Langley Bike Routes</name>
<link href="https://bccycletourism.ca/trail/township-of-langley-bike-routes/"><text>BC Bike Stops</text></link>
</metadata>
<wpt lat="49.133180" lon="-122.536778">
<name>Thunderbird Show Park</name>
<cmt>park</cmt>
<desc>Park / Nature</desc>
<sym>Dot</sym>
<type>rest_area</type>
</wpt>
<wpt lat="49.163024" lon="-122.659559">
<name>Subway</name>
<cmt>food</cmt>
<desc>Fast Food / Chain</desc>
<sym>Dot</sym>
<type>food</type>
</wpt>
<wpt lat="49.176519" lon="-122.664164">
<name>Popeyes</name>
<cmt>food</cmt>
<desc>Fast Food / Chain</desc>
<sym>Dot</sym>
<type>food</type>
</wpt>
<wpt lat="49.155992" lon="-122.667578">
<name>McDonald's</name>
<cmt>food</cmt>
<desc>Fast Food / Chain</desc>
<sym>Dot</sym>
<type>food</type>
</wpt>
<wpt lat="49.164704" lon="-122.660921">
<name>Kozak Ukrainian Restaurant</name>
<cmt>food</cmt>
<desc>Restaurant</desc>
<sym>Dot</sym>
<type>food</type>
</wpt>
<wpt lat="49.168273" lon="-122.580332">
<name>Maria's Gelato</name>
<cmt>food</cmt>
<desc>Ice Cream</desc>
<sym>Dot</sym>
<type>food</type>
</wpt>
<wpt lat="49.089529" lon="-122.624371">
<name>Porter's Bistro &amp; Coffee House</name>
<cmt>coffee</cmt>
<desc>Café / Coffee</desc>
<sym>Dot</sym>
<type>food</type>
</wpt>
<wpt lat="49.176000" lon="-122.581348">
<name>Fort Camping</name>
<cmt>camping</cmt>
<desc>Private Campground</desc>
<sym>Dot</sym>
<type>campsite</type>
</wpt>
<wpt lat="49.162488" lon="-122.659459">
<name>Gratia Cafe</name>
<cmt>coffee</cmt>
<desc>Café / Coffee</desc>
<sym>Dot</sym>
<type>food</type>
</wpt>
<wpt lat="49.197651" lon="-122.644221">
<name>Derby Reach Regional Park</name>
<cmt>park</cmt>
<desc>Park / Nature</desc>
<sym>Dot</sym>
<type>rest_area</type>
</wpt>
<wpt lat="49.168688" lon="-122.579850">
<name>Iron Chef</name>
<cmt>food</cmt>
<desc>Restaurant</desc>
<sym>Dot</sym>
<type>food</type>
</wpt>
<wpt lat="49.163383" lon="-122.659492">
<name>Fat Bastard Burrito</name>
<cmt>food</cmt>
<desc>Fast Food / Chain</desc>
<sym>Dot</sym>
<type>food</type>
</wpt>
<wpt lat="49.168847" lon="-122.580781">
<name>Lombardy Park</name>
<cmt>camping</cmt>
<desc>Private Campground</desc>
<sym>Dot</sym>
<type>campsite</type>
</wpt>
<wpt lat="49.169610" lon="-122.576185">
<name>Sabà Cafe and Bistro</name>
<cmt>coffee</cmt>
<desc>Café / Coffee</desc>
<sym>Dot</sym>
<type>food</type>
</wpt>
<wpt lat="49.160314" lon="-122.667343">
<name>Starbucks</name>
<cmt>food</cmt>
<desc>Fast Food / Chain</desc>
<sym>Dot</sym>
<type>food</type>
</wpt>
<wpt lat="49.177096" lon="-122.646808">
<name>Walnut Grove Food Market</name>
<cmt>convenience_store</cmt>
<desc>Convenience Store</desc>
<sym>Dot</sym>
<type>store</type>
</wpt>
<wpt lat="49.169962" lon="-122.577578">
<name>The Little Donkey</name>
<cmt>food</cmt>
<desc>Restaurant</desc>
<sym>Dot</sym>
<type>food</type>
</wpt>
<wpt lat="49.177146" lon="-122.669715">
<name>Jimy Mac's Neighbourhood Pub</name>
<cmt>bar</cmt>
<desc>Brewery / Pub</desc>
<sym>Dot</sym>
<type>food</type>
</wpt>
<wpt lat="49.198615" lon="-122.593905">
<name>Original Fort Langley Site</name>
<cmt>viewpoint</cmt>
<desc>Activity / Experience</desc>
<sym>Dot</sym>
<type>overlook</type>
</wpt>
<wpt lat="49.168598" lon="-122.579991">
<name>Trading Post Eatery</name>
<cmt>bar</cmt>
<desc>Brewery / Pub</desc>
<sym>Dot</sym>
<type>food</type>
</wpt>
<wpt lat="49.169550" lon="-122.576746">
<name>Blacksmith Bakery</name>
<cmt>food</cmt>
<desc>Bakery / Donuts</desc>
<sym>Dot</sym>
<type>food</type>
</wpt>
<wpt lat="49.059771" lon="-122.495626">
<name>Boston Pizza</name>
<cmt>food</cmt>
<desc>Fast Food / Chain</desc>
<sym>Dot</sym>
<type>food</type>
</wpt>
<wpt lat="49.177223" lon="-122.673072">
<name>Zythos Greek Restaurant;Zythos</name>
<cmt>food</cmt>
<desc>Restaurant</desc>
<sym>Dot</sym>
<type>food</type>
</wpt>
<wpt lat="49.169724" lon="-122.578196">
<name>Sabà Bistro</name>
<cmt>food</cmt>
<desc>Restaurant</desc>
<sym>Dot</sym>
<type>food</type>
</wpt>
<wpt lat="49.074869" lon="-122.667160">
<name>Ocean Park Pizza</name>
<cmt>food</cmt>
<desc>Restaurant</desc>
<sym>Dot</sym>
<type>food</type>
</wpt>
<wpt lat="49.177181" lon="-122.669155">
<name>McDonald's</name>
<cmt>food</cmt>
<desc>Fast Food / Chain</desc>
<sym>Dot</sym>
<type>food</type>
</wpt>
<wpt lat="49.169618" lon="-122.578307">
<name>Beatniks Bistro</name>
<cmt>food</cmt>
<desc>Restaurant</desc>
<sym>Dot</sym>
<type>food</type>
</wpt>
<wpt lat="49.158884" lon="-122.667365">
<name>Wendy's</name>
<cmt>food</cmt>
<desc>Fast Food / Chain</desc>
<sym>Dot</sym>
<type>food</type>
</wpt>
<wpt lat="49.096006" lon="-122.625602">
<name>McDonald's</name>
<cmt>food</cmt>
<desc>Fast Food / Chain</desc>
<sym>Dot</sym>
<type>food</type>
</wpt>
<wpt lat="49.162374" lon="-122.660138">
<name>7-Eleven</name>
<cmt>convenience_store</cmt>
<desc>Convenience Store</desc>
<sym>Dot</sym>
<type>store</type>
</wpt>
<wpt lat="49.088942" lon="-122.599438">
<name>Tim Hortons</name>
<cmt>food</cmt>
<desc>Fast Food / Chain</desc>
<sym>Dot</sym>
<type>food</type>
</wpt>
<wpt lat="49.171516" lon="-122.578259">
<name>Trails End</name>
<cmt>food</cmt>
<desc>Restaurant</desc>
<sym>Dot</sym>
<type>food</type>
</wpt>
<wpt lat="49.168677" lon="-122.581210">
<name>Subway</name>
<cmt>food</cmt>
<desc>Fast Food / Chain</desc>
<sym>Dot</sym>
<type>food</type>
</wpt>
<wpt lat="49.169724" lon="-122.577253">
<name>Lee's Market</name>
<cmt>convenience_store</cmt>
<desc>Grocery Store</desc>
<sym>Dot</sym>
<type>store</type>
</wpt>
<wpt lat="49.168885" lon="-122.572888">
<name>Spirit Bear Designs</name>
<cmt>viewpoint</cmt>
<desc>Activity / Experience</desc>
<sym>Dot</sym>
<type>overlook</type>
</wpt>
<wpt lat="49.091001" lon="-122.607031">
<name>Hitori Japanese Restaurant</name>
<cmt>food</cmt>
<desc>Restaurant</desc>
<sym>Dot</sym>
<type>food</type>
</wpt>
<wpt lat="49.176769" lon="-122.673566">
<name>A&amp;W</name>
<cmt>food</cmt>
<desc>Fast Food / Chain</desc>
<sym>Dot</sym>
<type>food</type>
</wpt>
<wpt lat="49.089624" lon="-122.611674">
<name>Murrayville Library</name>
<cmt>library</cmt>
<desc>Library</desc>
<sym>Dot</sym>
<type>info</type>
</wpt>
<wpt lat="49.163540" lon="-122.637081">
<name>BC Liquor Store</name>
<cmt>convenience_store</cmt>
<desc>Liquor Store</desc>
<sym>Dot</sym>
<type>store</type>
</wpt>
<wpt lat="49.158935" lon="-122.657922">
<name>Brodeur's Bistro</name>
<cmt>food</cmt>
<desc>Restaurant</desc>
<sym>Dot</sym>
<type>food</type>
</wpt>
<wpt lat="49.060074" lon="-122.492208">
<name>A&amp;W</name>
<cmt>food</cmt>
<desc>Fast Food / Chain</desc>
<sym>Dot</sym>
<type>food</type>
</wpt>
<wpt lat="49.074939" lon="-122.668445">
<name>Brookswood Library</name>
<cmt>library</cmt>
<desc>Library</desc>
<sym>Dot</sym>
<type>info</type>
</wpt>
<wpt lat="49.159535" lon="-122.663209">
<name>Archrcoffee</name>
<cmt>coffee</cmt>
<desc>Café / Coffee</desc>
<sym>Dot</sym>
<type>food</type>
</wpt>
<wpt lat="49.163296" lon="-122.636262">
<name>Otreat</name>
<cmt>coffee</cmt>
<desc>Café / Coffee</desc>
<sym>Dot</sym>
<type>food</type>
</wpt>
<wpt lat="49.089172" lon="-122.624047">
<name>Princess and the Pea Bed &amp; Breakfast</name>
<cmt>lodging</cmt>
<desc>B&amp;B / Inn</desc>
<sym>Dot</sym>
<type>shelter</type>
</wpt>
<wpt lat="49.160631" lon="-122.667220">
<name>Subway</name>
<cmt>food</cmt>
<desc>Fast Food / Chain</desc>
<sym>Dot</sym>
<type>food</type>
</wpt>
<wpt lat="49.158143" lon="-122.667283">
<name>Tim Hortons</name>
<cmt>food</cmt>
<desc>Fast Food / Chain</desc>
<sym>Dot</sym>
<type>food</type>
</wpt>
<wpt lat="49.058385" lon="-122.470321">
<name>7-Eleven</name>
<cmt>convenience_store</cmt>
<desc>Convenience Store</desc>
<sym>Dot</sym>
<type>store</type>
</wpt>
<wpt lat="49.090942" lon="-122.607018">
<name>Mary Brown's</name>
<cmt>food</cmt>
<desc>Fast Food / Chain</desc>
<sym>Dot</sym>
<type>food</type>
</wpt>
<wpt lat="49.091073" lon="-122.607479">
<name>Panago</name>
<cmt>food</cmt>
<desc>Fast Food / Chain</desc>
<sym>Dot</sym>
<type>food</type>
</wpt>
<wpt lat="49.168109" lon="-122.667528">
<name>Waka Sushi</name>
<cmt>food</cmt>
<desc>Restaurant</desc>
<sym>Dot</sym>
<type>food</type>
</wpt>
<wpt lat="49.168813" lon="-122.572930">
<name>Tradish's The Ancestors Cafe</name>
<cmt>coffee</cmt>
<desc>Café / Coffee</desc>
<sym>Dot</sym>
<type>food</type>
</wpt>
<wpt lat="49.090052" lon="-122.604416">
<name>Nikko Sushi</name>
<cmt>food</cmt>
<desc>Restaurant</desc>
<sym>Dot</sym>
<type>food</type>
</wpt>
<wpt lat="49.167493" lon="-122.667445">
<name>Boston Pizza</name>
<cmt>food</cmt>
<desc>Fast Food / Chain</desc>
<sym>Dot</sym>
<type>food</type>
</wpt>
<wpt lat="49.074948" lon="-122.648337">
<name>Camy's Pizza</name>
<cmt>food</cmt>
<desc>Restaurant</desc>
<sym>Dot</sym>
<type>food</type>
</wpt>
<wpt lat="49.091092" lon="-122.607647">
<name>A&amp;W</name>
<cmt>food</cmt>
<desc>Fast Food / Chain</desc>
<sym>Dot</sym>
<type>food</type>
</wpt>
<wpt lat="49.060118" lon="-122.494356">
<name>Subway</name>
<cmt>food</cmt>
<desc>Fast Food / Chain</desc>
<sym>Dot</sym>
<type>food</type>
</wpt>
<wpt lat="49.060047" lon="-122.493842">
<name>Arby's</name>
<cmt>food</cmt>
<desc>Fast Food / Chain</desc>
<sym>Dot</sym>
<type>food</type>
</wpt>
<wpt lat="49.090129" lon="-122.604669">
<name>Subway</name>
<cmt>food</cmt>
<desc>Fast Food / Chain</desc>
<sym>Dot</sym>
<type>food</type>
</wpt>
<wpt lat="49.163706" lon="-122.660481">
<name>Denny's</name>
<cmt>food</cmt>
<desc>Restaurant</desc>
<sym>Dot</sym>
<type>food</type>
</wpt>
<wpt lat="49.155466" lon="-122.667446">
<name>Café Artigiano</name>
<cmt>coffee</cmt>
<desc>Café / Coffee</desc>
<sym>Dot</sym>
<type>food</type>
</wpt>
<wpt lat="49.162376" lon="-122.660326">
<name>Tim Hortons</name>
<cmt>food</cmt>
<desc>Fast Food / Chain</desc>
<sym>Dot</sym>
<type>food</type>
</wpt>
<wpt lat="49.155365" lon="-122.668756">
<name>Berezan Liquor Store</name>
<cmt>convenience_store</cmt>
<desc>Liquor Store</desc>
<sym>Dot</sym>
<type>store</type>
</wpt>
<wpt lat="49.074962" lon="-122.647983">
<name>On the Run</name>
<cmt>convenience_store</cmt>
<desc>Convenience Store</desc>
<sym>Dot</sym>
<type>store</type>
</wpt>
<wpt lat="49.171823" lon="-122.667484">
<name>Quiznos</name>
<cmt>food</cmt>
<desc>Fast Food / Chain</desc>
<sym>Dot</sym>
<type>food</type>
</wpt>
<wpt lat="49.091660" lon="-122.609917">
<name>W.C. Blair Recreation Centre</name>
<cmt>rest_stop</cmt>
<desc>Community Centre</desc>
<sym>Dot</sym>
<type>rest_area</type>
</wpt>
<wpt lat="49.096278" lon="-122.624067">
<name>LiquorForLess</name>
<cmt>convenience_store</cmt>
<desc>Liquor Store</desc>
<sym>Dot</sym>
<type>store</type>
</wpt>
<wpt lat="49.069913" lon="-122.537524">
<name>Otter Co-op</name>
<cmt>convenience_store</cmt>
<desc>Convenience Store</desc>
<sym>Dot</sym>
<type>store</type>
</wpt>
<wpt lat="49.060162" lon="-122.494438">
<name>Starbucks</name>
<cmt>food</cmt>
<desc>Fast Food / Chain</desc>
<sym>Dot</sym>
<type>food</type>
</wpt>
<wpt lat="49.167008" lon="-122.661246">
<name>The Keg</name>
<cmt>food</cmt>
<desc>Restaurant</desc>
<sym>Dot</sym>
<type>food</type>
</wpt>
<wpt lat="49.162001" lon="-122.665910">
<name>Moxie's</name>
<cmt>food</cmt>
<desc>Restaurant</desc>
<sym>Dot</sym>
<type>food</type>
</wpt>
<wpt lat="49.168192" lon="-122.667437">
<name>The Barley Merchant</name>
<cmt>food</cmt>
<desc>Restaurant</desc>
<sym>Dot</sym>
<type>food</type>
</wpt>
<wpt lat="49.159671" lon="-122.668689">
<name>Chevron</name>
<cmt>convenience_store</cmt>
<desc>Convenience Store</desc>
<sym>Dot</sym>
<type>store</type>
</wpt>
<wpt lat="49.060170" lon="-122.493215">
<name>Tim Hortons</name>
<cmt>food</cmt>
<desc>Fast Food / Chain</desc>
<sym>Dot</sym>
<type>food</type>
</wpt>
<wpt lat="49.168372" lon="-122.571808">
<name>Fort Langley National Historic Site</name>
<cmt>monument</cmt>
<desc>Museum / Gallery</desc>
<sym>Dot</sym>
<type>info</type>
</wpt>
<wpt lat="49.095682" lon="-122.625120">
<name>Shell</name>
<cmt>convenience_store</cmt>
<desc>Convenience Store</desc>
<sym>Dot</sym>
<type>store</type>
</wpt>
<wpt lat="49.096128" lon="-122.537555">
<name>JD Farms</name>
<cmt>coffee</cmt>
<desc>Café / Coffee</desc>
<sym>Dot</sym>
<type>food</type>
</wpt>
<wpt lat="49.171278" lon="-122.667397">
<name>Shell</name>
<cmt>convenience_store</cmt>
<desc>Convenience Store</desc>
<sym>Dot</sym>
<type>store</type>
</wpt>
<wpt lat="49.075072" lon="-122.669329">
<name>TAG Liquor Store</name>
<cmt>convenience_store</cmt>
<desc>Liquor Store</desc>
<sym>Dot</sym>
<type>store</type>
</wpt>
<wpt lat="49.163441" lon="-122.637252">
<name>Mazaj Best Donair</name>
<cmt>food</cmt>
<desc>Restaurant</desc>
<sym>Dot</sym>
<type>food</type>
</wpt>
<wpt lat="49.162717" lon="-122.634638">
<name>Cortado Cafe and Coffee House</name>
<cmt>coffee</cmt>
<desc>Café / Coffee</desc>
<sym>Dot</sym>
<type>food</type>
</wpt>
<wpt lat="49.068921" lon="-122.536722">
<name>Angry Otter Liquor @ 248th</name>
<cmt>convenience_store</cmt>
<desc>Liquor Store</desc>
<sym>Dot</sym>
<type>store</type>
</wpt>
<wpt lat="49.170578" lon="-122.667364">
<name>Tim Hortons</name>
<cmt>food</cmt>
<desc>Fast Food / Chain</desc>
<sym>Dot</sym>
<type>food</type>
</wpt>
<wpt lat="49.060127" lon="-122.493272">
<name>Esso</name>
<cmt>convenience_store</cmt>
<desc>Convenience Store</desc>
<sym>Dot</sym>
<type>store</type>
</wpt>
<wpt lat="49.177422" lon="-122.670899">
<name>Jimmy Macs Liquor Store</name>
<cmt>convenience_store</cmt>
<desc>Liquor Store</desc>
<sym>Dot</sym>
<type>store</type>
</wpt>
<wpt lat="49.159746" lon="-122.667005">
<name>Shell</name>
<cmt>convenience_store</cmt>
<desc>Convenience Store</desc>
<sym>Dot</sym>
<type>store</type>
</wpt>
<wpt lat="49.059230" lon="-122.492277">
<name>strEATS Aldergrove</name>
<cmt>food</cmt>
<desc>Fast Food / Chain</desc>
<sym>Dot</sym>
<type>food</type>
</wpt>
<wpt lat="49.095305" lon="-122.623909">
<name>7-Eleven</name>
<cmt>convenience_store</cmt>
<desc>Convenience Store</desc>
<sym>Dot</sym>
<type>store</type>
</wpt>
<wpt lat="49.163398" lon="-122.637259">
<name>Japan Sushi</name>
<cmt>food</cmt>
<desc>Restaurant</desc>
<sym>Dot</sym>
<type>food</type>
</wpt>
<wpt lat="49.159415" lon="-122.668815">
<name>Triple-O's</name>
<cmt>food</cmt>
<desc>Fast Food / Chain</desc>
<sym>Dot</sym>
<type>food</type>
</wpt>
<wpt lat="49.095317" lon="-122.624117">
<name>Tim Hortons</name>
<cmt>food</cmt>
<desc>Fast Food / Chain</desc>
<sym>Dot</sym>
<type>food</type>
</wpt>
<wpt lat="49.170640" lon="-122.578341">
<name>Fort Langley CN Station</name>
<cmt>monument</cmt>
<desc>Museum / Gallery</desc>
<sym>Dot</sym>
<type>info</type>
</wpt>
<wpt lat="49.162835" lon="-122.635841">
<name>Save-On-Foods</name>
<cmt>convenience_store</cmt>
<desc>Grocery Store</desc>
<sym>Dot</sym>
<type>store</type>
</wpt>
<wpt lat="49.086743" lon="-122.595587">
<name>Ralph's Farm Market</name>
<cmt>convenience_store</cmt>
<desc>Farmers' Market</desc>
<sym>Dot</sym>
<type>store</type>
</wpt>
<wpt lat="49.096485" lon="-122.624105">
<name>Starbucks</name>
<cmt>food</cmt>
<desc>Fast Food / Chain</desc>
<sym>Dot</sym>
<type>food</type>
</wpt>
<wpt lat="49.170564" lon="-122.667187">
<name>Fatburger</name>
<cmt>food</cmt>
<desc>Fast Food / Chain</desc>
<sym>Dot</sym>
<type>food</type>
</wpt>
<wpt lat="49.165933" lon="-122.663353">
<name>IGA</name>
<cmt>convenience_store</cmt>
<desc>Grocery Store</desc>
<sym>Dot</sym>
<type>store</type>
</wpt>
<wpt lat="49.163283" lon="-122.637264">
<name>Chicko Chicken</name>
<cmt>food</cmt>
<desc>Fast Food / Chain</desc>
<sym>Dot</sym>
<type>food</type>
</wpt>
<wpt lat="49.163382" lon="-122.658888">
<name>Akane Japanese Restaurant</name>
<cmt>food</cmt>
<desc>Restaurant</desc>
<sym>Dot</sym>
<type>food</type>
</wpt>
<wpt lat="49.090236" lon="-122.605680">
<name>European Deli &amp; Catering</name>
<cmt>convenience_store</cmt>
<desc>Specialty / Health Food</desc>
<sym>Dot</sym>
<type>store</type>
</wpt>
<wpt lat="49.162089" lon="-122.658915">
<name>Chitos Chicken &amp; Beer</name>
<cmt>food</cmt>
<desc>Restaurant</desc>
<sym>Dot</sym>
<type>food</type>
</wpt>
<wpt lat="49.177602" lon="-122.672014">
<name>Tim Hortons</name>
<cmt>food</cmt>
<desc>Fast Food / Chain</desc>
<sym>Dot</sym>
<type>food</type>
</wpt>
<wpt lat="49.089930" lon="-122.607266">
<name>IGA</name>
<cmt>convenience_store</cmt>
<desc>Grocery Store</desc>
<sym>Dot</sym>
<type>store</type>
</wpt>
<wpt lat="49.059105" lon="-122.493884">
<name>McDonald's</name>
<cmt>food</cmt>
<desc>Fast Food / Chain</desc>
<sym>Dot</sym>
<type>food</type>
</wpt>
<wpt lat="49.167834" lon="-122.579539">
<name>BJ's Grocery</name>
<cmt>convenience_store</cmt>
<desc>Convenience Store</desc>
<sym>Dot</sym>
<type>store</type>
</wpt>
<wpt lat="49.158599" lon="-122.666736">
<name>Naomi</name>
<cmt>food</cmt>
<desc>Restaurant</desc>
<sym>Dot</sym>
<type>food</type>
</wpt>
<wpt lat="49.161560" lon="-122.669576">
<name>Skobi</name>
<cmt>food</cmt>
<desc>Restaurant</desc>
<sym>Dot</sym>
<type>food</type>
</wpt>
<wpt lat="49.162763" lon="-122.634160">
<name>Panago</name>
<cmt>food</cmt>
<desc>Fast Food / Chain</desc>
<sym>Dot</sym>
<type>food</type>
</wpt>
<wpt lat="49.177590" lon="-122.668360">
<name>Cit-e Cycles</name>
<cmt>bike_shop</cmt>
<desc>Repair Shop</desc>
<sym>Dot</sym>
<type>gear</type>
</wpt>
<wpt lat="49.162478" lon="-122.665685">
<name>Sandman Signature Hotel</name>
<cmt>lodging</cmt>
<desc>Hotel / Motel</desc>
<sym>Dot</sym>
<type>shelter</type>
</wpt>
<wpt lat="49.165407" lon="-122.663331">
<name>Browns Social House</name>
<cmt>bar</cmt>
<desc>Brewery / Pub</desc>
<sym>Dot</sym>
<type>food</type>
</wpt>
<wpt lat="49.058953" lon="-122.492369">
<name>ABC Donair Zone</name>
<cmt>food</cmt>
<desc>Fast Food / Chain</desc>
<sym>Dot</sym>
<type>food</type>
</wpt>
<wpt lat="49.162071" lon="-122.658822">
<name>Domino's</name>
<cmt>food</cmt>
<desc>Fast Food / Chain</desc>
<sym>Dot</sym>
<type>food</type>
</wpt>
<wpt lat="49.075267" lon="-122.647950">
<name>Trendz Coffee House</name>
<cmt>coffee</cmt>
<desc>Café / Coffee</desc>
<sym>Dot</sym>
<type>food</type>
</wpt>
<wpt lat="49.021685" lon="-122.624119">
<name>Chaberton Estate Winery</name>
<cmt>winery</cmt>
<desc>Winery / Cidery</desc>
<sym>Dot</sym>
<type>food</type>
</wpt>
<wpt lat="49.068371" lon="-122.535293">
<name>Otter Coop</name>
<cmt>convenience_store</cmt>
<desc>Grocery Store</desc>
<sym>Dot</sym>
<type>store</type>
</wpt>
<wpt lat="49.021837" lon="-122.624111">
<name>Bacchus Bistro</name>
<cmt>food</cmt>
<desc>Restaurant</desc>
<sym>Dot</sym>
<type>food</type>
</wpt>
<wpt lat="49.058954" lon="-122.492274">
<name>Pizza Hut</name>
<cmt>food</cmt>
<desc>Fast Food / Chain</desc>
<sym>Dot</sym>
<type>food</type>
</wpt>
<wpt lat="49.090555" lon="-122.607041">
<name>The Joy of Coffee</name>
<cmt>coffee</cmt>
<desc>Café / Coffee</desc>
<sym>Dot</sym>
<type>food</type>
</wpt>
<wpt lat="49.163739" lon="-122.661197">
<name>Sandman Hotel Langley</name>
<cmt>lodging</cmt>
<desc>Hotel / Motel</desc>
<sym>Dot</sym>
<type>shelter</type>
</wpt>
<wpt lat="49.166016" lon="-122.663550">
<name>Pizza Hut</name>
<cmt>food</cmt>
<desc>Fast Food / Chain</desc>
<sym>Dot</sym>
<type>food</type>
</wpt>
<wpt lat="49.162053" lon="-122.658759">
<name>COBS Bread</name>
<cmt>food</cmt>
<desc>Bakery / Donuts</desc>
<sym>Dot</sym>
<type>food</type>
</wpt>
<wpt lat="49.058954" lon="-122.492159">
<name>Chiko Chicken</name>
<cmt>food</cmt>
<desc>Fast Food / Chain</desc>
<sym>Dot</sym>
<type>food</type>
</wpt>
<wpt lat="49.096530" lon="-122.623600">
<name>Travelodge by Wyndham Langley</name>
<cmt>lodging</cmt>
<desc>Hotel / Motel</desc>
<sym>Dot</sym>
<type>shelter</type>
</wpt>
<wpt lat="49.167761" lon="-122.579386">
<name>BC Liquor Store</name>
<cmt>convenience_store</cmt>
<desc>Liquor Store</desc>
<sym>Dot</sym>
<type>store</type>
</wpt>
<wpt lat="49.163452" lon="-122.638614">
<name>Bubble World</name>
<cmt>coffee</cmt>
<desc>Café / Coffee</desc>
<sym>Dot</sym>
<type>food</type>
</wpt>
<wpt lat="49.100040" lon="-122.636611">
<name>Langley Demonstration Garden</name>
<cmt>park</cmt>
<desc>Park / Nature</desc>
<sym>Dot</sym>
<type>rest_area</type>
</wpt>
<wpt lat="49.163065" lon="-122.637282">
<name>Red Swan Pizza</name>
<cmt>food</cmt>
<desc>Restaurant</desc>
<sym>Dot</sym>
<type>food</type>
</wpt>
<wpt lat="49.162018" lon="-122.658642">
<name>Freshii</name>
<cmt>food</cmt>
<desc>Restaurant</desc>
<sym>Dot</sym>
<type>food</type>
</wpt>
<wpt lat="49.162762" lon="-122.633890">
<name>Bagel Classic Cafe</name>
<cmt>food</cmt>
<desc>Bakery / Donuts</desc>
<sym>Dot</sym>
<type>food</type>
</wpt>
<wpt lat="49.163384" lon="-122.658544">
<name>Jim's Pizza</name>
<cmt>food</cmt>
<desc>Restaurant</desc>
<sym>Dot</sym>
<type>food</type>
</wpt>
<wpt lat="49.162540" lon="-122.635907">
<name>Starbucks</name>
<cmt>food</cmt>
<desc>Fast Food / Chain</desc>
<sym>Dot</sym>
<type>food</type>
</wpt>
<wpt lat="49.058096" lon="-122.469550">
<name>Aldergrove Indian Bistro</name>
<cmt>food</cmt>
<desc>Restaurant</desc>
<sym>Dot</sym>
<type>food</type>
</wpt>
<wpt lat="49.163381" lon="-122.658409">
<name>Cafe Ricotta</name>
<cmt>coffee</cmt>
<desc>Café / Coffee</desc>
<sym>Dot</sym>
<type>food</type>
</wpt>
<wpt lat="49.162016" lon="-122.658481">
<name>Kin's Farm Market</name>
<cmt>convenience_store</cmt>
<desc>Farmers' Market</desc>
<sym>Dot</sym>
<type>store</type>
</wpt>
<wpt lat="49.163191" lon="-122.661248">
<name>KFC</name>
<cmt>food</cmt>
<desc>Fast Food / Chain</desc>
<sym>Dot</sym>
<type>food</type>
</wpt>
<wpt lat="49.090262" lon="-122.612496">
<name>Murrayville Town Pub</name>
<cmt>bar</cmt>
<desc>Brewery / Pub</desc>
<sym>Dot</sym>
<type>food</type>
</wpt>
<wpt lat="49.163704" lon="-122.661894">
<name>Oak &amp; Thorne</name>
<cmt>food</cmt>
<desc>Restaurant</desc>
<sym>Dot</sym>
<type>food</type>
</wpt>
<wpt lat="49.090286" lon="-122.607181">
<name>Quiznos</name>
<cmt>food</cmt>
<desc>Fast Food / Chain</desc>
<sym>Dot</sym>
<type>food</type>
</wpt>
<wpt lat="49.154990" lon="-122.666869">
<name>Pizza Garden</name>
<cmt>food</cmt>
<desc>Restaurant</desc>
<sym>Dot</sym>
<type>food</type>
</wpt>
<wpt lat="49.058929" lon="-122.495301">
<name>PHO TRAN</name>
<cmt>food</cmt>
<desc>Restaurant</desc>
<sym>Dot</sym>
<type>food</type>
</wpt>
<wpt lat="49.089063" lon="-122.597582">
<name>Big Box Outlet Store</name>
<cmt>convenience_store</cmt>
<desc>Grocery Store</desc>
<sym>Dot</sym>
<type>store</type>
</wpt>
<wpt lat="49.058641" lon="-122.492094">
<name>Best Western Plus Country Meadows Inn</name>
<cmt>lodging</cmt>
<desc>Hotel / Motel</desc>
<sym>Dot</sym>
<type>shelter</type>
</wpt>
<wpt lat="49.164100" lon="-122.642001">
<name>Walnut Grove Community Centre</name>
<cmt>rest_stop</cmt>
<desc>Community Centre</desc>
<sym>Dot</sym>
<type>rest_area</type>
</wpt>
<wpt lat="49.169327" lon="-122.666478">
<name>White Spot</name>
<cmt>food</cmt>
<desc>Fast Food / Chain</desc>
<sym>Dot</sym>
<type>food</type>
</wpt>
<wpt lat="49.154888" lon="-122.666861">
<name>Moku Famous Hawaiian Bbq</name>
<cmt>food</cmt>
<desc>Restaurant</desc>
<sym>Dot</sym>
<type>food</type>
</wpt>
<wpt lat="49.022749" lon="-122.472197">
<name>Martini Town</name>
<cmt>monument</cmt>
<desc>Museum / Gallery</desc>
<sym>Dot</sym>
<type>info</type>
</wpt>
<wpt lat="49.162510" lon="-122.658087">
<name>Mai's Vietnamese Restaurant</name>
<cmt>food</cmt>
<desc>Restaurant</desc>
<sym>Dot</sym>
<type>food</type>
</wpt>
<wpt lat="49.168486" lon="-122.575480">
<name>BC Farm Museum</name>
<cmt>monument</cmt>
<desc>Museum / Gallery</desc>
<sym>Dot</sym>
<type>info</type>
</wpt>
<wpt lat="49.163217" lon="-122.639347">
<name>Sushi Asakusa</name>
<cmt>food</cmt>
<desc>Restaurant</desc>
<sym>Dot</sym>
<type>food</type>
</wpt>
<wpt lat="49.100402" lon="-122.636397">
<name>The Learning Farm</name>
<cmt>park</cmt>
<desc>Park / Nature</desc>
<sym>Dot</sym>
<type>rest_area</type>
</wpt>
<wpt lat="49.163164" lon="-122.662166">
<name>Sushi Gio Japanese Restaurant</name>
<cmt>food</cmt>
<desc>Restaurant</desc>
<sym>Dot</sym>
<type>food</type>
</wpt>
<wpt lat="49.163394" lon="-122.658010">
<name>Chamnamoo Korean Restaurant</name>
<cmt>food</cmt>
<desc>Restaurant</desc>
<sym>Dot</sym>
<type>food</type>
</wpt>
<wpt lat="49.154761" lon="-122.666861">
<name>Kai Japanese Restaurant</name>
<cmt>food</cmt>
<desc>Restaurant</desc>
<sym>Dot</sym>
<type>food</type>
</wpt>
<wpt lat="49.161385" lon="-122.655841">
<name>Holiday Inn Express &amp; Suites Langley</name>
<cmt>lodging</cmt>
<desc>Hotel / Motel</desc>
<sym>Dot</sym>
<type>shelter</type>
</wpt>
<wpt lat="49.058730" lon="-122.495337">
<name>BC Liquor Store</name>
<cmt>convenience_store</cmt>
<desc>Liquor Store</desc>
<sym>Dot</sym>
<type>store</type>
</wpt>
<wpt lat="49.162498" lon="-122.657913">
<name>Noor Asia Foods</name>
<cmt>convenience_store</cmt>
<desc>Grocery Store</desc>
<sym>Dot</sym>
<type>store</type>
</wpt>
<wpt lat="49.162183" lon="-122.657944">
<name>Empire Garden Chinese Restaurant</name>
<cmt>food</cmt>
<desc>Restaurant</desc>
<sym>Dot</sym>
<type>food</type>
</wpt>
<wpt lat="49.059849" lon="-122.490758">
<name>Aldergrove Liquor Store</name>
<cmt>convenience_store</cmt>
<desc>Liquor Store</desc>
<sym>Dot</sym>
<type>store</type>
</wpt>
<wpt lat="49.163156" lon="-122.661886">
<name>Dairy Queen</name>
<cmt>food</cmt>
<desc>Ice Cream</desc>
<sym>Dot</sym>
<type>food</type>
</wpt>
<wpt lat="49.167210" lon="-122.666104">
<name>Montana's</name>
<cmt>food</cmt>
<desc>Restaurant</desc>
<sym>Dot</sym>
<type>food</type>
</wpt>
<wpt lat="49.058635" lon="-122.472470">
<name>AHA Indian Food Paradise</name>
<cmt>food</cmt>
<desc>Restaurant</desc>
<sym>Dot</sym>
<type>food</type>
</wpt>
<wpt lat="49.163148" lon="-122.639527">
<name>Subway</name>
<cmt>food</cmt>
<desc>Fast Food / Chain</desc>
<sym>Dot</sym>
<type>food</type>
</wpt>
<wpt lat="49.075888" lon="-122.669885">
<name>Subway</name>
<cmt>food</cmt>
<desc>Fast Food / Chain</desc>
<sym>Dot</sym>
<type>food</type>
</wpt>
<wpt lat="49.168318" lon="-122.574551">
<name>Fort Langley Library</name>
<cmt>library</cmt>
<desc>Library</desc>
<sym>Dot</sym>
<type>info</type>
</wpt>
<wpt lat="49.162726" lon="-122.638007">
<name>Gourmet Donuts &amp; Coffee</name>
<cmt>food</cmt>
<desc>Bakery / Donuts</desc>
<sym>Dot</sym>
<type>food</type>
</wpt>
<wpt lat="49.162728" lon="-122.638073">
<name>Freshslice Pizza</name>
<cmt>food</cmt>
<desc>Fast Food / Chain</desc>
<sym>Dot</sym>
<type>food</type>
</wpt>
<wpt lat="49.162727" lon="-122.638159">
<name>K-Bunsik</name>
<cmt>food</cmt>
<desc>Restaurant</desc>
<sym>Dot</sym>
<type>food</type>
</wpt>
<wpt lat="49.163352" lon="-122.641123">
<name>Dean Drysdale Library</name>
<cmt>library</cmt>
<desc>Library</desc>
<sym>Dot</sym>
<type>info</type>
</wpt>
<wpt lat="49.075926" lon="-122.670154">
<name>Domino's</name>
<cmt>food</cmt>
<desc>Fast Food / Chain</desc>
<sym>Dot</sym>
<type>food</type>
</wpt>
<wpt lat="49.168278" lon="-122.574650">
<name>salishan Place</name>
<cmt>rest_stop</cmt>
<desc>Community Centre</desc>
<sym>Dot</sym>
<type>rest_area</type>
</wpt>
<wpt lat="49.161689" lon="-122.656760">
<name>Ricky's All Day Grill</name>
<cmt>food</cmt>
<desc>Restaurant</desc>
<sym>Dot</sym>
<type>food</type>
</wpt>
<wpt lat="49.166000" lon="-122.664541">
<name>Booster Juice</name>
<cmt>food</cmt>
<desc>Fast Food / Chain</desc>
<sym>Dot</sym>
<type>food</type>
</wpt>
<wpt lat="49.075991" lon="-122.669256">
<name>Sushi Mate</name>
<cmt>food</cmt>
<desc>Restaurant</desc>
<sym>Dot</sym>
<type>food</type>
</wpt>
<wpt lat="49.075929" lon="-122.670258">
<name>Cravings Brookswood Coffee &amp; Bakery</name>
<cmt>coffee</cmt>
<desc>Café / Coffee</desc>
<sym>Dot</sym>
<type>food</type>
</wpt>
<wpt lat="49.171919" lon="-122.665981">
<name>Smugglers Trail Caskworks and Brewery</name>
<cmt>bar</cmt>
<desc>Brewery / Pub</desc>
<sym>Dot</sym>
<type>food</type>
</wpt>
<wpt lat="49.163033" lon="-122.666747">
<name>Dead Frog Tasting Room</name>
<cmt>bar</cmt>
<desc>Brewery / Pub</desc>
<sym>Dot</sym>
<type>food</type>
</wpt>
<wpt lat="49.162987" lon="-122.666516">
<name>Dead Frog Brewery</name>
<cmt>bar</cmt>
<desc>Brewery / Pub</desc>
<sym>Dot</sym>
<type>food</type>
</wpt>
<wpt lat="49.058399" lon="-122.494925">
<name>Save-On-Foods</name>
<cmt>convenience_store</cmt>
<desc>Grocery Store</desc>
<sym>Dot</sym>
<type>store</type>
</wpt>
<wpt lat="49.178472" lon="-122.660846">
<name>The Bistro</name>
<cmt>food</cmt>
<desc>Restaurant</desc>
<sym>Dot</sym>
<type>food</type>
</wpt>
<wpt lat="49.169469" lon="-122.665754">
<name>The Old Spaghetti Factory</name>
<cmt>food</cmt>
<desc>Restaurant</desc>
<sym>Dot</sym>
<type>food</type>
</wpt>
<wpt lat="49.170050" lon="-122.665292">
<name>Langley Sportsplex</name>
<cmt>rest_stop</cmt>
<desc>Community Centre</desc>
<sym>Dot</sym>
<type>rest_area</type>
</wpt>
<wpt lat="49.162738" lon="-122.639109">
<name>Circle K</name>
<cmt>convenience_store</cmt>
<desc>Convenience Store</desc>
<sym>Dot</sym>
<type>store</type>
</wpt>
<wpt lat="49.058153" lon="-122.493924">
<name>Booster Juice</name>
<cmt>food</cmt>
<desc>Fast Food / Chain</desc>
<sym>Dot</sym>
<type>food</type>
</wpt>
<wpt lat="49.076201" lon="-122.668919">
<name>Starbucks</name>
<cmt>food</cmt>
<desc>Fast Food / Chain</desc>
<sym>Dot</sym>
<type>food</type>
</wpt>
<wpt lat="49.162603" lon="-122.657264">
<name>McDonald's</name>
<cmt>food</cmt>
<desc>Fast Food / Chain</desc>
<sym>Dot</sym>
<type>food</type>
</wpt>
<wpt lat="49.058004" lon="-122.491954">
<name>White Spot</name>
<cmt>food</cmt>
<desc>Fast Food / Chain</desc>
<sym>Dot</sym>
<type>food</type>
</wpt>
<wpt lat="49.076180" lon="-122.670637">
<name>China Bowl Restaurant</name>
<cmt>food</cmt>
<desc>Restaurant</desc>
<sym>Dot</sym>
<type>food</type>
</wpt>
<wpt lat="49.153974" lon="-122.667396">
<name>Blacksmith Bakery</name>
<cmt>food</cmt>
<desc>Bakery / Donuts</desc>
<sym>Dot</sym>
<type>food</type>
</wpt>
<wpt lat="49.154105" lon="-122.666844">
<name>Sidebar Grill</name>
<cmt>food</cmt>
<desc>Restaurant</desc>
<sym>Dot</sym>
<type>food</type>
</wpt>
<wpt lat="49.164557" lon="-122.664637">
<name>Nando's</name>
<cmt>food</cmt>
<desc>Restaurant</desc>
<sym>Dot</sym>
<type>food</type>
</wpt>
<wpt lat="49.164289" lon="-122.664574">
<name>Tim Hortons</name>
<cmt>food</cmt>
<desc>Fast Food / Chain</desc>
<sym>Dot</sym>
<type>food</type>
</wpt>
<wpt lat="49.146189" lon="-122.559420">
<name>Roots and Wings Distillery</name>
<cmt>winery</cmt>
<desc>Winery / Cidery</desc>
<sym>Dot</sym>
<type>food</type>
</wpt>
<wpt lat="49.161999" lon="-122.655311">
<name>Langley Hwy Hotel</name>
<cmt>lodging</cmt>
<desc>Hotel / Motel</desc>
<sym>Dot</sym>
<type>shelter</type>
</wpt>
<wpt lat="49.164497" lon="-122.664803">
<name>Starbucks</name>
<cmt>food</cmt>
<desc>Fast Food / Chain</desc>
<sym>Dot</sym>
<type>food</type>
</wpt>
<wpt lat="49.113058" lon="-122.539937">
<name>Waffle Bar</name>
<cmt>coffee</cmt>
<desc>Café / Coffee</desc>
<sym>Dot</sym>
<type>food</type>
</wpt>
<wpt lat="49.076454" lon="-122.670700">
<name>McDonald's</name>
<cmt>food</cmt>
<desc>Fast Food / Chain</desc>
<sym>Dot</sym>
<type>food</type>
</wpt>
<wpt lat="49.062472" lon="-122.498556">
<name>Mazatlán Mexican Restaurant</name>
<cmt>food</cmt>
<desc>Restaurant</desc>
<sym>Dot</sym>
<type>food</type>
</wpt>
<wpt lat="49.113055" lon="-122.540103">
<name>Krause Berry Farms Market &amp; Bakery</name>
<cmt>food</cmt>
<desc>Bakery / Donuts</desc>
<sym>Dot</sym>
<type>food</type>
</wpt>
<wpt lat="49.162474" lon="-122.656436">
<name>A&amp;W</name>
<cmt>food</cmt>
<desc>Fast Food / Chain</desc>
<sym>Dot</sym>
<type>food</type>
</wpt>
<wpt lat="49.131810" lon="-122.539931">
<name>Thunder Bar</name>
<cmt>bar</cmt>
<desc>Brewery / Pub</desc>
<sym>Dot</sym>
<type>food</type>
</wpt>
<wpt lat="49.058098" lon="-122.474046">
<name>Domino's</name>
<cmt>food</cmt>
<desc>Fast Food / Chain</desc>
<sym>Dot</sym>
<type>food</type>
</wpt>
<wpt lat="49.162296" lon="-122.654892">
<name>Walnut Grove Pub &amp; Liqour Store</name>
<cmt>bar</cmt>
<desc>Brewery / Pub</desc>
<sym>Dot</sym>
<type>food</type>
</wpt>
<wpt lat="49.208372" lon="-122.607834">
<name>Edgewater Bar Campground</name>
<cmt>camping</cmt>
<desc>Public Campground</desc>
<sym>Dot</sym>
<type>campsite</type>
</wpt>
<wpt lat="49.162586" lon="-122.655762">
<name>Ocean Park Pizza &amp; Steakhouse</name>
<cmt>food</cmt>
<desc>Restaurant</desc>
<sym>Dot</sym>
<type>food</type>
</wpt>
<wpt lat="49.076983" lon="-122.647694">
<name>Toki's Chinese Food</name>
<cmt>food</cmt>
<desc>Restaurant</desc>
<sym>Dot</sym>
<type>food</type>
</wpt>
<wpt lat="49.077078" lon="-122.670519">
<name>Buy-Low Foods</name>
<cmt>convenience_store</cmt>
<desc>Grocery Store</desc>
<sym>Dot</sym>
<type>store</type>
</wpt>
<wpt lat="49.142031" lon="-122.598861">
<name>Starbucks</name>
<cmt>food</cmt>
<desc>Fast Food / Chain</desc>
<sym>Dot</sym>
<type>food</type>
</wpt>
<wpt lat="49.077154" lon="-122.670502">
<name>Cedarbrook Bakery &amp; Deli</name>
<cmt>food</cmt>
<desc>Bakery / Donuts</desc>
<sym>Dot</sym>
<type>food</type>
</wpt>
<wpt lat="49.077203" lon="-122.648148">
<name>Riders Liquor Store</name>
<cmt>convenience_store</cmt>
<desc>Liquor Store</desc>
<sym>Dot</sym>
<type>store</type>
</wpt>
<wpt lat="49.077232" lon="-122.670348">
<name>Hirame Sushi</name>
<cmt>food</cmt>
<desc>Restaurant</desc>
<sym>Dot</sym>
<type>food</type>
</wpt>
<wpt lat="49.099445" lon="-122.626650">
<name>Canadian Museum of Flight</name>
<cmt>monument</cmt>
<desc>Museum / Gallery</desc>
<sym>Dot</sym>
<type>info</type>
</wpt>
<wpt lat="49.058041" lon="-122.475319">
<name>Aldergrove Credit Union Community Centre</name>
<cmt>rest_stop</cmt>
<desc>Community Centre</desc>
<sym>Dot</sym>
<type>rest_area</type>
</wpt>
<wpt lat="49.131889" lon="-122.541772">
<name>Bale and Bucket</name>
<cmt>food</cmt>
<desc>Restaurant</desc>
<sym>Dot</sym>
<type>food</type>
</wpt>
<wpt lat="49.078204" lon="-122.648692">
<name>Ed's Market</name>
<cmt>convenience_store</cmt>
<desc>Convenience Store</desc>
<sym>Dot</sym>
<type>store</type>
</wpt>
<wpt lat="49.079277" lon="-122.652306">
<name>George Preston Recreation Centre</name>
<cmt>rest_stop</cmt>
<desc>Community Centre</desc>
<sym>Dot</sym>
<type>rest_area</type>
</wpt>
<wpt lat="49.100870" lon="-122.625220">
<name>Adrians at the Airport Restaurant</name>
<cmt>food</cmt>
<desc>Restaurant</desc>
<sym>Dot</sym>
<type>food</type>
</wpt>
<wpt lat="49.102842" lon="-122.644738">
<name>Safeway</name>
<cmt>convenience_store</cmt>
<desc>Grocery Store</desc>
<sym>Dot</sym>
<type>store</type>
</wpt>
<wpt lat="49.102706" lon="-122.644996">
<name>Subway</name>
<cmt>food</cmt>
<desc>Fast Food / Chain</desc>
<sym>Dot</sym>
<type>food</type>
</wpt>
<wpt lat="49.102706" lon="-122.645089">
<name>Golden River</name>
<cmt>food</cmt>
<desc>Restaurant</desc>
<sym>Dot</sym>
<type>food</type>
</wpt>
<wpt lat="49.102089" lon="-122.645719">
<name>Popeyes</name>
<cmt>food</cmt>
<desc>Fast Food / Chain</desc>
<sym>Dot</sym>
<type>food</type>
</wpt>
<wpt lat="49.171257" lon="-122.577168">
<name>Rail and River Bistro</name>
<cmt>food</cmt>
<desc>Restaurant</desc>
<sym>Dot</sym>
<type>food</type>
</wpt>
<wpt lat="49.166853" lon="-122.581431">
<name>Omni Kitchen + Bar</name>
<cmt>food</cmt>
<desc>Restaurant</desc>
<sym>Dot</sym>
<type>food</type>
</wpt>
<wpt lat="49.171134" lon="-122.577292">
<name>The Fort Pub &amp; Grill</name>
<cmt>bar</cmt>
<desc>Brewery / Pub</desc>
<sym>Dot</sym>
<type>food</type>
</wpt>
<wpt lat="49.170246" lon="-122.578234">
<name>Wendel's Books</name>
<cmt>coffee</cmt>
<desc>Café / Coffee</desc>
<sym>Dot</sym>
<type>food</type>
</wpt>
<wpt lat="49.168351" lon="-122.579654">
<name>Grounds &amp; Greens Cafe</name>
<cmt>coffee</cmt>
<desc>Café / Coffee</desc>
<sym>Dot</sym>
<type>food</type>
</wpt>
<wpt lat="49.169714" lon="-122.579074">
<name>Republica Coffee Roasters</name>
<cmt>coffee</cmt>
<desc>Café / Coffee</desc>
<sym>Dot</sym>
<type>food</type>
</wpt>
<wpt lat="49.060116" lon="-122.493031">
<name>Tomo Sushi</name>
<cmt>food</cmt>
<desc>Restaurant</desc>
<sym>Dot</sym>
<type>food</type>
</wpt>
<wpt lat="49.059884" lon="-122.491361">
<name>Fox &amp; Hounds Pub &amp; Restaurant</name>
<cmt>bar</cmt>
<desc>Brewery / Pub</desc>
<sym>Dot</sym>
<type>food</type>
</wpt>
<wpt lat="49.060286" lon="-122.472021">
<name>Aldergrove Community Museum &amp; Archives</name>
<cmt>monument</cmt>
<desc>Museum / Gallery</desc>
<sym>Dot</sym>
<type>info</type>
</wpt>
<wpt lat="49.057667" lon="-122.469229">
<name>Cor's 2 For 1 Pizza</name>
<cmt>food</cmt>
<desc>Restaurant</desc>
<sym>Dot</sym>
<type>food</type>
</wpt>
<wpt lat="49.058650" lon="-122.473940">
<name>Bob's Bar n' Grill</name>
<cmt>food</cmt>
<desc>Restaurant</desc>
<sym>Dot</sym>
<type>food</type>
</wpt>
<trk><name>Township of Langley Bike Routes</name>
<trkseg>
<trkpt lat="49.002250" lon="-122.625185"/>
<trkpt lat="49.007643" lon="-122.625162"/>
<trkpt lat="49.009486" lon="-122.625147"/>
<trkpt lat="49.031276" lon="-122.625005"/>
<trkpt lat="49.045714" lon="-122.624940"/>
<trkpt lat="49.045696" lon="-122.641683"/>
<trkpt lat="49.045676" lon="-122.656697"/>
<trkpt lat="49.045650" lon="-122.658261"/>
<trkpt lat="49.050865" lon="-122.658349"/>
<trkpt lat="49.052890" lon="-122.658349"/>
<trkpt lat="49.060198" lon="-122.658458"/>
<trkpt lat="49.060190" lon="-122.660617"/>
<trkpt lat="49.060178" lon="-122.663721"/>
<trkpt lat="49.060177" lon="-122.663972"/>
<trkpt lat="49.060266" lon="-122.663974"/>
<trkpt lat="49.061942" lon="-122.663968"/>
<trkpt lat="49.063759" lon="-122.663969"/>
<trkpt lat="49.064459" lon="-122.664495"/>
</trkseg>
<trkseg>
<trkpt lat="49.064501" lon="-122.664512"/>
<trkpt lat="49.064445" lon="-122.664981"/>
<trkpt lat="49.064847" lon="-122.665008"/>
<trkpt lat="49.064947" lon="-122.664991"/>
<trkpt lat="49.065185" lon="-122.664948"/>
<trkpt lat="49.065304" lon="-122.665137"/>
<trkpt lat="49.065370" lon="-122.665064"/>
<trkpt lat="49.066438" lon="-122.664887"/>
<trkpt lat="49.066436" lon="-122.664742"/>
<trkpt lat="49.067132" lon="-122.664597"/>
<trkpt lat="49.067192" lon="-122.662699"/>
<trkpt lat="49.067413" lon="-122.662724"/>
</trkseg>
<trkseg>
<trkpt lat="49.067384" lon="-122.669513"/>
<trkpt lat="49.067397" lon="-122.666241"/>
<trkpt lat="49.067431" lon="-122.658787"/>
<trkpt lat="49.067434" lon="-122.658498"/>
<trkpt lat="49.073046" lon="-122.658527"/>
<trkpt lat="49.075199" lon="-122.658508"/>
<trkpt lat="49.076095" lon="-122.658462"/>
<trkpt lat="49.077560" lon="-122.658377"/>
<trkpt lat="49.078299" lon="-122.658338"/>
<trkpt lat="49.080182" lon="-122.658225"/>
<trkpt lat="49.081006" lon="-122.658176"/>
<trkpt lat="49.081132" lon="-122.658168"/>
<trkpt lat="49.082071" lon="-122.658114"/>
</trkseg>
<trkseg>
<trkpt lat="49.074715" lon="-122.669634"/>
<trkpt lat="49.074710" lon="-122.669483"/>
<trkpt lat="49.074712" lon="-122.668464"/>
<trkpt lat="49.074705" lon="-122.666832"/>
<trkpt lat="49.074691" lon="-122.661871"/>
<trkpt lat="49.074683" lon="-122.658533"/>
<trkpt lat="49.074683" lon="-122.657153"/>
<trkpt lat="49.074659" lon="-122.647459"/>
<trkpt lat="49.074886" lon="-122.624714"/>
<trkpt lat="49.074647" lon="-122.581388"/>
<trkpt lat="49.074532" lon="-122.560922"/>
<trkpt lat="49.073951" lon="-122.559189"/>
</trkseg>
<trkseg>
<trkpt lat="49.073951" lon="-122.559189"/>
<trkpt lat="49.074033" lon="-122.559184"/>
<trkpt lat="49.074356" lon="-122.559177"/>
</trkseg>
<trkseg>
<trkpt lat="49.074356" lon="-122.559177"/>
<trkpt lat="49.074500" lon="-122.559592"/>
<trkpt lat="49.074668" lon="-122.560076"/>
<trkpt lat="49.078345" lon="-122.570416"/>
<trkpt lat="49.078722" lon="-122.571472"/>
<trkpt lat="49.079817" lon="-122.574542"/>
</trkseg>
<trkseg>
<trkpt lat="49.079817" lon="-122.574542"/>
<trkpt lat="49.080052" lon="-122.575383"/>
<trkpt lat="49.080524" lon="-122.576700"/>
<trkpt lat="49.081441" lon="-122.579286"/>
<trkpt lat="49.081634" lon="-122.579837"/>
<trkpt lat="49.082178" lon="-122.581357"/>
<trkpt lat="49.082619" lon="-122.582610"/>
<trkpt lat="49.083158" lon="-122.583961"/>
</trkseg>
<trkseg>
<trkpt lat="49.083158" lon="-122.583961"/>
<trkpt lat="49.085889" lon="-122.591623"/>
</trkseg>
<trkseg>
<trkpt lat="49.085889" lon="-122.591623"/>
<trkpt lat="49.086244" lon="-122.592618"/>
<trkpt lat="49.086625" lon="-122.593680"/>
<trkpt lat="49.086728" lon="-122.593983"/>
<trkpt lat="49.088384" lon="-122.598649"/>
<trkpt lat="49.088576" lon="-122.599182"/>
</trkseg>
<trkseg>
<trkpt lat="49.088576" lon="-122.599182"/>
<trkpt lat="49.088844" lon="-122.600104"/>
<trkpt lat="49.089438" lon="-122.601820"/>
</trkseg>
<trkseg>
<trkpt lat="49.089438" lon="-122.601820"/>
<trkpt lat="49.089189" lon="-122.602577"/>
<trkpt lat="49.089276" lon="-122.603481"/>
</trkseg>
<trkseg>
<trkpt lat="49.089276" lon="-122.603481"/>
<trkpt lat="49.089395" lon="-122.608115"/>
<trkpt lat="49.089410" lon="-122.616830"/>
</trkseg>
<trkseg>
<trkpt lat="49.089410" lon="-122.616830"/>
<trkpt lat="49.089413" lon="-122.617167"/>
</trkseg>
<trkseg>
<trkpt lat="49.089413" lon="-122.617167"/>
<trkpt lat="49.089358" lon="-122.617275"/>
<trkpt lat="49.089410" lon="-122.621644"/>
</trkseg>
<trkseg>
<trkpt lat="49.089410" lon="-122.621644"/>
<trkpt lat="49.089410" lon="-122.624263"/>
</trkseg>
<trkseg>
<trkpt lat="49.089410" lon="-122.624263"/>
<trkpt lat="49.089361" lon="-122.624555"/>
<trkpt lat="49.089305" lon="-122.624655"/>
<trkpt lat="49.089308" lon="-122.624803"/>
<trkpt lat="49.089391" lon="-122.624911"/>
<trkpt lat="49.089478" lon="-122.624900"/>
</trkseg>
<trkseg>
<trkpt lat="49.089482" lon="-122.624895"/>
<trkpt lat="49.089579" lon="-122.625070"/>
</trkseg>
<trkseg>
<trkpt lat="49.089579" lon="-122.625070"/>
<trkpt lat="49.090277" lon="-122.626546"/>
<trkpt lat="49.090766" lon="-122.627581"/>
<trkpt lat="49.091029" lon="-122.628149"/>
<trkpt lat="49.091148" lon="-122.628407"/>
<trkpt lat="49.092553" lon="-122.631245"/>
<trkpt lat="49.094995" lon="-122.635226"/>
<trkpt lat="49.096800" lon="-122.638299"/>
</trkseg>
<trkseg>
<trkpt lat="49.099717" lon="-122.638679"/>
<trkpt lat="49.096768" lon="-122.627705"/>
<trkpt lat="49.096158" lon="-122.625482"/>
<trkpt lat="49.095939" lon="-122.624687"/>
<trkpt lat="49.095891" lon="-122.624503"/>
<trkpt lat="49.095685" lon="-122.623700"/>
<trkpt lat="49.092798" lon="-122.612862"/>
<trkpt lat="49.092681" lon="-122.612410"/>
<trkpt lat="49.092453" lon="-122.611534"/>
<trkpt lat="49.091873" lon="-122.609491"/>
<trkpt lat="49.091701" lon="-122.608840"/>
<trkpt lat="49.091483" lon="-122.607938"/>
<trkpt lat="49.091446" lon="-122.607785"/>
<trkpt lat="49.090055" lon="-122.603535"/>
<trkpt lat="49.089798" lon="-122.602821"/>
<trkpt lat="49.089488" lon="-122.601962"/>
</trkseg>
<trkseg>
<trkpt lat="49.089488" lon="-122.601962"/>
<trkpt lat="49.089276" lon="-122.603481"/>
</trkseg>
<trkseg>
<trkpt lat="49.089488" lon="-122.601962"/>
<trkpt lat="49.089557" lon="-122.601738"/>
</trkseg>
<trkseg>
<trkpt lat="49.089557" lon="-122.601738"/>
<trkpt lat="49.089739" lon="-122.602264"/>
<trkpt lat="49.089928" lon="-122.602800"/>
<trkpt lat="49.091119" lon="-122.606186"/>
<trkpt lat="49.091249" lon="-122.606625"/>
<trkpt lat="49.091545" lon="-122.607726"/>
<trkpt lat="49.091585" lon="-122.607877"/>
<trkpt lat="49.091791" lon="-122.608631"/>
<trkpt lat="49.091954" lon="-122.609227"/>
<trkpt lat="49.092725" lon="-122.612146"/>
<trkpt lat="49.092879" lon="-122.612746"/>
<trkpt lat="49.095708" lon="-122.623183"/>
<trkpt lat="49.095839" lon="-122.623668"/>
<trkpt lat="49.096063" lon="-122.624503"/>
<trkpt lat="49.096108" lon="-122.624685"/>
<trkpt lat="49.096166" lon="-122.624908"/>
<trkpt lat="49.099908" lon="-122.639010"/>
<trkpt lat="49.100072" lon="-122.639620"/>
</trkseg>
<trkseg>
<trkpt lat="49.089579" lon="-122.625070"/>
<trkpt lat="49.089532" lon="-122.624829"/>
</trkseg>
<trkseg>
<trkpt lat="49.089546" lon="-122.624787"/>
<trkpt lat="49.089540" lon="-122.624642"/>
<trkpt lat="49.089458" lon="-122.624532"/>
<trkpt lat="49.089410" lon="-122.624263"/>
</trkseg>
<trkseg>
<trkpt lat="49.089410" lon="-122.621644"/>
<trkpt lat="49.089403" lon="-122.620944"/>
<trkpt lat="49.089413" lon="-122.617167"/>
</trkseg>
<trkseg>
<trkpt lat="49.089410" lon="-122.616830"/>
<trkpt lat="49.088809" lon="-122.616792"/>
<trkpt lat="49.086997" lon="-122.614103"/>
<trkpt lat="49.086094" lon="-122.612544"/>
<trkpt lat="49.085355" lon="-122.611298"/>
<trkpt lat="49.084781" lon="-122.609196"/>
<trkpt lat="49.084756" lon="-122.607916"/>
<trkpt lat="49.084786" lon="-122.606985"/>
<trkpt lat="49.084848" lon="-122.605019"/>
<trkpt lat="49.084563" lon="-122.603545"/>
<trkpt lat="49.079317" lon="-122.581342"/>
<trkpt lat="49.074532" lon="-122.561422"/>
</trkseg>
<trkseg>
<trkpt lat="49.074662" lon="-122.561451"/>
<trkpt lat="49.074489" lon="-122.560582"/>
</trkseg>
<trkseg>
<trkpt lat="49.074356" lon="-122.559177"/>
<trkpt lat="49.074710" lon="-122.559169"/>
<trkpt lat="49.084193" lon="-122.559042"/>
<trkpt lat="49.081398" lon="-122.547172"/>
<trkpt lat="49.079648" lon="-122.539753"/>
<trkpt lat="49.079198" lon="-122.536881"/>
</trkseg>
<trkseg>
<trkpt lat="49.079198" lon="-122.536881"/>
<trkpt lat="49.096651" lon="-122.537020"/>
<trkpt lat="49.100320" lon="-122.537047"/>
<trkpt lat="49.103986" lon="-122.537087"/>
<trkpt lat="49.107671" lon="-122.537122"/>
<trkpt lat="49.108567" lon="-122.537129"/>
<trkpt lat="49.113185" lon="-122.537112"/>
<trkpt lat="49.118512" lon="-122.537089"/>
<trkpt lat="49.119393" lon="-122.537070"/>
<trkpt lat="49.133180" lon="-122.536778"/>
<trkpt lat="49.133757" lon="-122.536890"/>
<trkpt lat="49.134585" lon="-122.538797"/>
<trkpt lat="49.135121" lon="-122.541221"/>
<trkpt lat="49.135703" lon="-122.542434"/>
<trkpt lat="49.137977" lon="-122.544134"/>
<trkpt lat="49.140563" lon="-122.547227"/>
<trkpt lat="49.141587" lon="-122.548898"/>
<trkpt lat="49.143398" lon="-122.549469"/>
<trkpt lat="49.144012" lon="-122.550126"/>
<trkpt lat="49.145984" lon="-122.550913"/>
<trkpt lat="49.147869" lon="-122.550401"/>
<trkpt lat="49.147953" lon="-122.558847"/>
<trkpt lat="49.148940" lon="-122.558832"/>
<trkpt lat="49.151221" lon="-122.558795"/>
<trkpt lat="49.152126" lon="-122.559026"/>
<trkpt lat="49.153681" lon="-122.558642"/>
<trkpt lat="49.154557" lon="-122.559061"/>
<trkpt lat="49.155639" lon="-122.559910"/>
<trkpt lat="49.155855" lon="-122.558772"/>
<trkpt lat="49.156490" lon="-122.558632"/>
<trkpt lat="49.160428" lon="-122.558543"/>
<trkpt lat="49.161162" lon="-122.558435"/>
<trkpt lat="49.161549" lon="-122.557295"/>
<trkpt lat="49.162948" lon="-122.554934"/>
<trkpt lat="49.165539" lon="-122.554755"/>
</trkseg>
<trkseg>
<trkpt lat="49.165539" lon="-122.554755"/>
<trkpt lat="49.166700" lon="-122.564688"/>
<trkpt lat="49.167356" lon="-122.567573"/>
<trkpt lat="49.169632" lon="-122.574533"/>
<trkpt lat="49.169426" lon="-122.576079"/>
<trkpt lat="49.169741" lon="-122.576780"/>
<trkpt lat="49.170266" lon="-122.577898"/>
</trkseg>
<trkseg>
<trkpt lat="49.170266" lon="-122.577898"/>
<trkpt lat="49.169963" lon="-122.578237"/>
</trkseg>
<trkseg>
<trkpt lat="49.169963" lon="-122.578237"/>
<trkpt lat="49.168365" lon="-122.579989"/>
</trkseg>
<trkseg>
<trkpt lat="49.168365" lon="-122.579989"/>
<trkpt lat="49.168565" lon="-122.580451"/>
</trkseg>
<trkseg>
<trkpt lat="49.168565" lon="-122.580451"/>
<trkpt lat="49.168681" lon="-122.580720"/>
</trkseg>
<trkseg>
<trkpt lat="49.168681" lon="-122.580720"/>
<trkpt lat="49.170962" lon="-122.586736"/>
<trkpt lat="49.172210" lon="-122.589316"/>
<trkpt lat="49.172333" lon="-122.589542"/>
<trkpt lat="49.172688" lon="-122.590190"/>
</trkseg>
<trkseg>
<trkpt lat="49.172688" lon="-122.590190"/>
<trkpt lat="49.173019" lon="-122.590792"/>
</trkseg>
<trkseg>
<trkpt lat="49.173019" lon="-122.590792"/>
<trkpt lat="49.173074" lon="-122.590892"/>
<trkpt lat="49.173209" lon="-122.591137"/>
<trkpt lat="49.173284" lon="-122.591274"/>
<trkpt lat="49.173646" lon="-122.591935"/>
<trkpt lat="49.173748" lon="-122.592121"/>
<trkpt lat="49.173870" lon="-122.592344"/>
<trkpt lat="49.174074" lon="-122.592731"/>
<trkpt lat="49.174816" lon="-122.594102"/>
</trkseg>
<trkseg>
<trkpt lat="49.174816" lon="-122.594102"/>
<trkpt lat="49.174973" lon="-122.594248"/>
<trkpt lat="49.175294" lon="-122.594548"/>
<trkpt lat="49.175367" lon="-122.594601"/>
<trkpt lat="49.175407" lon="-122.594701"/>
</trkseg>
<trkseg>
<trkpt lat="49.175407" lon="-122.594701"/>
<trkpt lat="49.177728" lon="-122.596315"/>
</trkseg>
<trkseg>
<trkpt lat="49.177728" lon="-122.596315"/>
<trkpt lat="49.178070" lon="-122.597085"/>
</trkseg>
<trkseg>
<trkpt lat="49.178070" lon="-122.597085"/>
<trkpt lat="49.177997" lon="-122.597818"/>
<trkpt lat="49.177114" lon="-122.599570"/>
<trkpt lat="49.176960" lon="-122.600904"/>
<trkpt lat="49.176951" lon="-122.616716"/>
<trkpt lat="49.176947" lon="-122.617355"/>
<trkpt lat="49.176927" lon="-122.630877"/>
<trkpt lat="49.176947" lon="-122.639123"/>
</trkseg>
<trkseg>
<trkpt lat="49.176947" lon="-122.639123"/>
<trkpt lat="49.176963" lon="-122.640128"/>
<trkpt lat="49.176965" lon="-122.640512"/>
<trkpt lat="49.176977" lon="-122.645271"/>
<trkpt lat="49.176975" lon="-122.645824"/>
<trkpt lat="49.176976" lon="-122.646225"/>
<trkpt lat="49.176973" lon="-122.646340"/>
<trkpt lat="49.176973" lon="-122.646668"/>
<trkpt lat="49.176976" lon="-122.647152"/>
<trkpt lat="49.176975" lon="-122.648417"/>
<trkpt lat="49.176975" lon="-122.648983"/>
<trkpt lat="49.176976" lon="-122.651050"/>
<trkpt lat="49.176978" lon="-122.651907"/>
<trkpt lat="49.176982" lon="-122.654345"/>
<trkpt lat="49.176981" lon="-122.654866"/>
<trkpt lat="49.176985" lon="-122.654957"/>
<trkpt lat="49.176994" lon="-122.656548"/>
<trkpt lat="49.176998" lon="-122.657357"/>
</trkseg>
<trkseg>
<trkpt lat="49.176998" lon="-122.657357"/>
<trkpt lat="49.176948" lon="-122.658084"/>
<trkpt lat="49.176960" lon="-122.661125"/>
<trkpt lat="49.176962" lon="-122.662178"/>
<trkpt lat="49.176958" lon="-122.662972"/>
<trkpt lat="49.176955" lon="-122.663795"/>
<trkpt lat="49.176951" lon="-122.664418"/>
</trkseg>
<trkseg>
<trkpt lat="49.176951" lon="-122.664418"/>
<trkpt lat="49.176920" lon="-122.666545"/>
<trkpt lat="49.176915" lon="-122.668061"/>
<trkpt lat="49.176908" lon="-122.669431"/>
</trkseg>
<trkseg>
<trkpt lat="49.176908" lon="-122.669431"/>
<trkpt lat="49.176945" lon="-122.671524"/>
<trkpt lat="49.176978" lon="-122.673532"/>
<trkpt lat="49.176979" lon="-122.673894"/>
<trkpt lat="49.177082" lon="-122.673893"/>
<trkpt lat="49.177409" lon="-122.673826"/>
</trkseg>
<trkseg>
<trkpt lat="49.177409" lon="-122.673826"/>
<trkpt lat="49.177790" lon="-122.673834"/>
<trkpt lat="49.178169" lon="-122.674202"/>
<trkpt lat="49.179846" lon="-122.678027"/>
<trkpt lat="49.180475" lon="-122.679455"/>
<trkpt lat="49.180684" lon="-122.679772"/>
</trkseg>
<trkseg>
<trkpt lat="49.177409" lon="-122.673826"/>
<trkpt lat="49.177079" lon="-122.673465"/>
<trkpt lat="49.177016" lon="-122.669427"/>
</trkseg>
<trkseg>
<trkpt lat="49.177016" lon="-122.669427"/>
<trkpt lat="49.176908" lon="-122.669431"/>
</trkseg>
<trkseg>
<trkpt lat="49.176908" lon="-122.669431"/>
<trkpt lat="49.176349" lon="-122.669238"/>
<trkpt lat="49.175409" lon="-122.668085"/>
<trkpt lat="49.173131" lon="-122.668128"/>
<trkpt lat="49.171169" lon="-122.668139"/>
<trkpt lat="49.170850" lon="-122.668139"/>
<trkpt lat="49.170535" lon="-122.668139"/>
<trkpt lat="49.169892" lon="-122.668128"/>
<trkpt lat="49.169072" lon="-122.668138"/>
<trkpt lat="49.167352" lon="-122.668106"/>
<trkpt lat="49.166956" lon="-122.668117"/>
<trkpt lat="49.166629" lon="-122.668209"/>
<trkpt lat="49.166390" lon="-122.668255"/>
<trkpt lat="49.164496" lon="-122.668873"/>
<trkpt lat="49.164271" lon="-122.668932"/>
<trkpt lat="49.163989" lon="-122.669031"/>
<trkpt lat="49.162982" lon="-122.669170"/>
<trkpt lat="49.161999" lon="-122.668726"/>
<trkpt lat="49.161468" lon="-122.668381"/>
<trkpt lat="49.161175" lon="-122.668205"/>
<trkpt lat="49.161079" lon="-122.668173"/>
<trkpt lat="49.160800" lon="-122.668120"/>
<trkpt lat="49.159995" lon="-122.668038"/>
<trkpt lat="49.159231" lon="-122.668043"/>
</trkseg>
<trkseg>
<trkpt lat="49.159231" lon="-122.668043"/>
<trkpt lat="49.159130" lon="-122.668044"/>
</trkseg>
<trkseg>
<trkpt lat="49.159130" lon="-122.668044"/>
<trkpt lat="49.158797" lon="-122.668048"/>
<trkpt lat="49.155952" lon="-122.668163"/>
<trkpt lat="49.155620" lon="-122.668176"/>
</trkseg>
<trkseg>
<trkpt lat="49.155712" lon="-122.668346"/>
<trkpt lat="49.155710" lon="-122.667804"/>
<trkpt lat="49.160918" lon="-122.667514"/>
</trkseg>
<trkseg>
<trkpt lat="49.160918" lon="-122.667514"/>
<trkpt lat="49.160966" lon="-122.667618"/>
<trkpt lat="49.160991" lon="-122.667709"/>
<trkpt lat="49.161001" lon="-122.668296"/>
<trkpt lat="49.161002" lon="-122.668314"/>
</trkseg>
<trkseg>
<trkpt lat="49.160992" lon="-122.668326"/>
<trkpt lat="49.161022" lon="-122.668322"/>
<trkpt lat="49.161223" lon="-122.668398"/>
<trkpt lat="49.161258" lon="-122.668446"/>
<trkpt lat="49.161319" lon="-122.668544"/>
<trkpt lat="49.162744" lon="-122.669402"/>
<trkpt lat="49.163672" lon="-122.669574"/>
</trkseg>
<trkseg>
<trkpt lat="49.163915" lon="-122.668747"/>
<trkpt lat="49.162841" lon="-122.668766"/>
<trkpt lat="49.161275" lon="-122.667791"/>
<trkpt lat="49.161012" lon="-122.667668"/>
<trkpt lat="49.160989" lon="-122.667658"/>
</trkseg>
<trkseg>
<trkpt lat="49.160918" lon="-122.667514"/>
<trkpt lat="49.161530" lon="-122.665952"/>
<trkpt lat="49.161676" lon="-122.665713"/>
<trkpt lat="49.162211" lon="-122.664750"/>
<trkpt lat="49.162376" lon="-122.663866"/>
<trkpt lat="49.161444" lon="-122.660328"/>
</trkseg>
<trkseg>
<trkpt lat="49.161370" lon="-122.660536"/>
<trkpt lat="49.161277" lon="-122.660705"/>
<trkpt lat="49.159508" lon="-122.661744"/>
<trkpt lat="49.159390" lon="-122.662035"/>
<trkpt lat="49.159282" lon="-122.661697"/>
</trkseg>
<trkseg>
<trkpt lat="49.159282" lon="-122.661697"/>
<trkpt lat="49.159300" lon="-122.663631"/>
<trkpt lat="49.159300" lon="-122.663705"/>
<trkpt lat="49.159299" lon="-122.663795"/>
<trkpt lat="49.159309" lon="-122.665137"/>
<trkpt lat="49.159305" lon="-122.665221"/>
</trkseg>
<trkseg>
<trkpt lat="49.159301" lon="-122.665353"/>
<trkpt lat="49.159309" lon="-122.666504"/>
<trkpt lat="49.159307" lon="-122.666683"/>
<trkpt lat="49.159380" lon="-122.667502"/>
</trkseg>
<trkseg>
<trkpt lat="49.159314" lon="-122.667608"/>
<trkpt lat="49.159314" lon="-122.668205"/>
</trkseg>
<trkseg>
<trkpt lat="49.159314" lon="-122.668205"/>
<trkpt lat="49.160939" lon="-122.668414"/>
</trkseg>
<trkseg>
<trkpt lat="49.160939" lon="-122.668414"/>
<trkpt lat="49.160992" lon="-122.668326"/>
</trkseg>
<trkseg>
<trkpt lat="49.160992" lon="-122.668326"/>
<trkpt lat="49.160939" lon="-122.668414"/>
</trkseg>
<trkseg>
<trkpt lat="49.161232" lon="-122.668402"/>
<trkpt lat="49.161235" lon="-122.668383"/>
<trkpt lat="49.161339" lon="-122.667821"/>
</trkseg>
<trkseg>
<trkpt lat="49.161070" lon="-122.667961"/>
<trkpt lat="49.161179" lon="-122.668003"/>
<trkpt lat="49.162686" lon="-122.669091"/>
</trkseg>
<trkseg>
<trkpt lat="49.159314" lon="-122.668205"/>
<trkpt lat="49.159005" lon="-122.668311"/>
<trkpt lat="49.157469" lon="-122.668381"/>
<trkpt lat="49.157249" lon="-122.668371"/>
<trkpt lat="49.155782" lon="-122.668456"/>
<trkpt lat="49.155460" lon="-122.668325"/>
</trkseg>
<trkseg>
<trkpt lat="49.155619" lon="-122.667932"/>
<trkpt lat="49.158410" lon="-122.667810"/>
<trkpt lat="49.159129" lon="-122.667785"/>
</trkseg>
<trkseg>
<trkpt lat="49.159129" lon="-122.667785"/>
<trkpt lat="49.159130" lon="-122.668044"/>
</trkseg>
<trkseg>
<trkpt lat="49.159231" lon="-122.668043"/>
<trkpt lat="49.159231" lon="-122.667781"/>
</trkseg>
<trkseg>
<trkpt lat="49.159231" lon="-122.667781"/>
<trkpt lat="49.159129" lon="-122.667785"/>
</trkseg>
<trkseg>
<trkpt lat="49.159129" lon="-122.667785"/>
<trkpt lat="49.159130" lon="-122.667031"/>
<trkpt lat="49.159216" lon="-122.666583"/>
</trkseg>
<trkseg>
<trkpt lat="49.159216" lon="-122.666583"/>
<trkpt lat="49.159229" lon="-122.667282"/>
<trkpt lat="49.159231" lon="-122.667781"/>
</trkseg>
<trkseg>
<trkpt lat="49.159231" lon="-122.667781"/>
<trkpt lat="49.159473" lon="-122.667772"/>
<trkpt lat="49.160342" lon="-122.667746"/>
<trkpt lat="49.160761" lon="-122.667768"/>
<trkpt lat="49.161063" lon="-122.667825"/>
<trkpt lat="49.161174" lon="-122.667856"/>
<trkpt lat="49.162904" lon="-122.668927"/>
<trkpt lat="49.163942" lon="-122.668853"/>
<trkpt lat="49.164444" lon="-122.668671"/>
<trkpt lat="49.164997" lon="-122.668471"/>
<trkpt lat="49.165193" lon="-122.668402"/>
<trkpt lat="49.166037" lon="-122.668108"/>
<trkpt lat="49.166257" lon="-122.668028"/>
<trkpt lat="49.166385" lon="-122.667978"/>
<trkpt lat="49.166670" lon="-122.667903"/>
<trkpt lat="49.169070" lon="-122.667938"/>
<trkpt lat="49.170545" lon="-122.667942"/>
<trkpt lat="49.170848" lon="-122.667943"/>
<trkpt lat="49.171184" lon="-122.667944"/>
<trkpt lat="49.172963" lon="-122.667841"/>
<trkpt lat="49.173304" lon="-122.667522"/>
</trkseg>
<trkseg>
<trkpt lat="49.173304" lon="-122.667522"/>
<trkpt lat="49.173486" lon="-122.668118"/>
</trkseg>
<trkseg>
<trkpt lat="49.173304" lon="-122.667522"/>
<trkpt lat="49.173622" lon="-122.666610"/>
<trkpt lat="49.174039" lon="-122.665719"/>
<trkpt lat="49.174263" lon="-122.665390"/>
</trkseg>
<trkseg>
<trkpt lat="49.174263" lon="-122.665390"/>
<trkpt lat="49.174480" lon="-122.665142"/>
<trkpt lat="49.175423" lon="-122.664515"/>
<trkpt lat="49.176577" lon="-122.664416"/>
<trkpt lat="49.176951" lon="-122.664418"/>
</trkseg>
<trkseg>
<trkpt lat="49.176951" lon="-122.664418"/>
<trkpt lat="49.177051" lon="-122.664417"/>
</trkseg>
<trkseg>
<trkpt lat="49.177051" lon="-122.664417"/>
<trkpt lat="49.177018" lon="-122.668056"/>
<trkpt lat="49.177017" lon="-122.668647"/>
<trkpt lat="49.177016" lon="-122.669427"/>
</trkseg>
<trkseg>
<trkpt lat="49.177016" lon="-122.669427"/>
<trkpt lat="49.177507" lon="-122.669404"/>
<trkpt lat="49.179184" lon="-122.669384"/>
<trkpt lat="49.180582" lon="-122.669498"/>
<trkpt lat="49.181035" lon="-122.669031"/>
<trkpt lat="49.181263" lon="-122.666828"/>
<trkpt lat="49.182516" lon="-122.666330"/>
<trkpt lat="49.182798" lon="-122.665091"/>
<trkpt lat="49.182873" lon="-122.664586"/>
<trkpt lat="49.183084" lon="-122.664346"/>
</trkseg>
<trkseg>
<trkpt lat="49.183084" lon="-122.664346"/>
<trkpt lat="49.182323" lon="-122.664311"/>
<trkpt lat="49.181526" lon="-122.664290"/>
<trkpt lat="49.180341" lon="-122.664413"/>
<trkpt lat="49.179262" lon="-122.664408"/>
<trkpt lat="49.177751" lon="-122.664414"/>
<trkpt lat="49.177051" lon="-122.664417"/>
</trkseg>
<trkseg>
<trkpt lat="49.177051" lon="-122.664417"/>
<trkpt lat="49.177063" lon="-122.662818"/>
<trkpt lat="49.177061" lon="-122.662379"/>
<trkpt lat="49.177056" lon="-122.661124"/>
<trkpt lat="49.177055" lon="-122.660506"/>
<trkpt lat="49.176998" lon="-122.657357"/>
</trkseg>
<trkseg>
<trkpt lat="49.174275" lon="-122.664977"/>
<trkpt lat="49.174271" lon="-122.665063"/>
<trkpt lat="49.174270" lon="-122.665168"/>
<trkpt lat="49.174233" lon="-122.665211"/>
<trkpt lat="49.174133" lon="-122.665335"/>
<trkpt lat="49.174093" lon="-122.665383"/>
<trkpt lat="49.174224" lon="-122.665604"/>
</trkseg>
<trkseg>
<trkpt lat="49.174263" lon="-122.665390"/>
<trkpt lat="49.174014" lon="-122.665147"/>
<trkpt lat="49.173956" lon="-122.665078"/>
<trkpt lat="49.173579" lon="-122.664626"/>
<trkpt lat="49.172783" lon="-122.663706"/>
<trkpt lat="49.171153" lon="-122.663180"/>
<trkpt lat="49.170823" lon="-122.663184"/>
<trkpt lat="49.170537" lon="-122.663165"/>
<trkpt lat="49.168618" lon="-122.662627"/>
<trkpt lat="49.166875" lon="-122.662613"/>
</trkseg>
<trkseg>
<trkpt lat="49.166875" lon="-122.662613"/>
<trkpt lat="49.166212" lon="-122.662606"/>
</trkseg>
<trkseg>
<trkpt lat="49.166212" lon="-122.662606"/>
<trkpt lat="49.165486" lon="-122.662429"/>
<trkpt lat="49.164437" lon="-122.661001"/>
<trkpt lat="49.164109" lon="-122.660356"/>
<trkpt lat="49.163560" lon="-122.659922"/>
<trkpt lat="49.162874" lon="-122.659876"/>
<trkpt lat="49.162765" lon="-122.659875"/>
<trkpt lat="49.161936" lon="-122.660058"/>
</trkseg>
<trkseg>
<trkpt lat="49.161936" lon="-122.660058"/>
<trkpt lat="49.161913" lon="-122.660168"/>
<trkpt lat="49.161776" lon="-122.660234"/>
<trkpt lat="49.161738" lon="-122.660200"/>
</trkseg>
<trkseg>
<trkpt lat="49.161738" lon="-122.660200"/>
<trkpt lat="49.160885" lon="-122.660641"/>
<trkpt lat="49.160286" lon="-122.660965"/>
<trkpt lat="49.159621" lon="-122.661456"/>
<trkpt lat="49.159194" lon="-122.661551"/>
</trkseg>
<trkseg>
<trkpt lat="49.159194" lon="-122.661551"/>
<trkpt lat="49.159226" lon="-122.663057"/>
<trkpt lat="49.159238" lon="-122.665219"/>
<trkpt lat="49.159216" lon="-122.666583"/>
</trkseg>
<trkseg>
<trkpt lat="49.159052" lon="-122.667594"/>
<trkpt lat="49.159081" lon="-122.668203"/>
</trkseg>
<trkseg>
<trkpt lat="49.155598" lon="-122.665211"/>
<trkpt lat="49.155587" lon="-122.661741"/>
<trkpt lat="49.155585" lon="-122.657629"/>
</trkseg>
<trkseg>
<trkpt lat="49.155585" lon="-122.657629"/>
<trkpt lat="49.155641" lon="-122.657162"/>
</trkseg>
<trkseg>
<trkpt lat="49.155540" lon="-122.657173"/>
<trkpt lat="49.155585" lon="-122.657629"/>
</trkseg>
<trkseg>
<trkpt lat="49.155481" lon="-122.657310"/>
<trkpt lat="49.155540" lon="-122.657318"/>
<trkpt lat="49.155636" lon="-122.657334"/>
<trkpt lat="49.155691" lon="-122.660208"/>
<trkpt lat="49.155669" lon="-122.660239"/>
<trkpt lat="49.155521" lon="-122.660250"/>
</trkseg>
<trkseg>
<trkpt lat="49.155521" lon="-122.660250"/>
<trkpt lat="49.155524" lon="-122.660412"/>
<trkpt lat="49.155513" lon="-122.661683"/>
<trkpt lat="49.155512" lon="-122.664379"/>
<trkpt lat="49.155597" lon="-122.664423"/>
</trkseg>
<trkseg>
<trkpt lat="49.155695" lon="-122.663778"/>
<trkpt lat="49.155685" lon="-122.663079"/>
<trkpt lat="49.155711" lon="-122.662398"/>
<trkpt lat="49.155709" lon="-122.661902"/>
<trkpt lat="49.155692" lon="-122.661776"/>
</trkseg>
<trkseg>
<trkpt lat="49.155521" lon="-122.660250"/>
<trkpt lat="49.155395" lon="-122.648256"/>
</trkseg>
<trkseg>
<trkpt lat="49.155475" lon="-122.648644"/>
<trkpt lat="49.155544" lon="-122.654219"/>
<trkpt lat="49.155558" lon="-122.655364"/>
<trkpt lat="49.155574" lon="-122.656466"/>
</trkseg>
<trkseg>
<trkpt lat="49.155574" lon="-122.656466"/>
<trkpt lat="49.155534" lon="-122.656900"/>
</trkseg>
<trkseg>
<trkpt lat="49.155631" lon="-122.656899"/>
<trkpt lat="49.155574" lon="-122.656466"/>
</trkseg>
<trkseg>
<trkpt lat="49.155680" lon="-122.656988"/>
<trkpt lat="49.155487" lon="-122.657085"/>
<trkpt lat="49.155680" lon="-122.656988"/>
</trkseg>
<trkseg>
<trkpt lat="49.159241" lon="-122.658224"/>
<trkpt lat="49.159253" lon="-122.658497"/>
<trkpt lat="49.159254" lon="-122.660179"/>
</trkseg>
<trkseg>
<trkpt lat="49.159254" lon="-122.660179"/>
<trkpt lat="49.159254" lon="-122.660367"/>
<trkpt lat="49.159296" lon="-122.661321"/>
</trkseg>
<trkseg>
<trkpt lat="49.159296" lon="-122.661321"/>
<trkpt lat="49.159283" lon="-122.661353"/>
</trkseg>
<trkseg>
<trkpt lat="49.159283" lon="-122.661353"/>
<trkpt lat="49.159282" lon="-122.661697"/>
</trkseg>
<trkseg>
<trkpt lat="49.159282" lon="-122.661697"/>
<trkpt lat="49.159283" lon="-122.661353"/>
</trkseg>
<trkseg>
<trkpt lat="49.159283" lon="-122.661353"/>
<trkpt lat="49.159296" lon="-122.661321"/>
</trkseg>
<trkseg>
<trkpt lat="49.159296" lon="-122.661321"/>
<trkpt lat="49.160150" lon="-122.660830"/>
<trkpt lat="49.160342" lon="-122.660719"/>
<trkpt lat="49.161662" lon="-122.659790"/>
<trkpt lat="49.161797" lon="-122.659708"/>
<trkpt lat="49.162366" lon="-122.659633"/>
<trkpt lat="49.162435" lon="-122.659614"/>
<trkpt lat="49.162717" lon="-122.659610"/>
</trkseg>
<trkseg>
<trkpt lat="49.162717" lon="-122.659610"/>
<trkpt lat="49.162715" lon="-122.660002"/>
<trkpt lat="49.162983" lon="-122.660012"/>
<trkpt lat="49.162986" lon="-122.659614"/>
</trkseg>
<trkseg>
<trkpt lat="49.162986" lon="-122.659614"/>
<trkpt lat="49.163209" lon="-122.659659"/>
<trkpt lat="49.163297" lon="-122.659661"/>
<trkpt lat="49.164288" lon="-122.660282"/>
<trkpt lat="49.164336" lon="-122.660368"/>
<trkpt lat="49.164521" lon="-122.660735"/>
</trkseg>
<trkseg>
<trkpt lat="49.164521" lon="-122.660735"/>
<trkpt lat="49.164612" lon="-122.660910"/>
<trkpt lat="49.164961" lon="-122.661639"/>
<trkpt lat="49.165016" lon="-122.661715"/>
<trkpt lat="49.165284" lon="-122.662015"/>
<trkpt lat="49.166899" lon="-122.662362"/>
</trkseg>
<trkseg>
<trkpt lat="49.166899" lon="-122.662362"/>
<trkpt lat="49.166899" lon="-122.662451"/>
<trkpt lat="49.166944" lon="-122.662685"/>
</trkseg>
<trkseg>
<trkpt lat="49.166875" lon="-122.662613"/>
<trkpt lat="49.166329" lon="-122.662447"/>
</trkseg>
<trkseg>
<trkpt lat="49.166212" lon="-122.662606"/>
<trkpt lat="49.165810" lon="-122.662399"/>
</trkseg>
<trkseg>
<trkpt lat="49.166899" lon="-122.662362"/>
<trkpt lat="49.167022" lon="-122.662359"/>
<trkpt lat="49.167125" lon="-122.662359"/>
<trkpt lat="49.168552" lon="-122.662286"/>
</trkseg>
<trkseg>
<trkpt lat="49.168552" lon="-122.662286"/>
<trkpt lat="49.170824" lon="-122.662916"/>
<trkpt lat="49.172023" lon="-122.662960"/>
<trkpt lat="49.172156" lon="-122.663035"/>
<trkpt lat="49.172826" lon="-122.663383"/>
<trkpt lat="49.172955" lon="-122.663492"/>
<trkpt lat="49.173680" lon="-122.664354"/>
<trkpt lat="49.173755" lon="-122.664450"/>
<trkpt lat="49.174275" lon="-122.664977"/>
<trkpt lat="49.175364" lon="-122.664362"/>
<trkpt lat="49.175458" lon="-122.664343"/>
<trkpt lat="49.176801" lon="-122.664011"/>
<trkpt lat="49.176844" lon="-122.664120"/>
<trkpt lat="49.176876" lon="-122.664210"/>
<trkpt lat="49.177133" lon="-122.664255"/>
<trkpt lat="49.177809" lon="-122.664278"/>
<trkpt lat="49.177921" lon="-122.664277"/>
<trkpt lat="49.178105" lon="-122.664276"/>
<trkpt lat="49.178218" lon="-122.664276"/>
<trkpt lat="49.178540" lon="-122.664272"/>
<trkpt lat="49.178627" lon="-122.664271"/>
<trkpt lat="49.179129" lon="-122.664236"/>
<trkpt lat="49.179393" lon="-122.664233"/>
<trkpt lat="49.180159" lon="-122.664244"/>
<trkpt lat="49.180279" lon="-122.664241"/>
<trkpt lat="49.181406" lon="-122.664212"/>
<trkpt lat="49.181663" lon="-122.664219"/>
<trkpt lat="49.182584" lon="-122.664245"/>
<trkpt lat="49.182876" lon="-122.664258"/>
<trkpt lat="49.184343" lon="-122.664214"/>
<trkpt lat="49.184342" lon="-122.664412"/>
<trkpt lat="49.184316" lon="-122.664552"/>
</trkseg>
<trkseg>
<trkpt lat="49.184316" lon="-122.664552"/>
<trkpt lat="49.184442" lon="-122.665493"/>
<trkpt lat="49.184266" lon="-122.666147"/>
</trkseg>
<trkseg>
<trkpt lat="49.184144" lon="-122.665819"/>
<trkpt lat="49.184303" lon="-122.666115"/>
<trkpt lat="49.184144" lon="-122.665819"/>
</trkseg>
<trkseg>
<trkpt lat="49.184227" lon="-122.665012"/>
<trkpt lat="49.184135" lon="-122.664655"/>
<trkpt lat="49.184295" lon="-122.664775"/>
<trkpt lat="49.184184" lon="-122.665020"/>
<trkpt lat="49.184134" lon="-122.664644"/>
<trkpt lat="49.184316" lon="-122.664552"/>
</trkseg>
<trkseg>
<trkpt lat="49.184468" lon="-122.664412"/>
<trkpt lat="49.184350" lon="-122.664358"/>
<trkpt lat="49.184163" lon="-122.664297"/>
</trkseg>
<trkseg>
<trkpt lat="49.184163" lon="-122.664297"/>
<trkpt lat="49.183084" lon="-122.664346"/>
</trkseg>
<trkseg>
<trkpt lat="49.184163" lon="-122.664297"/>
<trkpt lat="49.184345" lon="-122.664249"/>
<trkpt lat="49.184468" lon="-122.664190"/>
</trkseg>
<trkseg>
<trkpt lat="49.184565" lon="-122.664096"/>
<trkpt lat="49.184716" lon="-122.664274"/>
<trkpt lat="49.184599" lon="-122.664507"/>
<trkpt lat="49.184449" lon="-122.664340"/>
<trkpt lat="49.184565" lon="-122.664096"/>
</trkseg>
<trkseg>
<trkpt lat="49.184696" lon="-122.664190"/>
<trkpt lat="49.184964" lon="-122.664274"/>
</trkseg>
<trkseg>
<trkpt lat="49.184964" lon="-122.664274"/>
<trkpt lat="49.184674" lon="-122.664452"/>
</trkseg>
<trkseg>
<trkpt lat="49.184964" lon="-122.664274"/>
<trkpt lat="49.187514" lon="-122.664221"/>
<trkpt lat="49.189191" lon="-122.664211"/>
<trkpt lat="49.189190" lon="-122.663956"/>
<trkpt lat="49.189168" lon="-122.660494"/>
<trkpt lat="49.189166" lon="-122.659843"/>
<trkpt lat="49.189164" lon="-122.659333"/>
<trkpt lat="49.189161" lon="-122.659057"/>
<trkpt lat="49.189103" lon="-122.650085"/>
<trkpt lat="49.189072" lon="-122.645116"/>
</trkseg>
<trkseg>
<trkpt lat="49.197506" lon="-122.644374"/>
<trkpt lat="49.199331" lon="-122.638078"/>
<trkpt lat="49.201862" lon="-122.630826"/>
<trkpt lat="49.203682" lon="-122.626670"/>
<trkpt lat="49.205091" lon="-122.622655"/>
<trkpt lat="49.205817" lon="-122.620229"/>
<trkpt lat="49.206353" lon="-122.616266"/>
<trkpt lat="49.206384" lon="-122.610232"/>
<trkpt lat="49.205656" lon="-122.604531"/>
<trkpt lat="49.204839" lon="-122.601624"/>
<trkpt lat="49.203485" lon="-122.599519"/>
<trkpt lat="49.200718" lon="-122.595413"/>
<trkpt lat="49.199361" lon="-122.594191"/>
<trkpt lat="49.196669" lon="-122.594019"/>
<trkpt lat="49.194753" lon="-122.595447"/>
<trkpt lat="49.189796" lon="-122.592978"/>
<trkpt lat="49.185385" lon="-122.593284"/>
<trkpt lat="49.183178" lon="-122.600212"/>
<trkpt lat="49.178655" lon="-122.596942"/>
</trkseg>
<trkseg>
<trkpt lat="49.178655" lon="-122.596942"/>
<trkpt lat="49.178070" lon="-122.597085"/>
</trkseg>
<trkseg>
<trkpt lat="49.178655" lon="-122.596942"/>
<trkpt lat="49.177728" lon="-122.596315"/>
</trkseg>
<trkseg>
<trkpt lat="49.175407" lon="-122.594701"/>
<trkpt lat="49.175274" lon="-122.594676"/>
<trkpt lat="49.175250" lon="-122.594656"/>
<trkpt lat="49.174929" lon="-122.594358"/>
<trkpt lat="49.174893" lon="-122.594285"/>
<trkpt lat="49.174886" lon="-122.594213"/>
</trkseg>
<trkseg>
<trkpt lat="49.174886" lon="-122.594213"/>
<trkpt lat="49.174954" lon="-122.594296"/>
<trkpt lat="49.175276" lon="-122.594592"/>
<trkpt lat="49.175407" lon="-122.594701"/>
</trkseg>
<trkseg>
<trkpt lat="49.174886" lon="-122.594213"/>
<trkpt lat="49.174816" lon="-122.594102"/>
</trkseg>
<trkseg>
<trkpt lat="49.174816" lon="-122.594102"/>
<trkpt lat="49.174886" lon="-122.594213"/>
</trkseg>
<trkseg>
<trkpt lat="49.174816" lon="-122.594102"/>
<trkpt lat="49.175838" lon="-122.590782"/>
<trkpt lat="49.175681" lon="-122.589553"/>
<trkpt lat="49.176306" lon="-122.587883"/>
<trkpt lat="49.176216" lon="-122.586692"/>
<trkpt lat="49.176444" lon="-122.586484"/>
</trkseg>
<trkseg>
<trkpt lat="49.180142" lon="-122.586877"/>
<trkpt lat="49.180600" lon="-122.586240"/>
<trkpt lat="49.180537" lon="-122.585091"/>
</trkseg>
<trkseg>
<trkpt lat="49.180489" lon="-122.585037"/>
<trkpt lat="49.180738" lon="-122.584440"/>
<trkpt lat="49.181376" lon="-122.584545"/>
<trkpt lat="49.182168" lon="-122.584075"/>
<trkpt lat="49.182794" lon="-122.584369"/>
<trkpt lat="49.183399" lon="-122.583831"/>
<trkpt lat="49.183669" lon="-122.583918"/>
<trkpt lat="49.183995" lon="-122.583395"/>
<trkpt lat="49.184102" lon="-122.583241"/>
<trkpt lat="49.184305" lon="-122.583045"/>
<trkpt lat="49.185079" lon="-122.583651"/>
<trkpt lat="49.185469" lon="-122.584859"/>
<trkpt lat="49.185823" lon="-122.585062"/>
<trkpt lat="49.186039" lon="-122.585413"/>
<trkpt lat="49.186198" lon="-122.586061"/>
<trkpt lat="49.186821" lon="-122.586885"/>
<trkpt lat="49.186293" lon="-122.587781"/>
</trkseg>
<trkseg>
<trkpt lat="49.186096" lon="-122.587824"/>
<trkpt lat="49.185969" lon="-122.588563"/>
</trkseg>
<trkseg>
<trkpt lat="49.188115" lon="-122.588487"/>
<trkpt lat="49.187220" lon="-122.587812"/>
<trkpt lat="49.184763" lon="-122.587594"/>
<trkpt lat="49.184186" lon="-122.586878"/>
<trkpt lat="49.182657" lon="-122.586241"/>
<trkpt lat="49.181194" lon="-122.585158"/>
<trkpt lat="49.179956" lon="-122.584933"/>
<trkpt lat="49.179521" lon="-122.584640"/>
<trkpt lat="49.178637" lon="-122.583193"/>
<trkpt lat="49.176878" lon="-122.583083"/>
<trkpt lat="49.173422" lon="-122.576566"/>
<trkpt lat="49.173178" lon="-122.575486"/>
<trkpt lat="49.173270" lon="-122.575381"/>
<trkpt lat="49.173053" lon="-122.574852"/>
</trkseg>
<trkseg>
<trkpt lat="49.170657" lon="-122.575697"/>
<trkpt lat="49.169702" lon="-122.573650"/>
</trkseg>
<trkseg>
<trkpt lat="49.170586" lon="-122.575679"/>
<trkpt lat="49.170705" lon="-122.575830"/>
<trkpt lat="49.171130" lon="-122.576852"/>
<trkpt lat="49.171062" lon="-122.576918"/>
<trkpt lat="49.171173" lon="-122.577067"/>
<trkpt lat="49.171362" lon="-122.577189"/>
<trkpt lat="49.171602" lon="-122.577736"/>
<trkpt lat="49.171572" lon="-122.577998"/>
<trkpt lat="49.171814" lon="-122.578225"/>
<trkpt lat="49.172025" lon="-122.578626"/>
<trkpt lat="49.174058" lon="-122.582538"/>
<trkpt lat="49.174653" lon="-122.583016"/>
<trkpt lat="49.174812" lon="-122.583624"/>
<trkpt lat="49.176357" lon="-122.585673"/>
<trkpt lat="49.176444" lon="-122.586484"/>
<trkpt lat="49.177509" lon="-122.586984"/>
<trkpt lat="49.180147" lon="-122.589010"/>
<trkpt lat="49.183636" lon="-122.590159"/>
</trkseg>
<trkseg>
<trkpt lat="49.173019" lon="-122.590792"/>
<trkpt lat="49.172863" lon="-122.590507"/>
<trkpt lat="49.172771" lon="-122.590341"/>
<trkpt lat="49.172688" lon="-122.590190"/>
</trkseg>
<trkseg>
<trkpt lat="49.168681" lon="-122.580720"/>
<trkpt lat="49.168240" lon="-122.580124"/>
</trkseg>
<trkseg>
<trkpt lat="49.168240" lon="-122.580124"/>
<trkpt lat="49.167103" lon="-122.581348"/>
<trkpt lat="49.163191" lon="-122.585422"/>
<trkpt lat="49.162698" lon="-122.585939"/>
<trkpt lat="49.162464" lon="-122.586211"/>
<trkpt lat="49.162136" lon="-122.586547"/>
<trkpt lat="49.159921" lon="-122.589442"/>
<trkpt lat="49.159683" lon="-122.589699"/>
<trkpt lat="49.158460" lon="-122.590695"/>
<trkpt lat="49.154082" lon="-122.590945"/>
<trkpt lat="49.153184" lon="-122.590921"/>
<trkpt lat="49.152362" lon="-122.591284"/>
<trkpt lat="49.149977" lon="-122.594449"/>
</trkseg>
<trkseg>
<trkpt lat="49.149977" lon="-122.594449"/>
<trkpt lat="49.151226" lon="-122.599337"/>
<trkpt lat="49.152487" lon="-122.604286"/>
<trkpt lat="49.152788" lon="-122.607285"/>
<trkpt lat="49.155605" lon="-122.616442"/>
<trkpt lat="49.156217" lon="-122.619935"/>
<trkpt lat="49.157129" lon="-122.623082"/>
<trkpt lat="49.157331" lon="-122.623954"/>
</trkseg>
<trkseg>
<trkpt lat="49.157331" lon="-122.623954"/>
<trkpt lat="49.157346" lon="-122.624095"/>
</trkseg>
<trkseg>
<trkpt lat="49.157346" lon="-122.624095"/>
<trkpt lat="49.157094" lon="-122.624100"/>
<trkpt lat="49.154869" lon="-122.624080"/>
<trkpt lat="49.154472" lon="-122.624085"/>
<trkpt lat="49.154324" lon="-122.624088"/>
<trkpt lat="49.153713" lon="-122.624133"/>
<trkpt lat="49.153286" lon="-122.624174"/>
<trkpt lat="49.153038" lon="-122.624187"/>
<trkpt lat="49.152640" lon="-122.624197"/>
<trkpt lat="49.151930" lon="-122.624233"/>
<trkpt lat="49.151623" lon="-122.624242"/>
<trkpt lat="49.151267" lon="-122.624256"/>
<trkpt lat="49.150363" lon="-122.624261"/>
<trkpt lat="49.149579" lon="-122.624266"/>
<trkpt lat="49.148072" lon="-122.624262"/>
<trkpt lat="49.147438" lon="-122.624197"/>
</trkseg>
<trkseg>
<trkpt lat="49.147438" lon="-122.624197"/>
<trkpt lat="49.148091" lon="-122.614745"/>
<trkpt lat="49.147990" lon="-122.613030"/>
<trkpt lat="49.147637" lon="-122.611562"/>
<trkpt lat="49.145854" lon="-122.607101"/>
<trkpt lat="49.144640" lon="-122.606003"/>
<trkpt lat="49.144002" lon="-122.605335"/>
<trkpt lat="49.143009" lon="-122.603526"/>
</trkseg>
<trkseg>
<trkpt lat="49.143009" lon="-122.603526"/>
<trkpt lat="49.142731" lon="-122.603052"/>
</trkseg>
<trkseg>
<trkpt lat="49.142731" lon="-122.603052"/>
<trkpt lat="49.142634" lon="-122.603054"/>
</trkseg>
<trkseg>
<trkpt lat="49.142634" lon="-122.603054"/>
<trkpt lat="49.142369" lon="-122.603324"/>
<trkpt lat="49.142532" lon="-122.602900"/>
</trkseg>
<trkseg>
<trkpt lat="49.142532" lon="-122.602900"/>
<trkpt lat="49.142634" lon="-122.603054"/>
</trkseg>
<trkseg>
<trkpt lat="49.142731" lon="-122.603052"/>
<trkpt lat="49.142830" lon="-122.602900"/>
</trkseg>
<trkseg>
<trkpt lat="49.142830" lon="-122.602900"/>
<trkpt lat="49.143009" lon="-122.603526"/>
</trkseg>
<trkseg>
<trkpt lat="49.142913" lon="-122.603071"/>
<trkpt lat="49.142786" lon="-122.603206"/>
<trkpt lat="49.143949" lon="-122.605396"/>
<trkpt lat="49.144552" lon="-122.606041"/>
<trkpt lat="49.144686" lon="-122.606140"/>
<trkpt lat="49.145724" lon="-122.607041"/>
<trkpt lat="49.146624" lon="-122.609194"/>
<trkpt lat="49.146702" lon="-122.609385"/>
<trkpt lat="49.147701" lon="-122.612134"/>
<trkpt lat="49.148000" lon="-122.614126"/>
<trkpt lat="49.147359" lon="-122.624038"/>
</trkseg>
<trkseg>
<trkpt lat="49.147359" lon="-122.624038"/>
<trkpt lat="49.147350" lon="-122.624350"/>
<trkpt lat="49.147548" lon="-122.624406"/>
</trkseg>
<trkseg>
<trkpt lat="49.147548" lon="-122.624406"/>
<trkpt lat="49.147576" lon="-122.624004"/>
</trkseg>
<trkseg>
<trkpt lat="49.147576" lon="-122.624004"/>
<trkpt lat="49.147359" lon="-122.624038"/>
</trkseg>
<trkseg>
<trkpt lat="49.147438" lon="-122.624197"/>
<trkpt lat="49.150698" lon="-122.624050"/>
<trkpt lat="49.151207" lon="-122.624035"/>
<trkpt lat="49.151604" lon="-122.624036"/>
<trkpt lat="49.151903" lon="-122.624021"/>
<trkpt lat="49.152584" lon="-122.624001"/>
<trkpt lat="49.153025" lon="-122.623975"/>
<trkpt lat="49.153238" lon="-122.623959"/>
<trkpt lat="49.153858" lon="-122.623953"/>
<trkpt lat="49.154470" lon="-122.623935"/>
<trkpt lat="49.154679" lon="-122.623931"/>
<trkpt lat="49.156572" lon="-122.623960"/>
<trkpt lat="49.157160" lon="-122.623956"/>
</trkseg>
<trkseg>
<trkpt lat="49.157160" lon="-122.623956"/>
<trkpt lat="49.157391" lon="-122.623888"/>
<trkpt lat="49.157415" lon="-122.623838"/>
</trkseg>
<trkseg>
<trkpt lat="49.157462" lon="-122.623855"/>
<trkpt lat="49.157460" lon="-122.624198"/>
</trkseg>
<trkseg>
<trkpt lat="49.157460" lon="-122.624198"/>
<trkpt lat="49.161797" lon="-122.624237"/>
<trkpt lat="49.161801" lon="-122.624223"/>
</trkseg>
<trkseg>
<trkpt lat="49.161855" lon="-122.624120"/>
<trkpt lat="49.160619" lon="-122.624131"/>
<trkpt lat="49.160531" lon="-122.624058"/>
</trkseg>
<trkseg>
<trkpt lat="49.160531" lon="-122.624058"/>
<trkpt lat="49.159507" lon="-122.624065"/>
</trkseg>
<trkseg>
<trkpt lat="49.159507" lon="-122.624065"/>
<trkpt lat="49.159440" lon="-122.624135"/>
<trkpt lat="49.158179" lon="-122.624123"/>
<trkpt lat="49.157346" lon="-122.624095"/>
</trkseg>
<trkseg>
<trkpt lat="49.157331" lon="-122.623954"/>
<trkpt lat="49.159437" lon="-122.623998"/>
<trkpt lat="49.159507" lon="-122.624065"/>
</trkseg>
<trkseg>
<trkpt lat="49.159401" lon="-122.624227"/>
<trkpt lat="49.160039" lon="-122.626679"/>
<trkpt lat="49.160092" lon="-122.626839"/>
<trkpt lat="49.160297" lon="-122.628019"/>
<trkpt lat="49.160308" lon="-122.628055"/>
<trkpt lat="49.160650" lon="-122.628619"/>
<trkpt lat="49.161414" lon="-122.631590"/>
<trkpt lat="49.161445" lon="-122.631715"/>
<trkpt lat="49.161826" lon="-122.632840"/>
</trkseg>
<trkseg>
<trkpt lat="49.163043" lon="-122.634916"/>
<trkpt lat="49.163466" lon="-122.635683"/>
<trkpt lat="49.164431" lon="-122.639180"/>
<trkpt lat="49.164615" lon="-122.640188"/>
</trkseg>
<trkseg>
<trkpt lat="49.164615" lon="-122.640188"/>
<trkpt lat="49.164614" lon="-122.640251"/>
<trkpt lat="49.164613" lon="-122.640456"/>
<trkpt lat="49.164801" lon="-122.640779"/>
<trkpt lat="49.165301" lon="-122.642098"/>
<trkpt lat="49.165876" lon="-122.642833"/>
<trkpt lat="49.165874" lon="-122.643954"/>
<trkpt lat="49.165983" lon="-122.644499"/>
<trkpt lat="49.165996" lon="-122.644552"/>
</trkseg>
<trkseg>
<trkpt lat="49.165915" lon="-122.644630"/>
<trkpt lat="49.166001" lon="-122.645653"/>
<trkpt lat="49.165882" lon="-122.645654"/>
</trkseg>
<trkseg>
<trkpt lat="49.165972" lon="-122.645652"/>
<trkpt lat="49.165969" lon="-122.645977"/>
<trkpt lat="49.166158" lon="-122.645964"/>
<trkpt lat="49.166967" lon="-122.650338"/>
<trkpt lat="49.167383" lon="-122.651326"/>
<trkpt lat="49.168273" lon="-122.651334"/>
<trkpt lat="49.168274" lon="-122.651421"/>
<trkpt lat="49.168284" lon="-122.653908"/>
<trkpt lat="49.168567" lon="-122.654367"/>
<trkpt lat="49.168380" lon="-122.654901"/>
<trkpt lat="49.168204" lon="-122.655172"/>
<trkpt lat="49.168262" lon="-122.657024"/>
<trkpt lat="49.168259" lon="-122.657146"/>
<trkpt lat="49.168184" lon="-122.658201"/>
<trkpt lat="49.167872" lon="-122.658754"/>
<trkpt lat="49.166770" lon="-122.659299"/>
<trkpt lat="49.166677" lon="-122.662282"/>
<trkpt lat="49.166899" lon="-122.662362"/>
</trkseg>
<trkseg>
<trkpt lat="49.168552" lon="-122.662286"/>
<trkpt lat="49.168507" lon="-122.662389"/>
<trkpt lat="49.168502" lon="-122.662705"/>
<trkpt lat="49.168725" lon="-122.662714"/>
<trkpt lat="49.168725" lon="-122.662395"/>
<trkpt lat="49.168731" lon="-122.662307"/>
</trkseg>
<trkseg>
<trkpt lat="49.164612" lon="-122.660977"/>
<trkpt lat="49.164445" lon="-122.661156"/>
<trkpt lat="49.164336" lon="-122.660933"/>
<trkpt lat="49.164521" lon="-122.660735"/>
</trkseg>
<trkseg>
<trkpt lat="49.162986" lon="-122.659614"/>
<trkpt lat="49.162717" lon="-122.659610"/>
</trkseg>
<trkseg>
<trkpt lat="49.161936" lon="-122.660058"/>
<trkpt lat="49.161877" lon="-122.659903"/>
</trkseg>
<trkseg>
<trkpt lat="49.161877" lon="-122.659903"/>
<trkpt lat="49.162765" lon="-122.659740"/>
<trkpt lat="49.162872" lon="-122.659742"/>
<trkpt lat="49.163681" lon="-122.659819"/>
<trkpt lat="49.164170" lon="-122.660232"/>
<trkpt lat="49.164523" lon="-122.660902"/>
<trkpt lat="49.165514" lon="-122.662274"/>
<trkpt lat="49.168617" lon="-122.662474"/>
<trkpt lat="49.170822" lon="-122.663023"/>
<trkpt lat="49.172081" lon="-122.663108"/>
<trkpt lat="49.172840" lon="-122.663551"/>
<trkpt lat="49.174132" lon="-122.665119"/>
<trkpt lat="49.174263" lon="-122.665390"/>
</trkseg>
<trkseg>
<trkpt lat="49.175534" lon="-122.646112"/>
<trkpt lat="49.175493" lon="-122.632297"/>
<trkpt lat="49.175516" lon="-122.632162"/>
<trkpt lat="49.175452" lon="-122.630964"/>
<trkpt lat="49.175451" lon="-122.630814"/>
<trkpt lat="49.175554" lon="-122.627464"/>
<trkpt lat="49.175553" lon="-122.627212"/>
<trkpt lat="49.175482" lon="-122.624107"/>
<trkpt lat="49.175477" lon="-122.623858"/>
<trkpt lat="49.175418" lon="-122.623831"/>
<trkpt lat="49.175407" lon="-122.621268"/>
<trkpt lat="49.175441" lon="-122.621218"/>
<trkpt lat="49.175613" lon="-122.620911"/>
<trkpt lat="49.175402" lon="-122.618892"/>
<trkpt lat="49.175625" lon="-122.617797"/>
<trkpt lat="49.176945" lon="-122.617667"/>
</trkseg>
<trkseg>
<trkpt lat="49.175012" lon="-122.629747"/>
<trkpt lat="49.175088" lon="-122.630892"/>
</trkseg>
<trkseg>
<trkpt lat="49.173817" lon="-122.635159"/>
<trkpt lat="49.173750" lon="-122.636685"/>
<trkpt lat="49.173518" lon="-122.636747"/>
<trkpt lat="49.173518" lon="-122.638900"/>
</trkseg>
<trkseg>
<trkpt lat="49.173518" lon="-122.638900"/>
<trkpt lat="49.174062" lon="-122.638936"/>
<trkpt lat="49.174326" lon="-122.638950"/>
</trkseg>
<trkseg>
<trkpt lat="49.174326" lon="-122.638950"/>
<trkpt lat="49.175993" lon="-122.639061"/>
</trkseg>
<trkseg>
<trkpt lat="49.175993" lon="-122.639061"/>
<trkpt lat="49.176947" lon="-122.639123"/>
</trkseg>
<trkseg>
<trkpt lat="49.176947" lon="-122.639123"/>
<trkpt lat="49.175993" lon="-122.639061"/>
</trkseg>
<trkseg>
<trkpt lat="49.175993" lon="-122.639061"/>
<trkpt lat="49.174326" lon="-122.638950"/>
</trkseg>
<trkseg>
<trkpt lat="49.173518" lon="-122.638900"/>
<trkpt lat="49.172896" lon="-122.638859"/>
<trkpt lat="49.172523" lon="-122.638835"/>
<trkpt lat="49.171722" lon="-122.638783"/>
<trkpt lat="49.170977" lon="-122.638733"/>
<trkpt lat="49.170362" lon="-122.638700"/>
<trkpt lat="49.169416" lon="-122.638633"/>
<trkpt lat="49.168779" lon="-122.638493"/>
<trkpt lat="49.168646" lon="-122.638144"/>
</trkseg>
<trkseg>
<trkpt lat="49.168603" lon="-122.638174"/>
<trkpt lat="49.168277" lon="-122.638423"/>
<trkpt lat="49.168775" lon="-122.639415"/>
<trkpt lat="49.168733" lon="-122.639890"/>
</trkseg>
<trkseg>
<trkpt lat="49.168733" lon="-122.639890"/>
<trkpt lat="49.168901" lon="-122.640158"/>
<trkpt lat="49.168425" lon="-122.641430"/>
<trkpt lat="49.167265" lon="-122.640330"/>
</trkseg>
<trkseg>
<trkpt lat="49.167146" lon="-122.640245"/>
<trkpt lat="49.165893" lon="-122.639414"/>
</trkseg>
<trkseg>
<trkpt lat="49.166233" lon="-122.638208"/>
<trkpt lat="49.167276" lon="-122.638799"/>
<trkpt lat="49.167356" lon="-122.639464"/>
</trkseg>
<trkseg>
<trkpt lat="49.167316" lon="-122.640032"/>
<trkpt lat="49.167195" lon="-122.640316"/>
<trkpt lat="49.167316" lon="-122.640032"/>
</trkseg>
<trkseg>
<trkpt lat="49.167276" lon="-122.638799"/>
<trkpt lat="49.168733" lon="-122.639890"/>
</trkseg>
<trkseg>
<trkpt lat="49.171319" lon="-122.644162"/>
<trkpt lat="49.170892" lon="-122.644207"/>
<trkpt lat="49.170556" lon="-122.643524"/>
<trkpt lat="49.170443" lon="-122.642487"/>
<trkpt lat="49.169556" lon="-122.643437"/>
<trkpt lat="49.169321" lon="-122.643300"/>
<trkpt lat="49.168757" lon="-122.643786"/>
<trkpt lat="49.167613" lon="-122.643900"/>
<trkpt lat="49.165744" lon="-122.644656"/>
<trkpt lat="49.164196" lon="-122.644143"/>
<trkpt lat="49.163610" lon="-122.643287"/>
<trkpt lat="49.162735" lon="-122.642857"/>
</trkseg>
<trkseg>
<trkpt lat="49.164615" lon="-122.640188"/>
<trkpt lat="49.163398" lon="-122.635688"/>
<trkpt lat="49.163018" lon="-122.635048"/>
</trkseg>
<trkseg>
<trkpt lat="49.161858" lon="-122.623979"/>
<trkpt lat="49.160871" lon="-122.623989"/>
<trkpt lat="49.160620" lon="-122.623988"/>
<trkpt lat="49.160531" lon="-122.624058"/>
</trkseg>
<trkseg>
<trkpt lat="49.159354" lon="-122.624225"/>
<trkpt lat="49.159355" lon="-122.624185"/>
<trkpt lat="49.159354" lon="-122.624101"/>
<trkpt lat="49.159290" lon="-122.624050"/>
<trkpt lat="49.159290" lon="-122.623958"/>
<trkpt lat="49.159290" lon="-122.623908"/>
</trkseg>
<trkseg>
<trkpt lat="49.157460" lon="-122.624198"/>
<trkpt lat="49.157257" lon="-122.624196"/>
</trkseg>
<trkseg>
<trkpt lat="49.157257" lon="-122.624196"/>
<trkpt lat="49.154453" lon="-122.624216"/>
<trkpt lat="49.153174" lon="-122.624386"/>
<trkpt lat="49.153121" lon="-122.624296"/>
<trkpt lat="49.153083" lon="-122.624296"/>
<trkpt lat="49.153007" lon="-122.624300"/>
<trkpt lat="49.152659" lon="-122.624292"/>
<trkpt lat="49.151931" lon="-122.624325"/>
<trkpt lat="49.151682" lon="-122.624338"/>
<trkpt lat="49.151584" lon="-122.624356"/>
<trkpt lat="49.151532" lon="-122.624378"/>
<trkpt lat="49.151485" lon="-122.624492"/>
<trkpt lat="49.147548" lon="-122.624406"/>
</trkseg>
<trkseg>
<trkpt lat="49.147576" lon="-122.624004"/>
<trkpt lat="49.151443" lon="-122.623811"/>
<trkpt lat="49.151499" lon="-122.623900"/>
<trkpt lat="49.151546" lon="-122.623918"/>
<trkpt lat="49.151629" lon="-122.623913"/>
<trkpt lat="49.151819" lon="-122.623930"/>
<trkpt lat="49.152553" lon="-122.623892"/>
<trkpt lat="49.152973" lon="-122.623844"/>
<trkpt lat="49.153058" lon="-122.623840"/>
<trkpt lat="49.153096" lon="-122.623831"/>
<trkpt lat="49.153167" lon="-122.623760"/>
<trkpt lat="49.154421" lon="-122.623806"/>
<trkpt lat="49.154531" lon="-122.623804"/>
<trkpt lat="49.157190" lon="-122.623830"/>
</trkseg>
<trkseg>
<trkpt lat="49.157190" lon="-122.623830"/>
<trkpt lat="49.157257" lon="-122.624196"/>
</trkseg>
<trkseg>
<trkpt lat="49.157331" lon="-122.623954"/>
<trkpt lat="49.157160" lon="-122.623956"/>
</trkseg>
<trkseg>
<trkpt lat="49.157190" lon="-122.623830"/>
<trkpt lat="49.157398" lon="-122.623828"/>
<trkpt lat="49.161794" lon="-122.623872"/>
<trkpt lat="49.161799" lon="-122.623884"/>
</trkseg>
<trkseg>
<trkpt lat="49.153107" lon="-122.624296"/>
<trkpt lat="49.153104" lon="-122.624250"/>
<trkpt lat="49.153081" lon="-122.623887"/>
<trkpt lat="49.153077" lon="-122.623838"/>
</trkseg>
<trkseg>
<trkpt lat="49.151530" lon="-122.623919"/>
<trkpt lat="49.151531" lon="-122.623954"/>
<trkpt lat="49.151540" lon="-122.624321"/>
<trkpt lat="49.151542" lon="-122.624358"/>
</trkseg>
<trkseg>
<trkpt lat="49.152804" lon="-122.637033"/>
<trkpt lat="49.152823" lon="-122.637842"/>
</trkseg>
<trkseg>
<trkpt lat="49.152804" lon="-122.637033"/>
<trkpt lat="49.152805" lon="-122.636999"/>
<trkpt lat="49.152804" lon="-122.636925"/>
<trkpt lat="49.152730" lon="-122.635024"/>
<trkpt lat="49.152724" lon="-122.634881"/>
<trkpt lat="49.152656" lon="-122.632611"/>
<trkpt lat="49.153295" lon="-122.632367"/>
<trkpt lat="49.153780" lon="-122.631813"/>
<trkpt lat="49.155042" lon="-122.636460"/>
<trkpt lat="49.155050" lon="-122.637039"/>
<trkpt lat="49.154647" lon="-122.637046"/>
</trkseg>
<trkseg>
<trkpt lat="49.154647" lon="-122.637046"/>
<trkpt lat="49.154703" lon="-122.637455"/>
<trkpt lat="49.155180" lon="-122.637484"/>
<trkpt lat="49.155487" lon="-122.638577"/>
<trkpt lat="49.155728" lon="-122.642371"/>
<trkpt lat="49.156407" lon="-122.642735"/>
<trkpt lat="49.156636" lon="-122.642642"/>
<trkpt lat="49.157600" lon="-122.646173"/>
</trkseg>
<trkseg>
<trkpt lat="49.157351" lon="-122.645256"/>
<trkpt lat="49.156450" lon="-122.645595"/>
</trkseg>
<trkseg>
<trkpt lat="49.156465" lon="-122.646040"/>
<trkpt lat="49.157600" lon="-122.646173"/>
<trkpt lat="49.157874" lon="-122.647129"/>
<trkpt lat="49.157884" lon="-122.647261"/>
<trkpt lat="49.157892" lon="-122.647659"/>
<trkpt lat="49.158853" lon="-122.651272"/>
<trkpt lat="49.159023" lon="-122.651501"/>
<trkpt lat="49.159514" lon="-122.653298"/>
</trkseg>
<trkseg>
<trkpt lat="49.159647" lon="-122.654085"/>
<trkpt lat="49.159550" lon="-122.654539"/>
<trkpt lat="49.159835" lon="-122.654739"/>
<trkpt lat="49.160376" lon="-122.656857"/>
</trkseg>
<trkseg>
<trkpt lat="49.160668" lon="-122.658329"/>
<trkpt lat="49.160804" lon="-122.658250"/>
<trkpt lat="49.161160" lon="-122.659599"/>
<trkpt lat="49.161559" lon="-122.661088"/>
<trkpt lat="49.161370" lon="-122.660536"/>
</trkseg>
<trkseg>
<trkpt lat="49.161370" lon="-122.660536"/>
<trkpt lat="49.161691" lon="-122.661389"/>
</trkseg>
<trkseg>
<trkpt lat="49.161738" lon="-122.660200"/>
<trkpt lat="49.161703" lon="-122.660000"/>
</trkseg>
<trkseg>
<trkpt lat="49.161703" lon="-122.660000"/>
<trkpt lat="49.160261" lon="-122.660873"/>
<trkpt lat="49.159194" lon="-122.661551"/>
</trkseg>
<trkseg>
<trkpt lat="49.159194" lon="-122.661551"/>
<trkpt lat="49.159177" lon="-122.660617"/>
</trkseg>
<trkseg>
<trkpt lat="49.159177" lon="-122.660617"/>
<trkpt lat="49.159194" lon="-122.661551"/>
</trkseg>
<trkseg>
<trkpt lat="49.159177" lon="-122.660617"/>
<trkpt lat="49.159175" lon="-122.660296"/>
<trkpt lat="49.159170" lon="-122.659582"/>
<trkpt lat="49.159133" lon="-122.655899"/>
<trkpt lat="49.158291" lon="-122.653009"/>
</trkseg>
<trkseg>
<trkpt lat="49.159077" lon="-122.660208"/>
<trkpt lat="49.159254" lon="-122.660179"/>
</trkseg>
<trkseg>
<trkpt lat="49.161703" lon="-122.660000"/>
<trkpt lat="49.161714" lon="-122.659965"/>
<trkpt lat="49.161841" lon="-122.659881"/>
<trkpt lat="49.161877" lon="-122.659903"/>
</trkseg>
<trkseg>
<trkpt lat="49.154647" lon="-122.637046"/>
<trkpt lat="49.152804" lon="-122.637033"/>
</trkseg>
<trkseg>
<trkpt lat="49.142565" lon="-122.603206"/>
<trkpt lat="49.142449" lon="-122.603042"/>
</trkseg>
<trkseg>
<trkpt lat="49.142532" lon="-122.602900"/>
<trkpt lat="49.142533" lon="-122.602750"/>
<trkpt lat="49.142666" lon="-122.602588"/>
<trkpt lat="49.142735" lon="-122.602602"/>
</trkseg>
<trkseg>
<trkpt lat="49.142735" lon="-122.602602"/>
<trkpt lat="49.142831" lon="-122.602758"/>
</trkseg>
<trkseg>
<trkpt lat="49.142831" lon="-122.602758"/>
<trkpt lat="49.142830" lon="-122.602900"/>
</trkseg>
<trkseg>
<trkpt lat="49.142831" lon="-122.602758"/>
<trkpt lat="49.142990" lon="-122.602374"/>
</trkseg>
<trkseg>
<trkpt lat="49.142990" lon="-122.602374"/>
<trkpt lat="49.142735" lon="-122.602602"/>
</trkseg>
<trkseg>
<trkpt lat="49.142810" lon="-122.602454"/>
<trkpt lat="49.142921" lon="-122.602635"/>
</trkseg>
<trkseg>
<trkpt lat="49.142990" lon="-122.602374"/>
<trkpt lat="49.143399" lon="-122.601982"/>
<trkpt lat="49.143777" lon="-122.601624"/>
<trkpt lat="49.144502" lon="-122.600893"/>
<trkpt lat="49.144889" lon="-122.600456"/>
<trkpt lat="49.149977" lon="-122.594449"/>
</trkseg>
<trkseg>
<trkpt lat="49.168240" lon="-122.580124"/>
<trkpt lat="49.168365" lon="-122.579989"/>
</trkseg>
<trkseg>
<trkpt lat="49.168365" lon="-122.579989"/>
<trkpt lat="49.168565" lon="-122.580451"/>
</trkseg>
<trkseg>
<trkpt lat="49.168565" lon="-122.580451"/>
<trkpt lat="49.168681" lon="-122.580720"/>
</trkseg>
<trkseg>
<trkpt lat="49.168365" lon="-122.579989"/>
<trkpt lat="49.169963" lon="-122.578237"/>
</trkseg>
<trkseg>
<trkpt lat="49.169963" lon="-122.578237"/>
<trkpt lat="49.170266" lon="-122.577898"/>
</trkseg>
<trkseg>
<trkpt lat="49.170266" lon="-122.577898"/>
<trkpt lat="49.170467" lon="-122.577681"/>
<trkpt lat="49.170745" lon="-122.577372"/>
</trkseg>
<trkseg>
<trkpt lat="49.165539" lon="-122.554755"/>
<trkpt lat="49.165256" lon="-122.543602"/>
<trkpt lat="49.164808" lon="-122.538327"/>
<trkpt lat="49.163899" lon="-122.534735"/>
<trkpt lat="49.162327" lon="-122.531129"/>
</trkseg>
<trkseg>
<trkpt lat="49.096621" lon="-122.492837"/>
<trkpt lat="49.096390" lon="-122.481025"/>
<trkpt lat="49.092405" lon="-122.470918"/>
<trkpt lat="49.091770" lon="-122.470450"/>
<trkpt lat="49.089360" lon="-122.470382"/>
<trkpt lat="49.082508" lon="-122.470916"/>
</trkseg>
<trkseg>
<trkpt lat="49.082435" lon="-122.470922"/>
<trkpt lat="49.060488" lon="-122.470704"/>
<trkpt lat="49.058040" lon="-122.470706"/>
<trkpt lat="49.055609" lon="-122.470695"/>
<trkpt lat="49.053548" lon="-122.470687"/>
<trkpt lat="49.053129" lon="-122.470675"/>
<trkpt lat="49.036351" lon="-122.470679"/>
<trkpt lat="49.035999" lon="-122.470679"/>
<trkpt lat="49.031422" lon="-122.470682"/>
<trkpt lat="49.016920" lon="-122.470718"/>
<trkpt lat="49.014433" lon="-122.470768"/>
<trkpt lat="49.014213" lon="-122.471201"/>
<trkpt lat="49.014181" lon="-122.472932"/>
<trkpt lat="49.013949" lon="-122.473297"/>
<trkpt lat="49.002309" lon="-122.473346"/>
</trkseg>
<trkseg>
<trkpt lat="49.002302" lon="-122.481364"/>
<trkpt lat="49.002332" lon="-122.481694"/>
<trkpt lat="49.002534" lon="-122.481786"/>
<trkpt lat="49.003103" lon="-122.481830"/>
<trkpt lat="49.003178" lon="-122.482541"/>
<trkpt lat="49.003193" lon="-122.483843"/>
<trkpt lat="49.003814" lon="-122.484505"/>
<trkpt lat="49.003837" lon="-122.484576"/>
</trkseg>
<trkseg>
<trkpt lat="49.002273" lon="-122.558953"/>
<trkpt lat="49.009115" lon="-122.559773"/>
<trkpt lat="49.030615" lon="-122.559620"/>
<trkpt lat="49.059880" lon="-122.559437"/>
<trkpt lat="49.073951" lon="-122.559189"/>
</trkseg>
<trkseg>
<trkpt lat="49.074356" lon="-122.559177"/>
<trkpt lat="49.074226" lon="-122.558741"/>
<trkpt lat="49.074054" lon="-122.558127"/>
<trkpt lat="49.070201" lon="-122.540543"/>
<trkpt lat="49.069966" lon="-122.539452"/>
</trkseg>
<trkseg>
<trkpt lat="49.069966" lon="-122.539452"/>
<trkpt lat="49.069613" lon="-122.538047"/>
<trkpt lat="49.069359" lon="-122.536906"/>
<trkpt lat="49.068863" lon="-122.534375"/>
</trkseg>
<trkseg>
<trkpt lat="49.068863" lon="-122.534375"/>
<trkpt lat="49.069226" lon="-122.535891"/>
<trkpt lat="49.069387" lon="-122.536649"/>
<trkpt lat="49.069441" lon="-122.536903"/>
</trkseg>
<trkseg>
<trkpt lat="49.069441" lon="-122.536903"/>
<trkpt lat="49.069966" lon="-122.539452"/>
</trkseg>
<trkseg>
<trkpt lat="49.069441" lon="-122.536903"/>
<trkpt lat="49.074425" lon="-122.536926"/>
<trkpt lat="49.079198" lon="-122.536881"/>
</trkseg>
<trkseg>
<trkpt lat="49.068863" lon="-122.534375"/>
<trkpt lat="49.066027" lon="-122.521173"/>
<trkpt lat="49.064731" lon="-122.515992"/>
<trkpt lat="49.064609" lon="-122.515558"/>
<trkpt lat="49.064392" lon="-122.514798"/>
<trkpt lat="49.063692" lon="-122.512411"/>
<trkpt lat="49.062287" lon="-122.507372"/>
<trkpt lat="49.061582" lon="-122.503953"/>
<trkpt lat="49.061505" lon="-122.503573"/>
<trkpt lat="49.061283" lon="-122.502462"/>
<trkpt lat="49.060936" lon="-122.500740"/>
<trkpt lat="49.060078" lon="-122.496382"/>
<trkpt lat="49.060039" lon="-122.496131"/>
<trkpt lat="49.059991" lon="-122.495825"/>
</trkseg>
<trkseg>
<trkpt lat="49.059991" lon="-122.495825"/>
<trkpt lat="49.059834" lon="-122.495090"/>
<trkpt lat="49.059687" lon="-122.494109"/>
<trkpt lat="49.059645" lon="-122.493787"/>
<trkpt lat="49.059502" lon="-122.492700"/>
<trkpt lat="49.059586" lon="-122.492697"/>
</trkseg>
<trkseg>
<trkpt lat="49.059586" lon="-122.492697"/>
<trkpt lat="49.059772" lon="-122.494016"/>
<trkpt lat="49.059991" lon="-122.495825"/>
</trkseg>
<trkseg>
<trkpt lat="49.060314" lon="-122.492692"/>
<trkpt lat="49.059963" lon="-122.492688"/>
<trkpt lat="49.059653" lon="-122.492695"/>
</trkseg>
<trkseg>
<trkpt lat="49.059653" lon="-122.492695"/>
<trkpt lat="49.059586" lon="-122.492697"/>
</trkseg>
<trkseg>
<trkpt lat="49.059586" lon="-122.492697"/>
<trkpt lat="49.059653" lon="-122.492695"/>
</trkseg>
<trkseg>
<trkpt lat="49.059653" lon="-122.492695"/>
<trkpt lat="49.059628" lon="-122.492613"/>
<trkpt lat="49.059621" lon="-122.492586"/>
</trkseg>
<trkseg>
<trkpt lat="49.059621" lon="-122.492586"/>
<trkpt lat="49.059607" lon="-122.492585"/>
<trkpt lat="49.059573" lon="-122.492586"/>
<trkpt lat="49.059586" lon="-122.492697"/>
</trkseg>
<trkseg>
<trkpt lat="49.059621" lon="-122.492586"/>
<trkpt lat="49.059633" lon="-122.492566"/>
<trkpt lat="49.059654" lon="-122.492528"/>
<trkpt lat="49.059667" lon="-122.492504"/>
<trkpt lat="49.059676" lon="-122.492487"/>
<trkpt lat="49.060316" lon="-122.492550"/>
</trkseg>
<trkseg>
<trkpt lat="49.079817" lon="-122.574542"/>
<trkpt lat="49.080143" lon="-122.575312"/>
</trkseg>
<trkseg>
<trkpt lat="49.080143" lon="-122.575312"/>
<trkpt lat="49.080611" lon="-122.576627"/>
</trkseg>
<trkseg>
<trkpt lat="49.080611" lon="-122.576627"/>
<trkpt lat="49.081532" lon="-122.579209"/>
<trkpt lat="49.081922" lon="-122.580277"/>
<trkpt lat="49.082286" lon="-122.581363"/>
<trkpt lat="49.082522" lon="-122.582014"/>
<trkpt lat="49.082756" lon="-122.582655"/>
<trkpt lat="49.083158" lon="-122.583961"/>
</trkseg>
<trkseg>
<trkpt lat="49.083158" lon="-122.583961"/>
<trkpt lat="49.085889" lon="-122.591623"/>
</trkseg>
<trkseg>
<trkpt lat="49.088576" lon="-122.599182"/>
<trkpt lat="49.089121" lon="-122.600547"/>
<trkpt lat="49.089557" lon="-122.601738"/>
</trkseg>
<trkseg>
<trkpt lat="49.089557" lon="-122.601738"/>
<trkpt lat="49.089438" lon="-122.601820"/>
</trkseg>
<trkseg>
<trkpt lat="49.089438" lon="-122.601820"/>
<trkpt lat="49.089488" lon="-122.601962"/>
</trkseg>
<trkseg>
<trkpt lat="49.080611" lon="-122.576627"/>
<trkpt lat="49.080143" lon="-122.575312"/>
</trkseg>
</trk>
</gpx>