<?xml version="1.0" encoding="UTF-8"?>
<gpx version="1.1" creator="We Welcome Cyclists (bccycletourism.ca)" xmlns="http://www.topografix.com/GPX/1/1">
<metadata>
<name>Sea to Sky Trail</name>
<link href="https://bccycletourism.ca/trail/sea-to-sky-trail/"><text>We Welcome Cyclists</text></link>
</metadata>
<wpt lat="50.039954" lon="-123.103010">
<name>Whistler Bungee</name>
<cmt>viewpoint</cmt>
<desc>Activity / Experience</desc>
<sym>Dot</sym>
<type>overlook</type>
</wpt>
<wpt lat="50.096152" lon="-122.996551">
<name>Nita Lake Lodge</name>
<cmt>lodging</cmt>
<desc>Hotel / Motel</desc>
<sym>Dot</sym>
<type>shelter</type>
</wpt>
<wpt lat="50.061627" lon="-123.098575">
<name>Cal Cheak Central Camp</name>
<cmt>camping</cmt>
<desc>Private Campground</desc>
<sym>Dot</sym>
<type>campsite</type>
</wpt>
<wpt lat="50.059856" lon="-123.099673">
<name>Cal Cheak South Camp</name>
<cmt>camping</cmt>
<desc>Public Campground</desc>
<sym>Dot</sym>
<type>campsite</type>
</wpt>
<wpt lat="50.113965" lon="-122.957639">
<name>Aava Hotel</name>
<cmt>lodging</cmt>
<desc>Hotel / Motel</desc>
<sym>Dot</sym>
<type>shelter</type>
</wpt>
<wpt lat="50.065095" lon="-123.100656">
<name>Cal Cheak Callaghan Camp</name>
<cmt>camping</cmt>
<desc>Public Campground</desc>
<sym>Dot</sym>
<type>campsite</type>
</wpt>
<wpt lat="50.114514" lon="-122.957156">
<name>The Core</name>
<cmt>rest_stop</cmt>
<desc>Community Centre</desc>
<sym>Dot</sym>
<type>rest_area</type>
</wpt>
<wpt lat="50.114176" lon="-122.956965">
<name>StonesEdge</name>
<cmt>food</cmt>
<desc>Restaurant</desc>
<sym>Dot</sym>
<type>food</type>
</wpt>
<wpt lat="50.114341" lon="-122.956868">
<name>Buffalo Bill's</name>
<cmt>bar</cmt>
<desc>Brewery / Pub</desc>
<sym>Dot</sym>
<type>food</type>
</wpt>
<wpt lat="50.114049" lon="-122.956769">
<name>Fat Tony's Pizza</name>
<cmt>food</cmt>
<desc>Fast Food / Chain</desc>
<sym>Dot</sym>
<type>food</type>
</wpt>
<wpt lat="50.111520" lon="-122.960300">
<name>Tantalus Resort Lodge</name>
<cmt>lodging</cmt>
<desc>Resort</desc>
<sym>Dot</sym>
<type>shelter</type>
</wpt>
<wpt lat="50.113762" lon="-122.956949">
<name>Bearfoot Bistro</name>
<cmt>food</cmt>
<desc>Restaurant</desc>
<sym>Dot</sym>
<type>food</type>
</wpt>
<wpt lat="50.114662" lon="-122.956879">
<name>Tapley's Neighbourhood Pub</name>
<cmt>bar</cmt>
<desc>Brewery / Pub</desc>
<sym>Dot</sym>
<type>food</type>
</wpt>
<wpt lat="50.095945" lon="-122.995073">
<name>Roland's Creekside Pub</name>
<cmt>bar</cmt>
<desc>Brewery / Pub</desc>
<sym>Dot</sym>
<type>food</type>
</wpt>
<wpt lat="50.114464" lon="-122.956646">
<name>Chubby Duck's</name>
<cmt>food</cmt>
<desc>Restaurant</desc>
<sym>Dot</sym>
<type>food</type>
</wpt>
<wpt lat="50.114721" lon="-122.956671">
<name>Rainbow Suites</name>
<cmt>lodging</cmt>
<desc>Hotel / Motel</desc>
<sym>Dot</sym>
<type>shelter</type>
</wpt>
<wpt lat="50.114362" lon="-122.956412">
<name>Adara Hotel</name>
<cmt>lodging</cmt>
<desc>Hotel / Motel</desc>
<sym>Dot</sym>
<type>shelter</type>
</wpt>
<wpt lat="50.115322" lon="-122.958337">
<name>Ohyama Ramen</name>
<cmt>food</cmt>
<desc>Restaurant</desc>
<sym>Dot</sym>
<type>food</type>
</wpt>
<wpt lat="50.114470" lon="-122.956448">
<name>Sportstop</name>
<cmt>convenience_store</cmt>
<desc>Outdoor Gear</desc>
<sym>Dot</sym>
<type>store</type>
</wpt>
<wpt lat="50.115338" lon="-122.958299">
<name>Harajuku</name>
<cmt>food</cmt>
<desc>Restaurant</desc>
<sym>Dot</sym>
<type>food</type>
</wpt>
<wpt lat="50.115345" lon="-122.958416">
<name>Fuji Market</name>
<cmt>food</cmt>
<desc>Restaurant</desc>
<sym>Dot</sym>
<type>food</type>
</wpt>
<wpt lat="50.115464" lon="-122.958182">
<name>Subway</name>
<cmt>food</cmt>
<desc>Fast Food / Chain</desc>
<sym>Dot</sym>
<type>food</type>
</wpt>
<wpt lat="50.114555" lon="-122.956210">
<name>Beacon Pub &amp; Eatery</name>
<cmt>bar</cmt>
<desc>Brewery / Pub</desc>
<sym>Dot</sym>
<type>food</type>
</wpt>
<wpt lat="50.114797" lon="-122.956403">
<name>BC Liquor Store</name>
<cmt>convenience_store</cmt>
<desc>Liquor Store</desc>
<sym>Dot</sym>
<type>store</type>
</wpt>
<wpt lat="50.114956" lon="-122.956604">
<name>Hundo-P</name>
<cmt>convenience_store</cmt>
<desc>Specialty / Health Food</desc>
<sym>Dot</sym>
<type>store</type>
</wpt>
<wpt lat="50.114926" lon="-122.956432">
<name>The Whistler Grocery Store</name>
<cmt>convenience_store</cmt>
<desc>Grocery Store</desc>
<sym>Dot</sym>
<type>store</type>
</wpt>
<wpt lat="50.115141" lon="-122.956729">
<name>Gone Village Eatery</name>
<cmt>food</cmt>
<desc>Restaurant</desc>
<sym>Dot</sym>
<type>food</type>
</wpt>
<wpt lat="50.115083" lon="-122.956593">
<name>Hearthstone Lodge</name>
<cmt>lodging</cmt>
<desc>Hotel / Motel</desc>
<sym>Dot</sym>
<type>shelter</type>
</wpt>
<wpt lat="50.114291" lon="-122.955955">
<name>Starbucks</name>
<cmt>food</cmt>
<desc>Fast Food / Chain</desc>
<sym>Dot</sym>
<type>food</type>
</wpt>
<wpt lat="50.114164" lon="-122.955916">
<name>Basalt Wine</name>
<cmt>food</cmt>
<desc>Restaurant</desc>
<sym>Dot</sym>
<type>food</type>
</wpt>
<wpt lat="50.114704" lon="-122.956092">
<name>The Crystal Lodge</name>
<cmt>lodging</cmt>
<desc>Hotel / Motel</desc>
<sym>Dot</sym>
<type>shelter</type>
</wpt>
<wpt lat="50.113868" lon="-122.955939">
<name>The Listel Hotel Whistler</name>
<cmt>lodging</cmt>
<desc>Hotel / Motel</desc>
<sym>Dot</sym>
<type>shelter</type>
</wpt>
<wpt lat="50.064052" lon="-123.095227">
<name>Cal Cheak North Camp</name>
<cmt>camping</cmt>
<desc>Public Campground</desc>
<sym>Dot</sym>
<type>campsite</type>
</wpt>
<wpt lat="50.114330" lon="-122.955731">
<name>Pangea Pod Hotel</name>
<cmt>lodging</cmt>
<desc>Hotel / Motel</desc>
<sym>Dot</sym>
<type>shelter</type>
</wpt>
<wpt lat="50.114663" lon="-122.955845">
<name>La Bocca</name>
<cmt>food</cmt>
<desc>Restaurant</desc>
<sym>Dot</sym>
<type>food</type>
</wpt>
<wpt lat="50.114484" lon="-122.955748">
<name>La Brasserie</name>
<cmt>food</cmt>
<desc>Restaurant</desc>
<sym>Dot</sym>
<type>food</type>
</wpt>
<wpt lat="50.115096" lon="-122.956167">
<name>Moguls Coffee</name>
<cmt>coffee</cmt>
<desc>Café / Coffee</desc>
<sym>Dot</sym>
<type>food</type>
</wpt>
<wpt lat="50.114734" lon="-122.955731">
<name>Amsterdam Pub</name>
<cmt>bar</cmt>
<desc>Brewery / Pub</desc>
<sym>Dot</sym>
<type>food</type>
</wpt>
<wpt lat="50.114499" lon="-122.955555">
<name>Hot Buns Bakery</name>
<cmt>food</cmt>
<desc>Bakery / Donuts</desc>
<sym>Dot</sym>
<type>food</type>
</wpt>
<wpt lat="50.114937" lon="-122.955813">
<name>Araxi</name>
<cmt>food</cmt>
<desc>Restaurant</desc>
<sym>Dot</sym>
<type>food</type>
</wpt>
<wpt lat="50.113715" lon="-122.955552">
<name>Crystal Lounge</name>
<cmt>bar</cmt>
<desc>Brewery / Pub</desc>
<sym>Dot</sym>
<type>food</type>
</wpt>
<wpt lat="50.113900" lon="-122.955464">
<name>Evo Backcountry</name>
<cmt>convenience_store</cmt>
<desc>Outdoor Gear</desc>
<sym>Dot</sym>
<type>store</type>
</wpt>
<wpt lat="50.114096" lon="-122.955383">
<name>Il Caminetto di Umberto</name>
<cmt>food</cmt>
<desc>Restaurant</desc>
<sym>Dot</sym>
<type>food</type>
</wpt>
<wpt lat="50.113781" lon="-122.955417">
<name>The Old Spaghetti Factory</name>
<cmt>food</cmt>
<desc>Restaurant</desc>
<sym>Dot</sym>
<type>food</type>
</wpt>
<wpt lat="50.114071" lon="-122.955337">
<name>Executive Inn Whistler</name>
<cmt>lodging</cmt>
<desc>Hotel / Motel</desc>
<sym>Dot</sym>
<type>shelter</type>
</wpt>
<wpt lat="50.113567" lon="-122.955456">
<name>Hilton Whistler Resort</name>
<cmt>lodging</cmt>
<desc>Hotel / Motel</desc>
<sym>Dot</sym>
<type>shelter</type>
</wpt>
<wpt lat="50.115302" lon="-122.955822">
<name>Blackcomb Lodge</name>
<cmt>lodging</cmt>
<desc>Hotel / Motel</desc>
<sym>Dot</sym>
<type>shelter</type>
</wpt>
<wpt lat="50.114822" lon="-122.955295">
<name>Evo</name>
<cmt>convenience_store</cmt>
<desc>Outdoor Gear</desc>
<sym>Dot</sym>
<type>store</type>
</wpt>
<wpt lat="50.102356" lon="-122.995398">
<name>Tyrol Lodge</name>
<cmt>lodging</cmt>
<desc>Resort</desc>
<sym>Dot</sym>
<type>shelter</type>
</wpt>
<wpt lat="50.113385" lon="-122.955278">
<name>Indian Masala Bistro</name>
<cmt>food</cmt>
<desc>Restaurant</desc>
<sym>Dot</sym>
<type>food</type>
</wpt>
<wpt lat="50.115739" lon="-122.956331">
<name>Epic Ride</name>
<cmt>transit</cmt>
<desc>Shuttle</desc>
<sym>Dot</sym>
<type>transport</type>
</wpt>
<wpt lat="50.113426" lon="-122.955213">
<name>Misty Mountain Pizza</name>
<cmt>food</cmt>
<desc>Fast Food / Chain</desc>
<sym>Dot</sym>
<type>food</type>
</wpt>
<wpt lat="50.113943" lon="-122.954873">
<name>Evo Village Sports</name>
<cmt>convenience_store</cmt>
<desc>Outdoor Gear</desc>
<sym>Dot</sym>
<type>store</type>
</wpt>
<wpt lat="50.114910" lon="-122.955046">
<name>Fanatyk Co Ski &amp; Cycle</name>
<cmt>bike_shop</cmt>
<desc>Repair Shop</desc>
<sym>Dot</sym>
<type>gear</type>
</wpt>
<wpt lat="50.115143" lon="-122.955212">
<name>Bar Oso</name>
<cmt>bar</cmt>
<desc>Brewery / Pub</desc>
<sym>Dot</sym>
<type>food</type>
</wpt>
<wpt lat="50.113308" lon="-122.955119">
<name>Teppan Village</name>
<cmt>food</cmt>
<desc>Restaurant</desc>
<sym>Dot</sym>
<type>food</type>
</wpt>
<wpt lat="50.079565" lon="-123.042330">
<name>HI Whistler</name>
<cmt>lodging</cmt>
<desc>Hostel</desc>
<sym>Dot</sym>
<type>shelter</type>
</wpt>
<wpt lat="50.095358" lon="-122.992711">
<name>Co-op</name>
<cmt>convenience_store</cmt>
<desc>Convenience Store</desc>
<sym>Dot</sym>
<type>store</type>
</wpt>
<wpt lat="50.115261" lon="-122.955207">
<name>Provisions</name>
<cmt>food</cmt>
<desc>Restaurant</desc>
<sym>Dot</sym>
<type>food</type>
</wpt>
<wpt lat="50.115637" lon="-122.955696">
<name>Whistler Visitor Centre</name>
<cmt>generic</cmt>
<desc>Visitor Centre</desc>
<sym>Dot</sym>
<type>generic</type>
</wpt>
<wpt lat="50.114989" lon="-122.954927">
<name>21 Steps Kitchen &amp; Bar</name>
<cmt>food</cmt>
<desc>Restaurant</desc>
<sym>Dot</sym>
<type>food</type>
</wpt>
<wpt lat="50.115482" lon="-122.955356">
<name>Avalanche Pizza</name>
<cmt>food</cmt>
<desc>Fast Food / Chain</desc>
<sym>Dot</sym>
<type>food</type>
</wpt>
<wpt lat="50.098502" lon="-122.989399">
<name>Rimrock Cafe</name>
<cmt>food</cmt>
<desc>Restaurant</desc>
<sym>Dot</sym>
<type>food</type>
</wpt>
<wpt lat="50.094786" lon="-122.993539">
<name>Southside Lodge</name>
<cmt>lodging</cmt>
<desc>Hostel</desc>
<sym>Dot</sym>
<type>shelter</type>
</wpt>
<wpt lat="50.078682" lon="-123.043717">
<name>Cheaky's Café</name>
<cmt>coffee</cmt>
<desc>Café / Coffee</desc>
<sym>Dot</sym>
<type>food</type>
</wpt>
<wpt lat="50.113846" lon="-122.954497">
<name>Sushi Village</name>
<cmt>food</cmt>
<desc>Restaurant</desc>
<sym>Dot</sym>
<type>food</type>
</wpt>
<wpt lat="50.112341" lon="-122.956016">
<name>Firerock Lounge</name>
<cmt>food</cmt>
<desc>Restaurant</desc>
<sym>Dot</sym>
<type>food</type>
</wpt>
<wpt lat="50.113408" lon="-122.954620">
<name>Wedge Rafting (The Adventure Group)</name>
<cmt>viewpoint</cmt>
<desc>Activity / Experience</desc>
<sym>Dot</sym>
<type>overlook</type>
</wpt>
<wpt lat="50.094675" lon="-122.993407">
<name>Southside Diner</name>
<cmt>food</cmt>
<desc>Restaurant</desc>
<sym>Dot</sym>
<type>food</type>
</wpt>
<wpt lat="50.112980" lon="-122.954926">
<name>Summitsport</name>
<cmt>bike_shop</cmt>
<desc>Repair Shop</desc>
<sym>Dot</sym>
<type>gear</type>
</wpt>
<wpt lat="50.115692" lon="-122.955273">
<name>The Village Gate House</name>
<cmt>lodging</cmt>
<desc>Hotel / Motel</desc>
<sym>Dot</sym>
<type>shelter</type>
</wpt>
<wpt lat="50.115307" lon="-122.954802">
<name>Whistler Peak Lodge</name>
<cmt>lodging</cmt>
<desc>Hotel / Motel</desc>
<sym>Dot</sym>
<type>shelter</type>
</wpt>
<wpt lat="50.112867" lon="-122.954972">
<name>Lift Coffee Company</name>
<cmt>coffee</cmt>
<desc>Café / Coffee</desc>
<sym>Dot</sym>
<type>food</type>
</wpt>
<wpt lat="50.113520" lon="-122.954462">
<name>Carleton Lodge</name>
<cmt>lodging</cmt>
<desc>Hotel / Motel</desc>
<sym>Dot</sym>
<type>shelter</type>
</wpt>
<wpt lat="50.096115" lon="-122.991459">
<name>Creekbread</name>
<cmt>food</cmt>
<desc>Restaurant</desc>
<sym>Dot</sym>
<type>food</type>
</wpt>
<wpt lat="50.113801" lon="-122.954323">
<name>The Mexican Corner</name>
<cmt>food</cmt>
<desc>Restaurant</desc>
<sym>Dot</sym>
<type>food</type>
</wpt>
<wpt lat="50.115344" lon="-122.954760">
<name>Mongolie Gril</name>
<cmt>food</cmt>
<desc>Restaurant</desc>
<sym>Dot</sym>
<type>food</type>
</wpt>
<wpt lat="50.112422" lon="-122.955489">
<name>The Westin Resort &amp; Spa Whistler</name>
<cmt>lodging</cmt>
<desc>Hotel / Motel</desc>
<sym>Dot</sym>
<type>shelter</type>
</wpt>
<wpt lat="50.115027" lon="-122.954460">
<name>Naked Sprout</name>
<cmt>coffee</cmt>
<desc>Café / Coffee</desc>
<sym>Dot</sym>
<type>food</type>
</wpt>
<wpt lat="50.114855" lon="-122.954337">
<name>Whistler Village Inn &amp; Suites</name>
<cmt>lodging</cmt>
<desc>Hotel / Motel</desc>
<sym>Dot</sym>
<type>shelter</type>
</wpt>
<wpt lat="50.112184" lon="-122.955928">
<name>Grill &amp; Vine</name>
<cmt>food</cmt>
<desc>Restaurant</desc>
<sym>Dot</sym>
<type>food</type>
</wpt>
<wpt lat="50.116639" lon="-122.957242">
<name>HY's Steakhouse and Cocktail Bar</name>
<cmt>food</cmt>
<desc>Restaurant</desc>
<sym>Dot</sym>
<type>food</type>
</wpt>
<wpt lat="50.113976" lon="-122.954164">
<name>Sundial Boutique Hotel</name>
<cmt>lodging</cmt>
<desc>Hotel / Motel</desc>
<sym>Dot</sym>
<type>shelter</type>
</wpt>
<wpt lat="50.114881" lon="-122.954293">
<name>The Keg</name>
<cmt>food</cmt>
<desc>Restaurant</desc>
<sym>Dot</sym>
<type>food</type>
</wpt>
<wpt lat="50.112194" lon="-122.955790">
<name>Kaze - Sushi And Beyond</name>
<cmt>food</cmt>
<desc>Restaurant</desc>
<sym>Dot</sym>
<type>food</type>
</wpt>
<wpt lat="50.115431" lon="-122.954599">
<name>Freshii</name>
<cmt>food</cmt>
<desc>Restaurant</desc>
<sym>Dot</sym>
<type>food</type>
</wpt>
<wpt lat="50.113762" lon="-122.954090">
<name>Black's Pub</name>
<cmt>food</cmt>
<desc>Restaurant</desc>
<sym>Dot</sym>
<type>food</type>
</wpt>
<wpt lat="50.113280" lon="-122.954297">
<name>The Longhorn Saloon</name>
<cmt>food</cmt>
<desc>Restaurant</desc>
<sym>Dot</sym>
<type>food</type>
</wpt>
<wpt lat="50.115309" lon="-122.954245">
<name>% Arabica</name>
<cmt>coffee</cmt>
<desc>Café / Coffee</desc>
<sym>Dot</sym>
<type>food</type>
</wpt>
<wpt lat="50.115297" lon="-122.954201">
<name>Earls</name>
<cmt>food</cmt>
<desc>Restaurant</desc>
<sym>Dot</sym>
<type>food</type>
</wpt>
<wpt lat="50.113891" lon="-122.953730">
<name>Pan Pacific Whistler Mountainside</name>
<cmt>lodging</cmt>
<desc>Hotel / Motel</desc>
<sym>Dot</sym>
<type>shelter</type>
</wpt>
<wpt lat="50.116299" lon="-122.955363">
<name>Delta Whistler Village Suites</name>
<cmt>lodging</cmt>
<desc>Hotel / Motel</desc>
<sym>Dot</sym>
<type>shelter</type>
</wpt>
<wpt lat="50.117049" lon="-122.957992">
<name>WorldMark Whistler - Cascade Lodge</name>
<cmt>lodging</cmt>
<desc>Hotel / Motel</desc>
<sym>Dot</sym>
<type>shelter</type>
</wpt>
<wpt lat="50.087565" lon="-123.040074">
<name>PureBread</name>
<cmt>coffee</cmt>
<desc>Café / Coffee</desc>
<sym>Dot</sym>
<type>food</type>
</wpt>
<wpt lat="50.115990" lon="-122.954719">
<name>Pan Pacific Whistler Village Centre</name>
<cmt>lodging</cmt>
<desc>Hotel / Motel</desc>
<sym>Dot</sym>
<type>shelter</type>
</wpt>
<wpt lat="50.096588" lon="-122.989668">
<name>Coastal Culture Sports</name>
<cmt>bike_shop</cmt>
<desc>Repair Shop</desc>
<sym>Dot</sym>
<type>gear</type>
</wpt>
<wpt lat="50.096513" lon="-122.989724">
<name>Tim Hortons</name>
<cmt>food</cmt>
<desc>Fast Food / Chain</desc>
<sym>Dot</sym>
<type>food</type>
</wpt>
<wpt lat="50.114345" lon="-122.953549">
<name>Joe Fortes</name>
<cmt>food</cmt>
<desc>Restaurant</desc>
<sym>Dot</sym>
<type>food</type>
</wpt>
<wpt lat="50.112712" lon="-122.954166">
<name>Garibaldi Lift Company</name>
<cmt>bar</cmt>
<desc>Brewery / Pub</desc>
<sym>Dot</sym>
<type>food</type>
</wpt>
<wpt lat="50.116919" lon="-122.956568">
<name>Brickworks Public House</name>
<cmt>bar</cmt>
<desc>Brewery / Pub</desc>
<sym>Dot</sym>
<type>food</type>
</wpt>
<wpt lat="50.117150" lon="-122.957544">
<name>Pinnacle Hotel Whistler Village</name>
<cmt>lodging</cmt>
<desc>Hotel / Motel</desc>
<sym>Dot</sym>
<type>shelter</type>
</wpt>
<wpt lat="50.117186" lon="-122.957470">
<name>Alta Bistro</name>
<cmt>food</cmt>
<desc>Restaurant</desc>
<sym>Dot</sym>
<type>food</type>
</wpt>
<wpt lat="50.094893" lon="-122.991451">
<name>Creekside Market</name>
<cmt>convenience_store</cmt>
<desc>Grocery Store</desc>
<sym>Dot</sym>
<type>store</type>
</wpt>
<wpt lat="50.094756" lon="-122.991601">
<name>BC Liquor Store</name>
<cmt>convenience_store</cmt>
<desc>Liquor Store</desc>
<sym>Dot</sym>
<type>store</type>
</wpt>
<wpt lat="50.094021" lon="-122.992734">
<name>Subway</name>
<cmt>food</cmt>
<desc>Fast Food / Chain</desc>
<sym>Dot</sym>
<type>food</type>
</wpt>
<wpt lat="50.116434" lon="-122.954933">
<name>Cow's Ice cream</name>
<cmt>food</cmt>
<desc>Ice Cream</desc>
<sym>Dot</sym>
<type>food</type>
</wpt>
<wpt lat="50.087452" lon="-123.040653">
<name>Camp Lifestyle and Coffee Co</name>
<cmt>coffee</cmt>
<desc>Café / Coffee</desc>
<sym>Dot</sym>
<type>food</type>
</wpt>
<wpt lat="50.087986" lon="-123.040140">
<name>Whistler Brewing Company</name>
<cmt>bar</cmt>
<desc>Brewery / Pub</desc>
<sym>Dot</sym>
<type>food</type>
</wpt>
<wpt lat="50.113739" lon="-122.953219">
<name>Dubh Linn Gate</name>
<cmt>bar</cmt>
<desc>Brewery / Pub</desc>
<sym>Dot</sym>
<type>food</type>
</wpt>
<wpt lat="50.113065" lon="-122.953448">
<name>Whistler Blackcomb</name>
<cmt>rest_stop</cmt>
<desc>Community Centre</desc>
<sym>Dot</sym>
<type>rest_area</type>
</wpt>
<wpt lat="50.093987" lon="-122.992556">
<name>Samurai Bowl</name>
<cmt>food</cmt>
<desc>Restaurant</desc>
<sym>Dot</sym>
<type>food</type>
</wpt>
<wpt lat="50.094518" lon="-122.991495">
<name>Mekong</name>
<cmt>food</cmt>
<desc>Restaurant</desc>
<sym>Dot</sym>
<type>food</type>
</wpt>
<wpt lat="50.089148" lon="-123.038172">
<name>Coast Mountain Brewing</name>
<cmt>bar</cmt>
<desc>Brewery / Pub</desc>
<sym>Dot</sym>
<type>food</type>
</wpt>
<wpt lat="50.094482" lon="-122.991414">
<name>BReD - Organic Sourdough</name>
<cmt>food</cmt>
<desc>Bakery / Donuts</desc>
<sym>Dot</sym>
<type>food</type>
</wpt>
<wpt lat="50.117482" lon="-122.956840">
<name>Whistler Public Library</name>
<cmt>library</cmt>
<desc>Library</desc>
<sym>Dot</sym>
<type>info</type>
</wpt>
<wpt lat="50.117526" lon="-122.956800">
<name>Whistler Museum &amp; Archives</name>
<cmt>monument</cmt>
<desc>Museum / Gallery</desc>
<sym>Dot</sym>
<type>info</type>
</wpt>
<wpt lat="50.094595" lon="-122.990986">
<name>Rockit Coffee Co.</name>
<cmt>coffee</cmt>
<desc>Café / Coffee</desc>
<sym>Dot</sym>
<type>food</type>
</wpt>
<wpt lat="50.116944" lon="-122.954910">
<name>All Seasons Grill</name>
<cmt>food</cmt>
<desc>Restaurant</desc>
<sym>Dot</sym>
<type>food</type>
</wpt>
<wpt lat="50.117194" lon="-122.955408">
<name>El Furniture Warehouse</name>
<cmt>food</cmt>
<desc>Restaurant</desc>
<sym>Dot</sym>
<type>food</type>
</wpt>
<wpt lat="50.117018" lon="-122.954821">
<name>Bear Lodge</name>
<cmt>lodging</cmt>
<desc>Hotel / Motel</desc>
<sym>Dot</sym>
<type>shelter</type>
</wpt>
<wpt lat="50.095918" lon="-122.988842">
<name>Evolution Whistler</name>
<cmt>lodging</cmt>
<desc>Hotel / Motel</desc>
<sym>Dot</sym>
<type>shelter</type>
</wpt>
<wpt lat="50.117199" lon="-122.954882">
<name>Caramba! Restaurante</name>
<cmt>food</cmt>
<desc>Restaurant</desc>
<sym>Dot</sym>
<type>food</type>
</wpt>
<wpt lat="50.118014" lon="-122.957696">
<name>The Alpenglow Lodge</name>
<cmt>lodging</cmt>
<desc>Hotel / Motel</desc>
<sym>Dot</sym>
<type>shelter</type>
</wpt>
<wpt lat="50.118132" lon="-122.958019">
<name>Pizzeria Antico</name>
<cmt>food</cmt>
<desc>Restaurant</desc>
<sym>Dot</sym>
<type>food</type>
</wpt>
<wpt lat="50.087563" lon="-123.042147">
<name>Functional Pi Pizzeria</name>
<cmt>food</cmt>
<desc>Restaurant</desc>
<sym>Dot</sym>
<type>food</type>
</wpt>
<wpt lat="50.118244" lon="-122.957735">
<name>Splitz Grill</name>
<cmt>food</cmt>
<desc>Restaurant</desc>
<sym>Dot</sym>
<type>food</type>
</wpt>
<wpt lat="50.118261" lon="-122.957837">
<name>Mount Currie Coffee Co</name>
<cmt>coffee</cmt>
<desc>Café / Coffee</desc>
<sym>Dot</sym>
<type>food</type>
</wpt>
<wpt lat="50.118266" lon="-122.957657">
<name>Peaked Pies</name>
<cmt>food</cmt>
<desc>Restaurant</desc>
<sym>Dot</sym>
<type>food</type>
</wpt>
<wpt lat="50.117669" lon="-122.954883">
<name>Stinky's on the Stroll</name>
<cmt>bar</cmt>
<desc>Brewery / Pub</desc>
<sym>Dot</sym>
<type>food</type>
</wpt>
<wpt lat="50.117847" lon="-122.955262">
<name>Deer Lodge</name>
<cmt>lodging</cmt>
<desc>Hotel / Motel</desc>
<sym>Dot</sym>
<type>shelter</type>
</wpt>
<wpt lat="50.117727" lon="-122.954883">
<name>Eagle Lodge</name>
<cmt>lodging</cmt>
<desc>Hotel / Motel</desc>
<sym>Dot</sym>
<type>shelter</type>
</wpt>
<wpt lat="50.117770" lon="-122.954738">
<name>The Plaza Galleries</name>
<cmt>monument</cmt>
<desc>Museum / Gallery</desc>
<sym>Dot</sym>
<type>info</type>
</wpt>
<wpt lat="50.118425" lon="-122.957240">
<name>Summit Lodge Boutique Hotel</name>
<cmt>lodging</cmt>
<desc>Hotel / Motel</desc>
<sym>Dot</sym>
<type>shelter</type>
</wpt>
<wpt lat="50.118344" lon="-122.956505">
<name>Sachi Sushi</name>
<cmt>food</cmt>
<desc>Restaurant</desc>
<sym>Dot</sym>
<type>food</type>
</wpt>
<wpt lat="50.094583" lon="-122.989359">
<name>Legends Hotel</name>
<cmt>lodging</cmt>
<desc>Hotel / Motel</desc>
<sym>Dot</sym>
<type>shelter</type>
</wpt>
<wpt lat="50.118555" lon="-122.957923">
<name>Tandoori Grill</name>
<cmt>food</cmt>
<desc>Restaurant</desc>
<sym>Dot</sym>
<type>food</type>
</wpt>
<wpt lat="50.118557" lon="-122.957981">
<name>Hunter Gatherer</name>
<cmt>food</cmt>
<desc>Restaurant</desc>
<sym>Dot</sym>
<type>food</type>
</wpt>
<wpt lat="50.118588" lon="-122.957838">
<name>Pasta Lupino</name>
<cmt>food</cmt>
<desc>Restaurant</desc>
<sym>Dot</sym>
<type>food</type>
</wpt>
<wpt lat="50.118507" lon="-122.956896">
<name>Cycle Whistler</name>
<cmt>bike_shop</cmt>
<desc>Repair Shop</desc>
<sym>Dot</sym>
<type>gear</type>
</wpt>
<wpt lat="50.118138" lon="-122.955273">
<name>Comor</name>
<cmt>bike_shop</cmt>
<desc>Repair Shop</desc>
<sym>Dot</sym>
<type>gear</type>
</wpt>
<wpt lat="50.118617" lon="-122.957754">
<name>Domino's</name>
<cmt>food</cmt>
<desc>Fast Food / Chain</desc>
<sym>Dot</sym>
<type>food</type>
</wpt>
<wpt lat="50.117845" lon="-122.954452">
<name>Maury Young Arts Centre</name>
<cmt>monument</cmt>
<desc>Museum / Gallery</desc>
<sym>Dot</sym>
<type>info</type>
</wpt>
<wpt lat="50.094294" lon="-122.989424">
<name>The Legends</name>
<cmt>lodging</cmt>
<desc>Hotel / Motel</desc>
<sym>Dot</sym>
<type>shelter</type>
</wpt>
<wpt lat="50.118702" lon="-122.957440">
<name>Crêpe Montagne</name>
<cmt>food</cmt>
<desc>Restaurant</desc>
<sym>Dot</sym>
<type>food</type>
</wpt>
<wpt lat="50.118507" lon="-122.955996">
<name>Tyndall Stone Lodge</name>
<cmt>lodging</cmt>
<desc>Hotel / Motel</desc>
<sym>Dot</sym>
<type>shelter</type>
</wpt>
<wpt lat="50.118736" lon="-122.957310">
<name>Main Street Noodles</name>
<cmt>food</cmt>
<desc>Restaurant</desc>
<sym>Dot</sym>
<type>food</type>
</wpt>
<wpt lat="50.118471" lon="-122.955656">
<name>purebread</name>
<cmt>coffee</cmt>
<desc>Café / Coffee</desc>
<sym>Dot</sym>
<type>food</type>
</wpt>
<wpt lat="50.118820" lon="-122.957173">
<name>Main Street Poke</name>
<cmt>food</cmt>
<desc>Restaurant</desc>
<sym>Dot</sym>
<type>food</type>
</wpt>
<wpt lat="50.118294" lon="-122.954861">
<name>BrewHouse</name>
<cmt>bar</cmt>
<desc>Brewery / Pub</desc>
<sym>Dot</sym>
<type>food</type>
</wpt>
<wpt lat="49.831701" lon="-123.150251">
<name>Paradise Valley Campground</name>
<cmt>camping</cmt>
<desc>Private Campground</desc>
<sym>Dot</sym>
<type>campsite</type>
</wpt>
<wpt lat="49.702397" lon="-123.144021">
<name>Squamish Adventure Inn</name>
<cmt>lodging</cmt>
<desc>Hostel</desc>
<sym>Dot</sym>
<type>shelter</type>
</wpt>
<wpt lat="49.701467" lon="-123.150352">
<name>Mountain Burger House</name>
<cmt>food</cmt>
<desc>Restaurant</desc>
<sym>Dot</sym>
<type>food</type>
</wpt>
<wpt lat="49.763757" lon="-123.147431">
<name>The Crabapple Cafe</name>
<cmt>food</cmt>
<desc>Restaurant</desc>
<sym>Dot</sym>
<type>food</type>
</wpt>
<wpt lat="49.767996" lon="-123.150691">
<name>Brakendale Art Gallery</name>
<cmt>monument</cmt>
<desc>Museum / Gallery</desc>
<sym>Dot</sym>
<type>info</type>
</wpt>
<wpt lat="49.767937" lon="-123.150615">
<name>Zephyr Cafe @ The BAG</name>
<cmt>coffee</cmt>
<desc>Café / Coffee</desc>
<sym>Dot</sym>
<type>food</type>
</wpt>
<wpt lat="49.798932" lon="-123.156546">
<name>Sunwolf Riverside Resort</name>
<cmt>lodging</cmt>
<desc>Hotel / Motel</desc>
<sym>Dot</sym>
<type>shelter</type>
</wpt>
<wpt lat="49.757793" lon="-123.141498">
<name>Brackendale Bean</name>
<cmt>coffee</cmt>
<desc>Café / Coffee</desc>
<sym>Dot</sym>
<type>food</type>
</wpt>
<wpt lat="49.799229" lon="-123.156474">
<name>Fergie's Cafe</name>
<cmt>coffee</cmt>
<desc>Café / Coffee</desc>
<sym>Dot</sym>
<type>food</type>
</wpt>
<wpt lat="49.741831" lon="-123.135854">
<name>Shady Tree</name>
<cmt>bar</cmt>
<desc>Brewery / Pub</desc>
<sym>Dot</sym>
<type>food</type>
</wpt>
<wpt lat="49.736876" lon="-123.134005">
<name>Boston Pizza</name>
<cmt>food</cmt>
<desc>Fast Food / Chain</desc>
<sym>Dot</sym>
<type>food</type>
</wpt>
<wpt lat="49.736584" lon="-123.133886">
<name>Pure Bread</name>
<cmt>food</cmt>
<desc>Bakery / Donuts</desc>
<sym>Dot</sym>
<type>food</type>
</wpt>
<wpt lat="49.736425" lon="-123.133819">
<name>Subway</name>
<cmt>food</cmt>
<desc>Fast Food / Chain</desc>
<sym>Dot</sym>
<type>food</type>
</wpt>
<wpt lat="49.741395" lon="-123.136122">
<name>Tim Hortons</name>
<cmt>food</cmt>
<desc>Fast Food / Chain</desc>
<sym>Dot</sym>
<type>food</type>
</wpt>
<wpt lat="49.740436" lon="-123.136094">
<name>Starbucks</name>
<cmt>food</cmt>
<desc>Fast Food / Chain</desc>
<sym>Dot</sym>
<type>food</type>
</wpt>
<wpt lat="49.703650" lon="-123.145464">
<name>White Spot</name>
<cmt>food</cmt>
<desc>Fast Food / Chain</desc>
<sym>Dot</sym>
<type>food</type>
</wpt>
<wpt lat="49.738021" lon="-123.133438">
<name>Freshslice Pizza</name>
<cmt>food</cmt>
<desc>Fast Food / Chain</desc>
<sym>Dot</sym>
<type>food</type>
</wpt>
<wpt lat="49.735948" lon="-123.133390">
<name>Canadian Tire</name>
<cmt>convenience_store</cmt>
<desc>General merchandise</desc>
<sym>Dot</sym>
<type>store</type>
</wpt>
<wpt lat="49.737570" lon="-123.133432">
<name>BC Liquor Store</name>
<cmt>convenience_store</cmt>
<desc>Liquor Store</desc>
<sym>Dot</sym>
<type>store</type>
</wpt>
<wpt lat="49.706996" lon="-123.145814">
<name>Squamish Adventure Cenre</name>
<cmt>park</cmt>
<desc>Park / Nature</desc>
<sym>Dot</sym>
<type>rest_area</type>
</wpt>
<wpt lat="49.738541" lon="-123.133528">
<name>London Drugs</name>
<cmt>convenience_store</cmt>
<desc>General merchandise</desc>
<sym>Dot</sym>
<type>store</type>
</wpt>
<wpt lat="49.741148" lon="-123.133655">
<name>7-Eleven</name>
<cmt>convenience_store</cmt>
<desc>Convenience Store</desc>
<sym>Dot</sym>
<type>store</type>
</wpt>
<wpt lat="49.741382" lon="-123.133717">
<name>Umai Sushi &amp; Grill</name>
<cmt>food</cmt>
<desc>Restaurant</desc>
<sym>Dot</sym>
<type>food</type>
</wpt>
<wpt lat="49.739264" lon="-123.133552">
<name>Sea to Sky Hotel and Conference Centre</name>
<cmt>lodging</cmt>
<desc>Hotel / Motel</desc>
<sym>Dot</sym>
<type>shelter</type>
</wpt>
<wpt lat="49.740041" lon="-123.133553">
<name>Your Independent Grocer</name>
<cmt>convenience_store</cmt>
<desc>Grocery Store</desc>
<sym>Dot</sym>
<type>store</type>
</wpt>
<wpt lat="49.739460" lon="-123.133544">
<name>Ridehub Café Bikes and Espresso</name>
<cmt>bike_shop</cmt>
<desc>Repair Shop</desc>
<sym>Dot</sym>
<type>gear</type>
</wpt>
<wpt lat="49.700834" lon="-123.151722">
<name>Pizzalicious Donair Shop</name>
<cmt>food</cmt>
<desc>Restaurant</desc>
<sym>Dot</sym>
<type>food</type>
</wpt>
<wpt lat="49.737150" lon="-123.133259">
<name>Tantalus Bike Shop</name>
<cmt>bike_shop</cmt>
<desc>Repair Shop</desc>
<sym>Dot</sym>
<type>gear</type>
</wpt>
<wpt lat="49.702527" lon="-123.151116">
<name>Squamish Liquor Store</name>
<cmt>convenience_store</cmt>
<desc>Liquor Store</desc>
<sym>Dot</sym>
<type>store</type>
</wpt>
<wpt lat="49.701981" lon="-123.152252">
<name>Panago</name>
<cmt>food</cmt>
<desc>Fast Food / Chain</desc>
<sym>Dot</sym>
<type>food</type>
</wpt>
<wpt lat="49.740145" lon="-123.136471">
<name>Spoke Haven</name>
<cmt>bike_shop</cmt>
<desc>Repair Shop</desc>
<sym>Dot</sym>
<type>gear</type>
</wpt>
<wpt lat="49.700779" lon="-123.151778">
<name>Green Olive Market &amp; Café</name>
<cmt>coffee</cmt>
<desc>Café / Coffee</desc>
<sym>Dot</sym>
<type>food</type>
</wpt>
<wpt lat="49.741400" lon="-123.133367">
<name>Pizza Hut</name>
<cmt>food</cmt>
<desc>Fast Food / Chain</desc>
<sym>Dot</sym>
<type>food</type>
</wpt>
<wpt lat="49.704640" lon="-123.146285">
<name>McDonald's</name>
<cmt>food</cmt>
<desc>Fast Food / Chain</desc>
<sym>Dot</sym>
<type>food</type>
</wpt>
<wpt lat="49.703577" lon="-123.146080">
<name>Starbucks</name>
<cmt>food</cmt>
<desc>Fast Food / Chain</desc>
<sym>Dot</sym>
<type>food</type>
</wpt>
<wpt lat="49.735265" lon="-123.132636">
<name>The Locavore Bar &amp; Grill</name>
<cmt>food</cmt>
<desc>Restaurant</desc>
<sym>Dot</sym>
<type>food</type>
</wpt>
<wpt lat="49.704018" lon="-123.146311">
<name>A&amp;W</name>
<cmt>food</cmt>
<desc>Fast Food / Chain</desc>
<sym>Dot</sym>
<type>food</type>
</wpt>
<wpt lat="49.703566" lon="-123.146202">
<name>Tacofino</name>
<cmt>food</cmt>
<desc>Restaurant</desc>
<sym>Dot</sym>
<type>food</type>
</wpt>
<wpt lat="49.705079" lon="-123.146552">
<name>7-Eleven</name>
<cmt>convenience_store</cmt>
<desc>Convenience Store</desc>
<sym>Dot</sym>
<type>store</type>
</wpt>
<wpt lat="49.725110" lon="-123.142958">
<name>Brennan Park Recreation Centre</name>
<cmt>rest_stop</cmt>
<desc>Community Centre</desc>
<sym>Dot</sym>
<type>rest_area</type>
</wpt>
<wpt lat="49.735248" lon="-123.132466">
<name>Cloudburst Coffee</name>
<cmt>coffee</cmt>
<desc>Café / Coffee</desc>
<sym>Dot</sym>
<type>food</type>
</wpt>
<wpt lat="49.749560" lon="-123.133225">
<name>Executive Suites Hotel and Resort Squamish</name>
<cmt>lodging</cmt>
<desc>Hotel / Motel</desc>
<sym>Dot</sym>
<type>shelter</type>
</wpt>
<wpt lat="49.700496" lon="-123.152175">
<name>Corsa Cycles</name>
<cmt>bike_shop</cmt>
<desc>Repair Shop</desc>
<sym>Dot</sym>
<type>gear</type>
</wpt>
<wpt lat="49.735579" lon="-123.132456">
<name>The Locavore Bar &amp; Grill</name>
<cmt>food</cmt>
<desc>Fast Food / Chain</desc>
<sym>Dot</sym>
<type>food</type>
</wpt>
<wpt lat="49.700768" lon="-123.152668">
<name>Saha Eatery</name>
<cmt>food</cmt>
<desc>Restaurant</desc>
<sym>Dot</sym>
<type>food</type>
</wpt>
<wpt lat="49.726921" lon="-123.138233">
<name>Eagle Vista RV Resort &amp; Campground</name>
<cmt>camping</cmt>
<desc>Private Campground</desc>
<sym>Dot</sym>
<type>campsite</type>
</wpt>
<wpt lat="49.701374" lon="-123.153173">
<name>Joe Pesto's Wood Fired Pizzeria</name>
<cmt>food</cmt>
<desc>Restaurant</desc>
<sym>Dot</sym>
<type>food</type>
</wpt>
<wpt lat="49.703369" lon="-123.147010">
<name>Nesters Market</name>
<cmt>convenience_store</cmt>
<desc>Grocery Store</desc>
<sym>Dot</sym>
<type>store</type>
</wpt>
<wpt lat="49.700698" lon="-123.152992">
<name>Freshii</name>
<cmt>food</cmt>
<desc>Restaurant</desc>
<sym>Dot</sym>
<type>food</type>
</wpt>
<wpt lat="49.739917" lon="-123.132383">
<name>Pepe's Chophouse</name>
<cmt>food</cmt>
<desc>Restaurant</desc>
<sym>Dot</sym>
<type>food</type>
</wpt>
<wpt lat="49.740595" lon="-123.132342">
<name>Top Hat Pizza</name>
<cmt>food</cmt>
<desc>Restaurant</desc>
<sym>Dot</sym>
<type>food</type>
</wpt>
<wpt lat="49.700633" lon="-123.153005">
<name>Tuba Cafe</name>
<cmt>coffee</cmt>
<desc>Café / Coffee</desc>
<sym>Dot</sym>
<type>food</type>
</wpt>
<wpt lat="49.740449" lon="-123.132332">
<name>Sushi Sen</name>
<cmt>food</cmt>
<desc>Restaurant</desc>
<sym>Dot</sym>
<type>food</type>
</wpt>
<wpt lat="49.740171" lon="-123.132353">
<name>Essence of India</name>
<cmt>food</cmt>
<desc>Restaurant</desc>
<sym>Dot</sym>
<type>food</type>
</wpt>
<wpt lat="49.700033" lon="-123.145031">
<name>Sunny Chibas Fried Chicken Mexican Cantina</name>
<cmt>food</cmt>
<desc>Restaurant</desc>
<sym>Dot</sym>
<type>food</type>
</wpt>
<wpt lat="49.703079" lon="-123.152236">
<name>Naked Lunch</name>
<cmt>food</cmt>
<desc>Restaurant</desc>
<sym>Dot</sym>
<type>food</type>
</wpt>
<wpt lat="49.700917" lon="-123.153372">
<name>1914 Coffee Company</name>
<cmt>coffee</cmt>
<desc>Café / Coffee</desc>
<sym>Dot</sym>
<type>food</type>
</wpt>
<wpt lat="49.703288" lon="-123.148093">
<name>Pizza Hut</name>
<cmt>food</cmt>
<desc>Fast Food / Chain</desc>
<sym>Dot</sym>
<type>food</type>
</wpt>
<wpt lat="49.740036" lon="-123.132244">
<name>Lil Chef Bistro</name>
<cmt>food</cmt>
<desc>Restaurant</desc>
<sym>Dot</sym>
<type>food</type>
</wpt>
<wpt lat="49.735419" lon="-123.131692">
<name>Alice &amp; Brohms</name>
<cmt>food</cmt>
<desc>Ice Cream</desc>
<sym>Dot</sym>
<type>food</type>
</wpt>
<wpt lat="49.703198" lon="-123.152307">
<name>Save-On-Foods</name>
<cmt>convenience_store</cmt>
<desc>Grocery Store</desc>
<sym>Dot</sym>
<type>store</type>
</wpt>
<wpt lat="49.699651" lon="-123.152197">
<name>Sunflower Bakery and Cafe</name>
<cmt>food</cmt>
<desc>Bakery / Donuts</desc>
<sym>Dot</sym>
<type>food</type>
</wpt>
<wpt lat="49.699586" lon="-123.144835">
<name>Shell</name>
<cmt>convenience_store</cmt>
<desc>Convenience Store</desc>
<sym>Dot</sym>
<type>store</type>
</wpt>
<wpt lat="49.699559" lon="-123.152273">
<name>Stong's Market</name>
<cmt>convenience_store</cmt>
<desc>Grocery Store</desc>
<sym>Dot</sym>
<type>store</type>
</wpt>
<wpt lat="49.703790" lon="-123.148994">
<name>Steve's poke bar</name>
<cmt>food</cmt>
<desc>Restaurant</desc>
<sym>Dot</sym>
<type>food</type>
</wpt>
<wpt lat="49.699492" lon="-123.152851">
<name>Taka Ramen and Sushi</name>
<cmt>food</cmt>
<desc>Restaurant</desc>
<sym>Dot</sym>
<type>food</type>
</wpt>
<wpt lat="49.698933" lon="-123.152794">
<name>Taste of Saigon Cafe</name>
<cmt>food</cmt>
<desc>Restaurant</desc>
<sym>Dot</sym>
<type>food</type>
</wpt>
<wpt lat="49.701600" lon="-123.155800">
<name>velofix</name>
<cmt>bike_shop</cmt>
<desc>Repair Shop</desc>
<sym>Dot</sym>
<type>gear</type>
</wpt>
<wpt lat="49.698722" lon="-123.153536">
<name>Blue House Korean Buffet &amp; Sushi</name>
<cmt>food</cmt>
<desc>Restaurant</desc>
<sym>Dot</sym>
<type>food</type>
</wpt>
<wpt lat="49.698658" lon="-123.153599">
<name>Crash Hotel Squamish</name>
<cmt>lodging</cmt>
<desc>Hotel / Motel</desc>
<sym>Dot</sym>
<type>shelter</type>
</wpt>
<wpt lat="49.698635" lon="-123.153671">
<name>Chieftain Pool &amp; Pinball</name>
<cmt>bar</cmt>
<desc>Brewery / Pub</desc>
<sym>Dot</sym>
<type>food</type>
</wpt>
<wpt lat="49.698060" lon="-123.152106">
<name>The Broken Seal</name>
<cmt>bar</cmt>
<desc>Brewery / Pub</desc>
<sym>Dot</sym>
<type>food</type>
</wpt>
<wpt lat="49.698206" lon="-123.153477">
<name>The Copper Coil Still &amp; Grill</name>
<cmt>food</cmt>
<desc>Restaurant</desc>
<sym>Dot</sym>
<type>food</type>
</wpt>
<wpt lat="49.698726" lon="-123.155180">
<name>The Salted Vine</name>
<cmt>food</cmt>
<desc>Restaurant</desc>
<sym>Dot</sym>
<type>food</type>
</wpt>
<wpt lat="49.698678" lon="-123.155177">
<name>Hotel Squamish</name>
<cmt>lodging</cmt>
<desc>Hotel / Motel</desc>
<sym>Dot</sym>
<type>shelter</type>
</wpt>
<wpt lat="49.733653" lon="-123.142126">
<name>Haru Fusion Cuisine</name>
<cmt>food</cmt>
<desc>Restaurant</desc>
<sym>Dot</sym>
<type>food</type>
</wpt>
<wpt lat="49.753473" lon="-123.141644">
<name>The Watershed Grill</name>
<cmt>food</cmt>
<desc>Restaurant</desc>
<sym>Dot</sym>
<type>food</type>
</wpt>
<wpt lat="49.714897" lon="-123.149033">
<name>Gillespie's Fine Spirits</name>
<cmt>winery</cmt>
<desc>Winery / Cidery</desc>
<sym>Dot</sym>
<type>food</type>
</wpt>
<wpt lat="49.727138" lon="-123.132908">
<name>Mamquam River Campground</name>
<cmt>camping</cmt>
<desc>Private Campground</desc>
<sym>Dot</sym>
<type>campsite</type>
</wpt>
<trk><name>Sea to Sky Trail</name>
<trkseg>
<trkpt lat="49.701572" lon="-123.150876"/>
<trkpt lat="49.701560" lon="-123.150010"/>
<trkpt lat="49.701533" lon="-123.147275"/>
<trkpt lat="49.702214" lon="-123.144901"/>
</trkseg>
<trkseg>
<trkpt lat="49.702202" lon="-123.144942"/>
<trkpt lat="49.701733" lon="-123.144724"/>
<trkpt lat="49.701812" lon="-123.144376"/>
<trkpt lat="49.702269" lon="-123.143871"/>
<trkpt lat="49.704910" lon="-123.144528"/>
<trkpt lat="49.707113" lon="-123.143990"/>
<trkpt lat="49.707579" lon="-123.144776"/>
<trkpt lat="49.707605" lon="-123.144854"/>
<trkpt lat="49.710881" lon="-123.142623"/>
<trkpt lat="49.714809" lon="-123.142202"/>
<trkpt lat="49.714869" lon="-123.142286"/>
<trkpt lat="49.718211" lon="-123.141647"/>
<trkpt lat="49.718259" lon="-123.141643"/>
<trkpt lat="49.718296" lon="-123.141651"/>
<trkpt lat="49.720475" lon="-123.141524"/>
<trkpt lat="49.720578" lon="-123.141480"/>
<trkpt lat="49.722122" lon="-123.141309"/>
<trkpt lat="49.722232" lon="-123.141255"/>
<trkpt lat="49.723393" lon="-123.141096"/>
<trkpt lat="49.723453" lon="-123.141087"/>
<trkpt lat="49.724526" lon="-123.141011"/>
<trkpt lat="49.724624" lon="-123.140978"/>
<trkpt lat="49.725120" lon="-123.140869"/>
<trkpt lat="49.725220" lon="-123.140864"/>
<trkpt lat="49.726536" lon="-123.140733"/>
<trkpt lat="49.726573" lon="-123.140391"/>
<trkpt lat="49.726701" lon="-123.140396"/>
<trkpt lat="49.727666" lon="-123.140832"/>
<trkpt lat="49.728185" lon="-123.141933"/>
<trkpt lat="49.728797" lon="-123.141972"/>
<trkpt lat="49.729231" lon="-123.140835"/>
<trkpt lat="49.730802" lon="-123.136913"/>
<trkpt lat="49.732024" lon="-123.134960"/>
<trkpt lat="49.734385" lon="-123.134331"/>
<trkpt lat="49.735028" lon="-123.134651"/>
<trkpt lat="49.744703" lon="-123.135280"/>
<trkpt lat="49.748017" lon="-123.135175"/>
</trkseg>
<trkseg>
<trkpt lat="49.748017" lon="-123.135175"/>
<trkpt lat="49.750888" lon="-123.135328"/>
<trkpt lat="49.752758" lon="-123.133767"/>
<trkpt lat="49.753705" lon="-123.133838"/>
<trkpt lat="49.754227" lon="-123.134250"/>
<trkpt lat="49.754729" lon="-123.134728"/>
<trkpt lat="49.755354" lon="-123.134450"/>
<trkpt lat="49.757652" lon="-123.134438"/>
<trkpt lat="49.757554" lon="-123.136015"/>
<trkpt lat="49.757295" lon="-123.136061"/>
<trkpt lat="49.756999" lon="-123.136109"/>
<trkpt lat="49.756993" lon="-123.136552"/>
<trkpt lat="49.757298" lon="-123.136640"/>
</trkseg>
<trkseg>
<trkpt lat="49.757298" lon="-123.136640"/>
<trkpt lat="49.757213" lon="-123.138557"/>
</trkseg>
<trkseg>
<trkpt lat="49.757213" lon="-123.138557"/>
<trkpt lat="49.757566" lon="-123.138654"/>
<trkpt lat="49.758115" lon="-123.140706"/>
<trkpt lat="49.758022" lon="-123.142197"/>
<trkpt lat="49.760529" lon="-123.144245"/>
<trkpt lat="49.763249" lon="-123.146709"/>
<trkpt lat="49.763634" lon="-123.147066"/>
<trkpt lat="49.765990" lon="-123.149197"/>
<trkpt lat="49.767830" lon="-123.150884"/>
<trkpt lat="49.773518" lon="-123.155944"/>
<trkpt lat="49.776230" lon="-123.158174"/>
<trkpt lat="49.784851" lon="-123.158101"/>
<trkpt lat="49.785423" lon="-123.157472"/>
<trkpt lat="49.785806" lon="-123.156623"/>
</trkseg>
<trkseg>
<trkpt lat="49.785806" lon="-123.156623"/>
<trkpt lat="49.786182" lon="-123.157008"/>
<trkpt lat="49.787411" lon="-123.157840"/>
<trkpt lat="49.788932" lon="-123.158074"/>
<trkpt lat="49.796867" lon="-123.157852"/>
<trkpt lat="49.798621" lon="-123.156973"/>
<trkpt lat="49.799318" lon="-123.157318"/>
<trkpt lat="49.799682" lon="-123.157648"/>
<trkpt lat="49.800173" lon="-123.158239"/>
<trkpt lat="49.800278" lon="-123.158095"/>
<trkpt lat="49.802218" lon="-123.158839"/>
<trkpt lat="49.804295" lon="-123.157156"/>
<trkpt lat="49.805005" lon="-123.156202"/>
<trkpt lat="49.806937" lon="-123.155238"/>
<trkpt lat="49.820179" lon="-123.155486"/>
<trkpt lat="49.823963" lon="-123.154838"/>
<trkpt lat="49.826751" lon="-123.153543"/>
<trkpt lat="49.827131" lon="-123.153315"/>
<trkpt lat="49.828726" lon="-123.153174"/>
<trkpt lat="49.830041" lon="-123.152961"/>
<trkpt lat="49.830778" lon="-123.150800"/>
<trkpt lat="49.831559" lon="-123.150311"/>
<trkpt lat="49.841487" lon="-123.156042"/>
<trkpt lat="49.846209" lon="-123.157512"/>
<trkpt lat="49.848375" lon="-123.158290"/>
<trkpt lat="49.850175" lon="-123.159524"/>
<trkpt lat="49.850301" lon="-123.163298"/>
<trkpt lat="49.850484" lon="-123.163851"/>
<trkpt lat="49.861003" lon="-123.170177"/>
<trkpt lat="49.869819" lon="-123.174585"/>
<trkpt lat="49.871753" lon="-123.175851"/>
<trkpt lat="49.872599" lon="-123.175850"/>
<trkpt lat="49.872749" lon="-123.176153"/>
<trkpt lat="49.876116" lon="-123.178101"/>
<trkpt lat="49.879524" lon="-123.178509"/>
<trkpt lat="49.880083" lon="-123.178929"/>
<trkpt lat="49.880813" lon="-123.178439"/>
<trkpt lat="49.883307" lon="-123.179085"/>
<trkpt lat="49.884460" lon="-123.179307"/>
<trkpt lat="49.884922" lon="-123.179915"/>
<trkpt lat="49.886785" lon="-123.179825"/>
<trkpt lat="49.890036" lon="-123.180885"/>
<trkpt lat="49.891328" lon="-123.181005"/>
<trkpt lat="49.893174" lon="-123.179991"/>
<trkpt lat="49.894717" lon="-123.178638"/>
<trkpt lat="49.896882" lon="-123.178036"/>
<trkpt lat="49.898934" lon="-123.176215"/>
<trkpt lat="49.899032" lon="-123.176089"/>
<trkpt lat="49.900324" lon="-123.175961"/>
<trkpt lat="49.900862" lon="-123.175608"/>
<trkpt lat="49.901192" lon="-123.174896"/>
<trkpt lat="49.902857" lon="-123.173849"/>
<trkpt lat="49.903902" lon="-123.174571"/>
<trkpt lat="49.904617" lon="-123.174421"/>
<trkpt lat="49.905435" lon="-123.174710"/>
<trkpt lat="49.906825" lon="-123.174291"/>
<trkpt lat="49.907276" lon="-123.174581"/>
<trkpt lat="49.907981" lon="-123.173938"/>
<trkpt lat="49.909016" lon="-123.174776"/>
<trkpt lat="49.909408" lon="-123.174741"/>
<trkpt lat="49.909524" lon="-123.174627"/>
<trkpt lat="49.909782" lon="-123.174252"/>
<trkpt lat="49.910342" lon="-123.173024"/>
<trkpt lat="49.912694" lon="-123.173279"/>
<trkpt lat="49.913282" lon="-123.172515"/>
<trkpt lat="49.914135" lon="-123.172570"/>
<trkpt lat="49.914776" lon="-123.171601"/>
<trkpt lat="49.915363" lon="-123.172009"/>
<trkpt lat="49.915864" lon="-123.170740"/>
<trkpt lat="49.916954" lon="-123.170371"/>
<trkpt lat="49.917076" lon="-123.169858"/>
<trkpt lat="49.916861" lon="-123.168652"/>
<trkpt lat="49.917138" lon="-123.166930"/>
<trkpt lat="49.917429" lon="-123.166367"/>
<trkpt lat="49.918389" lon="-123.165666"/>
<trkpt lat="49.918770" lon="-123.164753"/>
<trkpt lat="49.919635" lon="-123.165216"/>
<trkpt lat="49.920164" lon="-123.164975"/>
<trkpt lat="49.921236" lon="-123.166137"/>
<trkpt lat="49.921810" lon="-123.165718"/>
<trkpt lat="49.923297" lon="-123.166438"/>
<trkpt lat="49.923299" lon="-123.166234"/>
<trkpt lat="49.924448" lon="-123.165859"/>
<trkpt lat="49.926422" lon="-123.163669"/>
<trkpt lat="49.930108" lon="-123.162428"/>
<trkpt lat="49.931385" lon="-123.163074"/>
<trkpt lat="49.934020" lon="-123.165829"/>
<trkpt lat="49.936504" lon="-123.166444"/>
<trkpt lat="49.938101" lon="-123.166386"/>
<trkpt lat="49.939009" lon="-123.166675"/>
<trkpt lat="49.939879" lon="-123.167438"/>
<trkpt lat="49.941284" lon="-123.167667"/>
<trkpt lat="49.943344" lon="-123.166571"/>
<trkpt lat="49.945917" lon="-123.166884"/>
<trkpt lat="49.947348" lon="-123.166698"/>
<trkpt lat="49.950639" lon="-123.163042"/>
<trkpt lat="49.953404" lon="-123.161455"/>
<trkpt lat="49.954525" lon="-123.160487"/>
<trkpt lat="49.958219" lon="-123.159472"/>
</trkseg>
<trkseg>
<trkpt lat="49.958219" lon="-123.159472"/>
<trkpt lat="49.959906" lon="-123.157615"/>
<trkpt lat="49.960996" lon="-123.156404"/>
</trkseg>
<trkseg>
<trkpt lat="49.960996" lon="-123.156404"/>
<trkpt lat="49.959139" lon="-123.158799"/>
<trkpt lat="49.958219" lon="-123.159472"/>
</trkseg>
<trkseg>
<trkpt lat="49.960996" lon="-123.156404"/>
<trkpt lat="49.961389" lon="-123.156943"/>
<trkpt lat="49.961947" lon="-123.157236"/>
<trkpt lat="49.962188" lon="-123.157740"/>
<trkpt lat="49.962384" lon="-123.157805"/>
<trkpt lat="49.963469" lon="-123.158948"/>
<trkpt lat="49.964413" lon="-123.159272"/>
<trkpt lat="49.965894" lon="-123.158947"/>
<trkpt lat="49.966975" lon="-123.159804"/>
<trkpt lat="49.968286" lon="-123.160309"/>
<trkpt lat="49.969198" lon="-123.161634"/>
<trkpt lat="49.969074" lon="-123.162413"/>
<trkpt lat="49.969597" lon="-123.162246"/>
<trkpt lat="49.970063" lon="-123.159284"/>
<trkpt lat="49.970461" lon="-123.158365"/>
<trkpt lat="49.970573" lon="-123.157513"/>
<trkpt lat="49.970401" lon="-123.156266"/>
<trkpt lat="49.969735" lon="-123.154410"/>
<trkpt lat="49.969786" lon="-123.154041"/>
<trkpt lat="49.972138" lon="-123.153069"/>
<trkpt lat="49.972497" lon="-123.151819"/>
<trkpt lat="49.973121" lon="-123.151427"/>
<trkpt lat="49.974215" lon="-123.151464"/>
<trkpt lat="49.976129" lon="-123.150779"/>
<trkpt lat="49.976747" lon="-123.150920"/>
<trkpt lat="49.976981" lon="-123.152101"/>
<trkpt lat="49.977548" lon="-123.153269"/>
<trkpt lat="49.978156" lon="-123.153605"/>
<trkpt lat="49.979564" lon="-123.153948"/>
<trkpt lat="49.982580" lon="-123.153284"/>
<trkpt lat="49.984551" lon="-123.152478"/>
<trkpt lat="49.988095" lon="-123.152905"/>
<trkpt lat="49.988658" lon="-123.151573"/>
<trkpt lat="49.988718" lon="-123.150805"/>
<trkpt lat="49.988198" lon="-123.149796"/>
<trkpt lat="49.988290" lon="-123.149596"/>
<trkpt lat="49.989674" lon="-123.146429"/>
<trkpt lat="49.988860" lon="-123.144277"/>
<trkpt lat="49.989491" lon="-123.143252"/>
<trkpt lat="49.990601" lon="-123.142662"/>
<trkpt lat="49.991774" lon="-123.142480"/>
<trkpt lat="49.994400" lon="-123.140797"/>
<trkpt lat="49.994391" lon="-123.140454"/>
<trkpt lat="49.996379" lon="-123.139847"/>
<trkpt lat="49.998507" lon="-123.138134"/>
<trkpt lat="50.002309" lon="-123.136882"/>
<trkpt lat="50.003434" lon="-123.136184"/>
<trkpt lat="50.004384" lon="-123.135073"/>
<trkpt lat="50.005388" lon="-123.132607"/>
<trkpt lat="50.005318" lon="-123.132186"/>
</trkseg>
<trkseg>
<trkpt lat="50.005318" lon="-123.132186"/>
<trkpt lat="50.006931" lon="-123.130179"/>
<trkpt lat="50.009397" lon="-123.126373"/>
<trkpt lat="50.012158" lon="-123.124830"/>
</trkseg>
<trkseg>
<trkpt lat="50.012158" lon="-123.124830"/>
<trkpt lat="50.009464" lon="-123.126527"/>
<trkpt lat="50.009101" lon="-123.126987"/>
<trkpt lat="50.007873" lon="-123.128827"/>
<trkpt lat="50.006770" lon="-123.130657"/>
<trkpt lat="50.005318" lon="-123.132186"/>
</trkseg>
<trkseg>
<trkpt lat="50.012158" lon="-123.124830"/>
<trkpt lat="50.016054" lon="-123.123030"/>
<trkpt lat="50.019523" lon="-123.122913"/>
<trkpt lat="50.024859" lon="-123.120727"/>
<trkpt lat="50.028752" lon="-123.121187"/>
<trkpt lat="50.030851" lon="-123.122000"/>
<trkpt lat="50.033139" lon="-123.123249"/>
<trkpt lat="50.033299" lon="-123.123339"/>
<trkpt lat="50.034948" lon="-123.123544"/>
</trkseg>
<trkseg>
<trkpt lat="50.034948" lon="-123.123544"/>
<trkpt lat="50.036205" lon="-123.122889"/>
<trkpt lat="50.037601" lon="-123.122353"/>
</trkseg>
<trkseg>
<trkpt lat="50.037867" lon="-123.122348"/>
<trkpt lat="50.035424" lon="-123.123402"/>
<trkpt lat="50.034948" lon="-123.123544"/>
</trkseg>
<trkseg>
<trkpt lat="50.037576" lon="-123.121625"/>
<trkpt lat="50.037939" lon="-123.120566"/>
<trkpt lat="50.038030" lon="-123.120423"/>
</trkseg>
<trkseg>
<trkpt lat="50.038044" lon="-123.120382"/>
<trkpt lat="50.036989" lon="-123.118622"/>
<trkpt lat="50.036389" lon="-123.118334"/>
<trkpt lat="50.035924" lon="-123.117306"/>
<trkpt lat="50.036125" lon="-123.116197"/>
<trkpt lat="50.035609" lon="-123.115384"/>
<trkpt lat="50.035556" lon="-123.114443"/>
<trkpt lat="50.035270" lon="-123.113713"/>
<trkpt lat="50.034361" lon="-123.112930"/>
<trkpt lat="50.034897" lon="-123.111965"/>
<trkpt lat="50.034164" lon="-123.112013"/>
<trkpt lat="50.033265" lon="-123.112621"/>
<trkpt lat="50.033573" lon="-123.110979"/>
<trkpt lat="50.035064" lon="-123.111273"/>
<trkpt lat="50.035488" lon="-123.111036"/>
<trkpt lat="50.035685" lon="-123.111276"/>
<trkpt lat="50.035819" lon="-123.111009"/>
<trkpt lat="50.035899" lon="-123.111348"/>
<trkpt lat="50.036772" lon="-123.110920"/>
<trkpt lat="50.036973" lon="-123.111100"/>
<trkpt lat="50.037655" lon="-123.110003"/>
<trkpt lat="50.038862" lon="-123.109053"/>
<trkpt lat="50.039141" lon="-123.107895"/>
<trkpt lat="50.038755" lon="-123.108202"/>
<trkpt lat="50.038325" lon="-123.108038"/>
<trkpt lat="50.038009" lon="-123.107067"/>
<trkpt lat="50.039134" lon="-123.105333"/>
<trkpt lat="50.039070" lon="-123.104027"/>
<trkpt lat="50.040010" lon="-123.103385"/>
<trkpt lat="50.039854" lon="-123.102152"/>
<trkpt lat="50.039917" lon="-123.101887"/>
<trkpt lat="50.040700" lon="-123.102385"/>
</trkseg>
<trkseg>
<trkpt lat="50.032073" lon="-123.103024"/>
<trkpt lat="50.034522" lon="-123.099900"/>
<trkpt lat="50.035818" lon="-123.099523"/>
<trkpt lat="50.039617" lon="-123.102465"/>
<trkpt lat="50.045277" lon="-123.102882"/>
<trkpt lat="50.045770" lon="-123.102423"/>
<trkpt lat="50.046710" lon="-123.099987"/>
<trkpt lat="50.047359" lon="-123.099612"/>
<trkpt lat="50.052477" lon="-123.100165"/>
<trkpt lat="50.054757" lon="-123.099360"/>
<trkpt lat="50.056734" lon="-123.097918"/>
<trkpt lat="50.057131" lon="-123.097948"/>
<trkpt lat="50.057786" lon="-123.098662"/>
<trkpt lat="50.058256" lon="-123.099202"/>
<trkpt lat="50.058637" lon="-123.099552"/>
<trkpt lat="50.059589" lon="-123.099410"/>
<trkpt lat="50.062450" lon="-123.098004"/>
<trkpt lat="50.065189" lon="-123.100126"/>
<trkpt lat="50.065529" lon="-123.100206"/>
<trkpt lat="50.066004" lon="-123.099767"/>
<trkpt lat="50.066317" lon="-123.100132"/>
</trkseg>
<trkseg>
<trkpt lat="50.062695" lon="-123.098129"/>
<trkpt lat="50.064087" lon="-123.098209"/>
<trkpt lat="50.064650" lon="-123.097046"/>
<trkpt lat="50.065612" lon="-123.096276"/>
<trkpt lat="50.065799" lon="-123.095377"/>
<trkpt lat="50.066953" lon="-123.094802"/>
<trkpt lat="50.068125" lon="-123.093274"/>
<trkpt lat="50.068095" lon="-123.093798"/>
<trkpt lat="50.068550" lon="-123.093058"/>
<trkpt lat="50.068871" lon="-123.093000"/>
<trkpt lat="50.068640" lon="-123.093502"/>
<trkpt lat="50.068632" lon="-123.094529"/>
<trkpt lat="50.069564" lon="-123.092644"/>
<trkpt lat="50.072287" lon="-123.091981"/>
<trkpt lat="50.074618" lon="-123.087650"/>
<trkpt lat="50.074741" lon="-123.085414"/>
<trkpt lat="50.075279" lon="-123.083349"/>
<trkpt lat="50.074772" lon="-123.080146"/>
<trkpt lat="50.074330" lon="-123.079873"/>
<trkpt lat="50.074073" lon="-123.079809"/>
<trkpt lat="50.073982" lon="-123.079729"/>
<trkpt lat="50.073812" lon="-123.079008"/>
<trkpt lat="50.072965" lon="-123.078374"/>
<trkpt lat="50.072862" lon="-123.077463"/>
<trkpt lat="50.073495" lon="-123.076149"/>
<trkpt lat="50.073582" lon="-123.075191"/>
<trkpt lat="50.074320" lon="-123.074778"/>
<trkpt lat="50.075090" lon="-123.070751"/>
<trkpt lat="50.073965" lon="-123.070129"/>
<trkpt lat="50.073752" lon="-123.069131"/>
<trkpt lat="50.073119" lon="-123.068578"/>
<trkpt lat="50.073743" lon="-123.066246"/>
<trkpt lat="50.073585" lon="-123.065769"/>
<trkpt lat="50.073441" lon="-123.064643"/>
<trkpt lat="50.074226" lon="-123.064645"/>
<trkpt lat="50.074763" lon="-123.064137"/>
<trkpt lat="50.074989" lon="-123.063018"/>
<trkpt lat="50.075759" lon="-123.061790"/>
<trkpt lat="50.075655" lon="-123.061235"/>
<trkpt lat="50.075870" lon="-123.060713"/>
<trkpt lat="50.076516" lon="-123.059860"/>
<trkpt lat="50.076258" lon="-123.059626"/>
<trkpt lat="50.076355" lon="-123.059463"/>
<trkpt lat="50.077642" lon="-123.058768"/>
<trkpt lat="50.077370" lon="-123.057443"/>
<trkpt lat="50.077620" lon="-123.056894"/>
<trkpt lat="50.078422" lon="-123.057032"/>
<trkpt lat="50.078509" lon="-123.056033"/>
<trkpt lat="50.079173" lon="-123.054441"/>
<trkpt lat="50.080673" lon="-123.053511"/>
<trkpt lat="50.080885" lon="-123.052854"/>
<trkpt lat="50.080826" lon="-123.051580"/>
<trkpt lat="50.080227" lon="-123.049907"/>
<trkpt lat="50.080036" lon="-123.048746"/>
<trkpt lat="50.079545" lon="-123.047879"/>
<trkpt lat="50.080195" lon="-123.046054"/>
<trkpt lat="50.080608" lon="-123.045798"/>
<trkpt lat="50.080833" lon="-123.045193"/>
<trkpt lat="50.082366" lon="-123.042012"/>
<trkpt lat="50.081954" lon="-123.040337"/>
<trkpt lat="50.081164" lon="-123.039375"/>
</trkseg>
<trkseg>
<trkpt lat="50.080837" lon="-123.040023"/>
<trkpt lat="50.081088" lon="-123.039309"/>
<trkpt lat="50.081133" lon="-123.037946"/>
<trkpt lat="50.081349" lon="-123.037677"/>
<trkpt lat="50.081694" lon="-123.037314"/>
<trkpt lat="50.083081" lon="-123.037392"/>
<trkpt lat="50.084085" lon="-123.036510"/>
<trkpt lat="50.085032" lon="-123.036853"/>
<trkpt lat="50.086166" lon="-123.036548"/>
<trkpt lat="50.086534" lon="-123.035323"/>
<trkpt lat="50.085467" lon="-123.035104"/>
<trkpt lat="50.086418" lon="-123.034314"/>
<trkpt lat="50.086702" lon="-123.033735"/>
<trkpt lat="50.086549" lon="-123.033447"/>
<trkpt lat="50.086586" lon="-123.031425"/>
<trkpt lat="50.086181" lon="-123.029575"/>
<trkpt lat="50.086628" lon="-123.028441"/>
<trkpt lat="50.086792" lon="-123.026437"/>
<trkpt lat="50.086899" lon="-123.026323"/>
<trkpt lat="50.087087" lon="-123.025953"/>
<trkpt lat="50.087088" lon="-123.024659"/>
<trkpt lat="50.087079" lon="-123.023825"/>
<trkpt lat="50.086319" lon="-123.023554"/>
<trkpt lat="50.085651" lon="-123.022119"/>
<trkpt lat="50.085677" lon="-123.021308"/>
<trkpt lat="50.086329" lon="-123.020246"/>
<trkpt lat="50.086495" lon="-123.019520"/>
<trkpt lat="50.086283" lon="-123.017121"/>
<trkpt lat="50.086540" lon="-123.016409"/>
<trkpt lat="50.086434" lon="-123.015631"/>
<trkpt lat="50.086995" lon="-123.013629"/>
<trkpt lat="50.086689" lon="-123.011964"/>
<trkpt lat="50.086324" lon="-123.011376"/>
<trkpt lat="50.086347" lon="-123.011185"/>
<trkpt lat="50.086196" lon="-123.010365"/>
<trkpt lat="50.086675" lon="-123.008922"/>
<trkpt lat="50.087774" lon="-123.009298"/>
<trkpt lat="50.088465" lon="-123.009303"/>
<trkpt lat="50.088401" lon="-123.008351"/>
<trkpt lat="50.088466" lon="-123.008363"/>
<trkpt lat="50.088966" lon="-123.006826"/>
<trkpt lat="50.089119" lon="-123.005533"/>
<trkpt lat="50.088835" lon="-123.004618"/>
<trkpt lat="50.088101" lon="-123.003891"/>
<trkpt lat="50.087886" lon="-123.003102"/>
<trkpt lat="50.087962" lon="-123.001962"/>
<trkpt lat="50.088901" lon="-122.998965"/>
<trkpt lat="50.088982" lon="-122.998962"/>
<trkpt lat="50.089712" lon="-122.998918"/>
<trkpt lat="50.089746" lon="-122.998865"/>
<trkpt lat="50.090001" lon="-122.999063"/>
<trkpt lat="50.090772" lon="-122.997764"/>
<trkpt lat="50.090894" lon="-122.999003"/>
<trkpt lat="50.091141" lon="-122.999350"/>
<trkpt lat="50.091785" lon="-122.999566"/>
<trkpt lat="50.092422" lon="-122.998730"/>
<trkpt lat="50.093415" lon="-123.000017"/>
<trkpt lat="50.093958" lon="-122.999931"/>
<trkpt lat="50.094041" lon="-122.999163"/>
<trkpt lat="50.094350" lon="-122.999130"/>
<trkpt lat="50.095103" lon="-122.998193"/>
<trkpt lat="50.095713" lon="-122.996408"/>
<trkpt lat="50.096200" lon="-122.996574"/>
<trkpt lat="50.096793" lon="-122.996168"/>
<trkpt lat="50.096787" lon="-122.994804"/>
<trkpt lat="50.098044" lon="-122.994026"/>
<trkpt lat="50.098485" lon="-122.992661"/>
<trkpt lat="50.098642" lon="-122.992599"/>
<trkpt lat="50.098712" lon="-122.992597"/>
<trkpt lat="50.100036" lon="-122.993532"/>
<trkpt lat="50.100838" lon="-122.993686"/>
<trkpt lat="50.101202" lon="-122.992925"/>
<trkpt lat="50.101759" lon="-122.992791"/>
<trkpt lat="50.102558" lon="-122.990308"/>
<trkpt lat="50.103159" lon="-122.990117"/>
<trkpt lat="50.103117" lon="-122.988798"/>
<trkpt lat="50.103594" lon="-122.987801"/>
<trkpt lat="50.104173" lon="-122.987402"/>
<trkpt lat="50.104189" lon="-122.985728"/>
<trkpt lat="50.104666" lon="-122.984114"/>
<trkpt lat="50.105479" lon="-122.984179"/>
<trkpt lat="50.106086" lon="-122.983568"/>
<trkpt lat="50.106621" lon="-122.983171"/>
<trkpt lat="50.107294" lon="-122.982115"/>
<trkpt lat="50.107406" lon="-122.980948"/>
<trkpt lat="50.107469" lon="-122.979365"/>
<trkpt lat="50.109730" lon="-122.978239"/>
<trkpt lat="50.109722" lon="-122.976941"/>
<trkpt lat="50.110807" lon="-122.976174"/>
<trkpt lat="50.111197" lon="-122.975347"/>
<trkpt lat="50.111457" lon="-122.974208"/>
<trkpt lat="50.110646" lon="-122.972745"/>
<trkpt lat="50.110455" lon="-122.971086"/>
<trkpt lat="50.109918" lon="-122.970930"/>
<trkpt lat="50.109808" lon="-122.971212"/>
</trkseg>
<trkseg>
<trkpt lat="50.110019" lon="-122.970965"/>
<trkpt lat="50.109744" lon="-122.967988"/>
<trkpt lat="50.110004" lon="-122.966859"/>
<trkpt lat="50.110549" lon="-122.966301"/>
<trkpt lat="50.110745" lon="-122.965486"/>
<trkpt lat="50.110550" lon="-122.963711"/>
<trkpt lat="50.110690" lon="-122.963094"/>
<trkpt lat="50.112611" lon="-122.960214"/>
<trkpt lat="50.113870" lon="-122.959704"/>
<trkpt lat="50.114198" lon="-122.959915"/>
<trkpt lat="50.114152" lon="-122.958701"/>
<trkpt lat="50.114400" lon="-122.958354"/>
<trkpt lat="50.114180" lon="-122.957810"/>
</trkseg>
<trkseg>
<trkpt lat="49.787375" lon="-123.134554"/>
<trkpt lat="49.784902" lon="-123.139465"/>
<trkpt lat="49.783750" lon="-123.147458"/>
<trkpt lat="49.781811" lon="-123.151374"/>
<trkpt lat="49.782088" lon="-123.152551"/>
<trkpt lat="49.785419" lon="-123.156188"/>
<trkpt lat="49.785806" lon="-123.156623"/>
</trkseg>
<trkseg>
<trkpt lat="49.757213" lon="-123.138557"/>
<trkpt lat="49.757298" lon="-123.136640"/>
</trkseg>
<trkseg>
<trkpt lat="49.748037" lon="-123.135049"/>
<trkpt lat="49.748017" lon="-123.135175"/>
</trkseg>
</trk>
</gpx>