<?xml version="1.0" encoding="UTF-8"?>
<gpx version="1.1" creator="We Welcome Cyclists (bccycletourism.ca)" xmlns="http://www.topografix.com/GPX/1/1">
<metadata>
<name>West Vancouver Bike Route Network</name>
<link href="https://bccycletourism.ca/trail/west-vancouver-bike-route-network/"><text>We Welcome Cyclists</text></link>
</metadata>
<wpt lat="49.334568" lon="-123.180363">
<name>The Red Lion Bar &amp; Grill</name>
<cmt>food</cmt>
<desc>Restaurant</desc>
<sym>Dot</sym>
<type>food</type>
</wpt>
<wpt lat="49.327098" lon="-123.155936">
<name>Argyle Village Pollinator Garden</name>
<cmt>park</cmt>
<desc>Park / Nature</desc>
<sym>Dot</sym>
<type>rest_area</type>
</wpt>
<wpt lat="49.373832" lon="-123.274601">
<name>Horseshoe Bay Chinese Restaurant</name>
<cmt>food</cmt>
<desc>Restaurant</desc>
<sym>Dot</sym>
<type>food</type>
</wpt>
<wpt lat="49.374068" lon="-123.274785">
<name>Seaside Village Cafe</name>
<cmt>coffee</cmt>
<desc>Café / Coffee</desc>
<sym>Dot</sym>
<type>food</type>
</wpt>
<wpt lat="49.373866" lon="-123.274560">
<name>Pudgie's Pizza &amp; Pasta</name>
<cmt>food</cmt>
<desc>Restaurant</desc>
<sym>Dot</sym>
<type>food</type>
</wpt>
<wpt lat="49.374433" lon="-123.274436">
<name>Troll's</name>
<cmt>food</cmt>
<desc>Restaurant</desc>
<sym>Dot</sym>
<type>food</type>
</wpt>
<wpt lat="49.334731" lon="-123.180938">
<name>The Bakehouse</name>
<cmt>food</cmt>
<desc>Bakery / Donuts</desc>
<sym>Dot</sym>
<type>food</type>
</wpt>
<wpt lat="49.373735" lon="-123.274675">
<name>Subway</name>
<cmt>food</cmt>
<desc>Fast Food / Chain</desc>
<sym>Dot</sym>
<type>food</type>
</wpt>
<wpt lat="49.373971" lon="-123.274435">
<name>C Lovers</name>
<cmt>food</cmt>
<desc>Restaurant</desc>
<sym>Dot</sym>
<type>food</type>
</wpt>
<wpt lat="49.328008" lon="-123.155488">
<name>Carmelo's</name>
<cmt>food</cmt>
<desc>Restaurant</desc>
<sym>Dot</sym>
<type>food</type>
</wpt>
<wpt lat="49.328008" lon="-123.155488">
<name>BC Liquor Store</name>
<cmt>convenience_store</cmt>
<desc>Liquor Store</desc>
<sym>Dot</sym>
<type>store</type>
</wpt>
<wpt lat="49.327502" lon="-123.156267">
<name>Fred's</name>
<cmt>food</cmt>
<desc>Restaurant</desc>
<sym>Dot</sym>
<type>food</type>
</wpt>
<wpt lat="49.374243" lon="-123.273188">
<name>Baskin-Robbins</name>
<cmt>food</cmt>
<desc>Ice Cream</desc>
<sym>Dot</sym>
<type>food</type>
</wpt>
<wpt lat="49.374281" lon="-123.274115">
<name>Starbucks</name>
<cmt>food</cmt>
<desc>Fast Food / Chain</desc>
<sym>Dot</sym>
<type>food</type>
</wpt>
<wpt lat="49.328089" lon="-123.156079">
<name>Thai Pudpong</name>
<cmt>food</cmt>
<desc>Restaurant</desc>
<sym>Dot</sym>
<type>food</type>
</wpt>
<wpt lat="49.327519" lon="-123.156601">
<name>Crema Cafe &amp; Bar</name>
<cmt>coffee</cmt>
<desc>Café / Coffee</desc>
<sym>Dot</sym>
<type>food</type>
</wpt>
<wpt lat="49.374596" lon="-123.274800">
<name>Olive &amp; Anchor</name>
<cmt>food</cmt>
<desc>Restaurant</desc>
<sym>Dot</sym>
<type>food</type>
</wpt>
<wpt lat="49.328042" lon="-123.155809">
<name>Golestan Bakery</name>
<cmt>food</cmt>
<desc>Bakery / Donuts</desc>
<sym>Dot</sym>
<type>food</type>
</wpt>
<wpt lat="49.328093" lon="-123.154578">
<name>Wooden Fish</name>
<cmt>food</cmt>
<desc>Restaurant</desc>
<sym>Dot</sym>
<type>food</type>
</wpt>
<wpt lat="49.374261" lon="-123.273524">
<name>Troller Ale House</name>
<cmt>bar</cmt>
<desc>Brewery / Pub</desc>
<sym>Dot</sym>
<type>food</type>
</wpt>
<wpt lat="49.374216" lon="-123.273054">
<name>Blenz</name>
<cmt>coffee</cmt>
<desc>Café / Coffee</desc>
<sym>Dot</sym>
<type>food</type>
</wpt>
<wpt lat="49.334171" lon="-123.178624">
<name>Sorrento's Pizza</name>
<cmt>food</cmt>
<desc>Restaurant</desc>
<sym>Dot</sym>
<type>food</type>
</wpt>
<wpt lat="49.327545" lon="-123.156972">
<name>TCBY</name>
<cmt>food</cmt>
<desc>Ice Cream</desc>
<sym>Dot</sym>
<type>food</type>
</wpt>
<wpt lat="49.328501" lon="-123.161089">
<name>Swad Indian Kitchen</name>
<cmt>food</cmt>
<desc>Restaurant</desc>
<sym>Dot</sym>
<type>food</type>
</wpt>
<wpt lat="49.328271" lon="-123.157314">
<name>The Anchor Eatery</name>
<cmt>coffee</cmt>
<desc>Café / Coffee</desc>
<sym>Dot</sym>
<type>food</type>
</wpt>
<wpt lat="49.374276" lon="-123.273828">
<name>Fresh Bay Pizza</name>
<cmt>food</cmt>
<desc>Restaurant</desc>
<sym>Dot</sym>
<type>food</type>
</wpt>
<wpt lat="49.335074" lon="-123.182179">
<name>IGA</name>
<cmt>convenience_store</cmt>
<desc>Grocery Store</desc>
<sym>Dot</sym>
<type>store</type>
</wpt>
<wpt lat="49.328494" lon="-123.161600">
<name>Dairy Queen</name>
<cmt>food</cmt>
<desc>Ice Cream</desc>
<sym>Dot</sym>
<type>food</type>
</wpt>
<wpt lat="49.328044" lon="-123.154183">
<name>7-Eleven</name>
<cmt>convenience_store</cmt>
<desc>Convenience Store</desc>
<sym>Dot</sym>
<type>store</type>
</wpt>
<wpt lat="49.328315" lon="-123.157649">
<name>KI-ISU Japanese Restaurant</name>
<cmt>food</cmt>
<desc>Restaurant</desc>
<sym>Dot</sym>
<type>food</type>
</wpt>
<wpt lat="49.328271" lon="-123.157384">
<name>Bean Around The World Coffees</name>
<cmt>coffee</cmt>
<desc>Café / Coffee</desc>
<sym>Dot</sym>
<type>food</type>
</wpt>
<wpt lat="49.328891" lon="-123.165460">
<name>West Vancouver Memorial Library</name>
<cmt>library</cmt>
<desc>Library</desc>
<sym>Dot</sym>
<type>info</type>
</wpt>
<wpt lat="49.328498" lon="-123.163355">
<name>Cindy's</name>
<cmt>food</cmt>
<desc>Restaurant</desc>
<sym>Dot</sym>
<type>food</type>
</wpt>
<wpt lat="49.328484" lon="-123.160865">
<name>Starbucks</name>
<cmt>food</cmt>
<desc>Fast Food / Chain</desc>
<sym>Dot</sym>
<type>food</type>
</wpt>
<wpt lat="49.328773" lon="-123.160993">
<name>Gandoum Bakery</name>
<cmt>food</cmt>
<desc>Bakery / Donuts</desc>
<sym>Dot</sym>
<type>food</type>
</wpt>
<wpt lat="49.328597" lon="-123.157583">
<name>Savary Island Pie Company</name>
<cmt>food</cmt>
<desc>Bakery / Donuts</desc>
<sym>Dot</sym>
<type>food</type>
</wpt>
<wpt lat="49.328773" lon="-123.161118">
<name>SSal Sushi &amp; Grill</name>
<cmt>food</cmt>
<desc>Restaurant</desc>
<sym>Dot</sym>
<type>food</type>
</wpt>
<wpt lat="49.328774" lon="-123.161237">
<name>Hatam</name>
<cmt>food</cmt>
<desc>Restaurant</desc>
<sym>Dot</sym>
<type>food</type>
</wpt>
<wpt lat="49.328377" lon="-123.158127">
<name>The Bridge</name>
<cmt>food</cmt>
<desc>Restaurant</desc>
<sym>Dot</sym>
<type>food</type>
</wpt>
<wpt lat="49.328010" lon="-123.153944">
<name>Freshslice Pizza</name>
<cmt>food</cmt>
<desc>Fast Food / Chain</desc>
<sym>Dot</sym>
<type>food</type>
</wpt>
<wpt lat="49.327644" lon="-123.153644">
<name>BLAH</name>
<cmt>monument</cmt>
<desc>Museum / Gallery</desc>
<sym>Dot</sym>
<type>info</type>
</wpt>
<wpt lat="49.328218" lon="-123.155112">
<name>Lao Cai Chinese Cuisine</name>
<cmt>food</cmt>
<desc>Restaurant</desc>
<sym>Dot</sym>
<type>food</type>
</wpt>
<wpt lat="49.328355" lon="-123.155971">
<name>Persia Foods Produce Markets</name>
<cmt>convenience_store</cmt>
<desc>Grocery Store</desc>
<sym>Dot</sym>
<type>store</type>
</wpt>
<wpt lat="49.327566" lon="-123.153123">
<name>ABURI Market</name>
<cmt>convenience_store</cmt>
<desc>Convenience Store</desc>
<sym>Dot</sym>
<type>store</type>
</wpt>
<wpt lat="49.328395" lon="-123.158427">
<name>Bene Sushi Lounge</name>
<cmt>food</cmt>
<desc>Restaurant</desc>
<sym>Dot</sym>
<type>food</type>
</wpt>
<wpt lat="49.331072" lon="-123.172360">
<name>The Modern Pantry</name>
<cmt>food</cmt>
<desc>Bakery / Donuts</desc>
<sym>Dot</sym>
<type>food</type>
</wpt>
<wpt lat="49.334145" lon="-123.180058">
<name>Delany's Coffee House</name>
<cmt>coffee</cmt>
<desc>Café / Coffee</desc>
<sym>Dot</sym>
<type>food</type>
</wpt>
<wpt lat="49.327243" lon="-123.152888">
<name>Thierry</name>
<cmt>coffee</cmt>
<desc>Café / Coffee</desc>
<sym>Dot</sym>
<type>food</type>
</wpt>
<wpt lat="49.326962" lon="-123.154865">
<name>Ferry Building Gallery</name>
<cmt>monument</cmt>
<desc>Museum / Gallery</desc>
<sym>Dot</sym>
<type>info</type>
</wpt>
<wpt lat="49.331079" lon="-123.171312">
<name>Casa Mia</name>
<cmt>food</cmt>
<desc>Restaurant</desc>
<sym>Dot</sym>
<type>food</type>
</wpt>
<wpt lat="49.331003" lon="-123.172299">
<name>Zen Japanese Restaurant</name>
<cmt>food</cmt>
<desc>Restaurant</desc>
<sym>Dot</sym>
<type>food</type>
</wpt>
<wpt lat="49.326773" lon="-123.137509">
<name>The Keg</name>
<cmt>food</cmt>
<desc>Restaurant</desc>
<sym>Dot</sym>
<type>food</type>
</wpt>
<wpt lat="49.328436" lon="-123.163550">
<name>Raku Japanese Kitchen</name>
<cmt>food</cmt>
<desc>Restaurant</desc>
<sym>Dot</sym>
<type>food</type>
</wpt>
<wpt lat="49.327348" lon="-123.153330">
<name>Ancora</name>
<cmt>food</cmt>
<desc>Restaurant</desc>
<sym>Dot</sym>
<type>food</type>
</wpt>
<wpt lat="49.327463" lon="-123.153993">
<name>Earls</name>
<cmt>food</cmt>
<desc>Restaurant</desc>
<sym>Dot</sym>
<type>food</type>
</wpt>
<wpt lat="49.326635" lon="-123.139869">
<name>McDonald's</name>
<cmt>food</cmt>
<desc>Fast Food / Chain</desc>
<sym>Dot</sym>
<type>food</type>
</wpt>
<wpt lat="49.340540" lon="-123.239568">
<name>Isetta Cafe Bistro</name>
<cmt>food</cmt>
<desc>Restaurant</desc>
<sym>Dot</sym>
<type>food</type>
</wpt>
<wpt lat="49.358938" lon="-123.267010">
<name>JJ's Kitchen</name>
<cmt>food</cmt>
<desc>Restaurant</desc>
<sym>Dot</sym>
<type>food</type>
</wpt>
<wpt lat="49.327633" lon="-123.156601">
<name>Patisserie Le Pont</name>
<cmt>food</cmt>
<desc>Bakery / Donuts</desc>
<sym>Dot</sym>
<type>food</type>
</wpt>
<wpt lat="49.328537" lon="-123.156626">
<name>Subway</name>
<cmt>food</cmt>
<desc>Fast Food / Chain</desc>
<sym>Dot</sym>
<type>food</type>
</wpt>
<wpt lat="49.373344" lon="-123.274863">
<name>Horseshoe Bay Motel</name>
<cmt>lodging</cmt>
<desc>Hotel / Motel</desc>
<sym>Dot</sym>
<type>shelter</type>
</wpt>
<wpt lat="49.334793" lon="-123.182934">
<name>Vina Vietnamese Restaurant</name>
<cmt>food</cmt>
<desc>Restaurant</desc>
<sym>Dot</sym>
<type>food</type>
</wpt>
<wpt lat="49.328694" lon="-123.157425">
<name>Esso</name>
<cmt>convenience_store</cmt>
<desc>Convenience Store</desc>
<sym>Dot</sym>
<type>store</type>
</wpt>
<wpt lat="49.327889" lon="-123.158346">
<name>16th Street Liquor Store</name>
<cmt>convenience_store</cmt>
<desc>Liquor Store</desc>
<sym>Dot</sym>
<type>store</type>
</wpt>
<wpt lat="49.328377" lon="-123.155020">
<name>Squarerigger Pub</name>
<cmt>bar</cmt>
<desc>Brewery / Pub</desc>
<sym>Dot</sym>
<type>food</type>
</wpt>
<wpt lat="49.327998" lon="-123.152581">
<name>Shell Select</name>
<cmt>convenience_store</cmt>
<desc>Convenience Store</desc>
<sym>Dot</sym>
<type>store</type>
</wpt>
<wpt lat="49.335070" lon="-123.181239">
<name>Angry Otter Liquor</name>
<cmt>convenience_store</cmt>
<desc>Liquor Store</desc>
<sym>Dot</sym>
<type>store</type>
</wpt>
<wpt lat="49.328050" lon="-123.159900">
<name>Okanagan Estate Wine Cellar</name>
<cmt>winery</cmt>
<desc>Winery / Cidery</desc>
<sym>Dot</sym>
<type>food</type>
</wpt>
<wpt lat="49.326303" lon="-123.143709">
<name>Milestones</name>
<cmt>food</cmt>
<desc>Restaurant</desc>
<sym>Dot</sym>
<type>food</type>
</wpt>
<wpt lat="49.329031" lon="-123.159483">
<name>Chevron Convenience Store</name>
<cmt>convenience_store</cmt>
<desc>Convenience Store</desc>
<sym>Dot</sym>
<type>store</type>
</wpt>
<wpt lat="49.328101" lon="-123.160036">
<name>Fresh St. Market</name>
<cmt>convenience_store</cmt>
<desc>Grocery Store</desc>
<sym>Dot</sym>
<type>store</type>
</wpt>
<wpt lat="49.364221" lon="-123.278056">
<name>Gleneagles Community Centre</name>
<cmt>rest_stop</cmt>
<desc>Community Centre</desc>
<sym>Dot</sym>
<type>rest_area</type>
</wpt>
<wpt lat="49.326805" lon="-123.158234">
<name>Silk Purse</name>
<cmt>monument</cmt>
<desc>Museum / Gallery</desc>
<sym>Dot</sym>
<type>info</type>
</wpt>
<wpt lat="49.330988" lon="-123.170201">
<name>West Vancouver Recreation Centre</name>
<cmt>rest_stop</cmt>
<desc>Community Centre</desc>
<sym>Dot</sym>
<type>rest_area</type>
</wpt>
<wpt lat="49.328482" lon="-123.155004">
<name>Mani</name>
<cmt>food</cmt>
<desc>Restaurant</desc>
<sym>Dot</sym>
<type>food</type>
</wpt>
<wpt lat="49.328159" lon="-123.161922">
<name>Kin Sushi</name>
<cmt>food</cmt>
<desc>Restaurant</desc>
<sym>Dot</sym>
<type>food</type>
</wpt>
<wpt lat="49.328162" lon="-123.161789">
<name>Panago</name>
<cmt>food</cmt>
<desc>Fast Food / Chain</desc>
<sym>Dot</sym>
<type>food</type>
</wpt>
<wpt lat="49.375750" lon="-123.275880">
<name>Goldie's Donuts and Bakery</name>
<cmt>food</cmt>
<desc>Bakery / Donuts</desc>
<sym>Dot</sym>
<type>food</type>
</wpt>
<wpt lat="49.326481" lon="-123.137474">
<name>Hello Nori</name>
<cmt>food</cmt>
<desc>Restaurant</desc>
<sym>Dot</sym>
<type>food</type>
</wpt>
<wpt lat="49.328529" lon="-123.154561">
<name>Cafe C'est si bon</name>
<cmt>coffee</cmt>
<desc>Café / Coffee</desc>
<sym>Dot</sym>
<type>food</type>
</wpt>
<wpt lat="49.333184" lon="-123.182328">
<name>Beach House Restaurant</name>
<cmt>food</cmt>
<desc>Restaurant</desc>
<sym>Dot</sym>
<type>food</type>
</wpt>
<wpt lat="49.327585" lon="-123.139419">
<name>Loblaws</name>
<cmt>convenience_store</cmt>
<desc>Grocery Store</desc>
<sym>Dot</sym>
<type>store</type>
</wpt>
<wpt lat="49.327770" lon="-123.135348">
<name>Pizza Rubato</name>
<cmt>food</cmt>
<desc>Restaurant</desc>
<sym>Dot</sym>
<type>food</type>
</wpt>
<wpt lat="49.326091" lon="-123.143486">
<name>Whole Foods Market</name>
<cmt>convenience_store</cmt>
<desc>Grocery Store</desc>
<sym>Dot</sym>
<type>store</type>
</wpt>
<wpt lat="49.346057" lon="-123.217784">
<name>Chevron</name>
<cmt>convenience_store</cmt>
<desc>Convenience Store</desc>
<sym>Dot</sym>
<type>store</type>
</wpt>
<wpt lat="49.328910" lon="-123.156216">
<name>Mereon</name>
<cmt>food</cmt>
<desc>Restaurant</desc>
<sym>Dot</sym>
<type>food</type>
</wpt>
<wpt lat="49.326203" lon="-123.139009">
<name>Tractor</name>
<cmt>food</cmt>
<desc>Restaurant</desc>
<sym>Dot</sym>
<type>food</type>
</wpt>
<wpt lat="49.351062" lon="-123.253184">
<name>Safeway</name>
<cmt>convenience_store</cmt>
<desc>Grocery Store</desc>
<sym>Dot</sym>
<type>store</type>
</wpt>
<wpt lat="49.328899" lon="-123.155834">
<name>Mitra's Market</name>
<cmt>convenience_store</cmt>
<desc>Grocery Store</desc>
<sym>Dot</sym>
<type>store</type>
</wpt>
<wpt lat="49.327740" lon="-123.139511">
<name>Chipotle</name>
<cmt>food</cmt>
<desc>Fast Food / Chain</desc>
<sym>Dot</sym>
<type>food</type>
</wpt>
<wpt lat="49.326147" lon="-123.139359">
<name>Angus T</name>
<cmt>food</cmt>
<desc>Bakery / Donuts</desc>
<sym>Dot</sym>
<type>food</type>
</wpt>
<wpt lat="49.326148" lon="-123.139096">
<name>ZUBU Ramen</name>
<cmt>food</cmt>
<desc>Restaurant</desc>
<sym>Dot</sym>
<type>food</type>
</wpt>
<wpt lat="49.327769" lon="-123.139677">
<name>Popeyes</name>
<cmt>food</cmt>
<desc>Fast Food / Chain</desc>
<sym>Dot</sym>
<type>food</type>
</wpt>
<wpt lat="49.328861" lon="-123.155239">
<name>More Bikes West Van</name>
<cmt>bike_shop</cmt>
<desc>Repair Shop</desc>
<sym>Dot</sym>
<type>gear</type>
</wpt>
<wpt lat="49.325981" lon="-123.142336">
<name>Cactus Club Cafe</name>
<cmt>food</cmt>
<desc>Restaurant</desc>
<sym>Dot</sym>
<type>food</type>
</wpt>
<wpt lat="49.326226" lon="-123.136463">
<name>Five Guys</name>
<cmt>food</cmt>
<desc>Fast Food / Chain</desc>
<sym>Dot</sym>
<type>food</type>
</wpt>
<wpt lat="49.326226" lon="-123.136137">
<name>Nando's</name>
<cmt>food</cmt>
<desc>Restaurant</desc>
<sym>Dot</sym>
<type>food</type>
</wpt>
<wpt lat="49.326033" lon="-123.139484">
<name>Big Way Hot Pot</name>
<cmt>food</cmt>
<desc>Restaurant</desc>
<sym>Dot</sym>
<type>food</type>
</wpt>
<wpt lat="49.326226" lon="-123.135169">
<name>Pizza Garden</name>
<cmt>food</cmt>
<desc>Fast Food / Chain</desc>
<sym>Dot</sym>
<type>food</type>
</wpt>
<wpt lat="49.325733" lon="-123.143593">
<name>Deville Coffee</name>
<cmt>coffee</cmt>
<desc>Café / Coffee</desc>
<sym>Dot</sym>
<type>food</type>
</wpt>
<wpt lat="49.351148" lon="-123.253673">
<name>Subway</name>
<cmt>food</cmt>
<desc>Fast Food / Chain</desc>
<sym>Dot</sym>
<type>food</type>
</wpt>
<wpt lat="49.325669" lon="-123.140706">
<name>Starbucks</name>
<cmt>food</cmt>
<desc>Fast Food / Chain</desc>
<sym>Dot</sym>
<type>food</type>
</wpt>
<wpt lat="49.328402" lon="-123.137317">
<name>BC Liquor Store</name>
<cmt>convenience_store</cmt>
<desc>Liquor Store</desc>
<sym>Dot</sym>
<type>store</type>
</wpt>
<wpt lat="49.325679" lon="-123.135353">
<name>Starbucks</name>
<cmt>food</cmt>
<desc>Fast Food / Chain</desc>
<sym>Dot</sym>
<type>food</type>
</wpt>
<wpt lat="49.325274" lon="-123.142900">
<name>The Village Taphouse Fine Wines Spirits &amp; Ales</name>
<cmt>winery</cmt>
<desc>Winery / Cidery</desc>
<sym>Dot</sym>
<type>food</type>
</wpt>
<wpt lat="49.325262" lon="-123.142612">
<name>The Village Taphouse</name>
<cmt>bar</cmt>
<desc>Brewery / Pub</desc>
<sym>Dot</sym>
<type>food</type>
</wpt>
<wpt lat="49.350935" lon="-123.254445">
<name>BC Liquor Store</name>
<cmt>convenience_store</cmt>
<desc>Liquor Store</desc>
<sym>Dot</sym>
<type>store</type>
</wpt>
<wpt lat="49.348265" lon="-123.222567">
<name>The Shed Cypress</name>
<cmt>food</cmt>
<desc>Restaurant</desc>
<sym>Dot</sym>
<type>food</type>
</wpt>
<wpt lat="49.325409" lon="-123.138475">
<name>Freshly Squeezed</name>
<cmt>food</cmt>
<desc>Fast Food / Chain</desc>
<sym>Dot</sym>
<type>food</type>
</wpt>
<wpt lat="49.325408" lon="-123.138338">
<name>Sport Chek</name>
<cmt>convenience_store</cmt>
<desc>Outdoor Gear</desc>
<sym>Dot</sym>
<type>store</type>
</wpt>
<wpt lat="49.332466" lon="-123.170664">
<name>West Vancouver Ice Arena</name>
<cmt>rest_stop</cmt>
<desc>Community Centre</desc>
<sym>Dot</sym>
<type>rest_area</type>
</wpt>
<wpt lat="49.325355" lon="-123.136174">
<name>Tim Hortons</name>
<cmt>food</cmt>
<desc>Fast Food / Chain</desc>
<sym>Dot</sym>
<type>food</type>
</wpt>
<wpt lat="49.325284" lon="-123.136386">
<name>Booster Juice</name>
<cmt>food</cmt>
<desc>Fast Food / Chain</desc>
<sym>Dot</sym>
<type>food</type>
</wpt>
<wpt lat="49.330400" lon="-123.159861">
<name>West Vancouver Art Museum</name>
<cmt>monument</cmt>
<desc>Museum / Gallery</desc>
<sym>Dot</sym>
<type>info</type>
</wpt>
<wpt lat="49.325209" lon="-123.136253">
<name>KFC</name>
<cmt>food</cmt>
<desc>Fast Food / Chain</desc>
<sym>Dot</sym>
<type>food</type>
</wpt>
<wpt lat="49.325153" lon="-123.136253">
<name>Bourbon St. Grill</name>
<cmt>food</cmt>
<desc>Fast Food / Chain</desc>
<sym>Dot</sym>
<type>food</type>
</wpt>
<wpt lat="49.325130" lon="-123.136319">
<name>Park Royal South Food Court</name>
<cmt>food</cmt>
<desc>Restaurant</desc>
<sym>Dot</sym>
<type>food</type>
</wpt>
<wpt lat="49.325084" lon="-123.136728">
<name>Orange Julius</name>
<cmt>food</cmt>
<desc>Fast Food / Chain</desc>
<sym>Dot</sym>
<type>food</type>
</wpt>
<wpt lat="49.376933" lon="-123.285335">
<name>Whytecliff Marine Protected Area</name>
<cmt>park</cmt>
<desc>Park / Nature</desc>
<sym>Dot</sym>
<type>rest_area</type>
</wpt>
<wpt lat="49.325093" lon="-123.136254">
<name>OPA! of Greece</name>
<cmt>food</cmt>
<desc>Restaurant</desc>
<sym>Dot</sym>
<type>food</type>
</wpt>
<wpt lat="49.325052" lon="-123.150682">
<name>The Boatshed Ambleside</name>
<cmt>food</cmt>
<desc>Restaurant</desc>
<sym>Dot</sym>
<type>food</type>
</wpt>
<wpt lat="49.325036" lon="-123.136254">
<name>A&amp;W</name>
<cmt>food</cmt>
<desc>Fast Food / Chain</desc>
<sym>Dot</sym>
<type>food</type>
</wpt>
<wpt lat="49.325188" lon="-123.133820">
<name>Oceanside Liquor Store</name>
<cmt>convenience_store</cmt>
<desc>Liquor Store</desc>
<sym>Dot</sym>
<type>store</type>
</wpt>
<wpt lat="49.324980" lon="-123.136254">
<name>Vina Vietnamese</name>
<cmt>food</cmt>
<desc>Fast Food / Chain</desc>
<sym>Dot</sym>
<type>food</type>
</wpt>
<wpt lat="49.324953" lon="-123.136467">
<name>Mr. Pretzels</name>
<cmt>food</cmt>
<desc>Fast Food / Chain</desc>
<sym>Dot</sym>
<type>food</type>
</wpt>
<wpt lat="49.324923" lon="-123.136254">
<name>Subway</name>
<cmt>food</cmt>
<desc>Fast Food / Chain</desc>
<sym>Dot</sym>
<type>food</type>
</wpt>
<wpt lat="49.324857" lon="-123.136630">
<name>Chatime</name>
<cmt>coffee</cmt>
<desc>Café / Coffee</desc>
<sym>Dot</sym>
<type>food</type>
</wpt>
<wpt lat="49.324857" lon="-123.136475">
<name>Thaigo</name>
<cmt>food</cmt>
<desc>Fast Food / Chain</desc>
<sym>Dot</sym>
<type>food</type>
</wpt>
<wpt lat="49.324857" lon="-123.136360">
<name>New York Fries</name>
<cmt>food</cmt>
<desc>Fast Food / Chain</desc>
<sym>Dot</sym>
<type>food</type>
</wpt>
<wpt lat="49.324729" lon="-123.138618">
<name>Osaka - Park Royal</name>
<cmt>convenience_store</cmt>
<desc>Grocery Store</desc>
<sym>Dot</sym>
<type>store</type>
</wpt>
<wpt lat="49.324774" lon="-123.137165">
<name>Winners</name>
<cmt>convenience_store</cmt>
<desc>Grocery Store</desc>
<sym>Dot</sym>
<type>store</type>
</wpt>
<wpt lat="49.323937" lon="-123.131247">
<name>Capilano RV Park</name>
<cmt>camping</cmt>
<desc>Private Campground</desc>
<sym>Dot</sym>
<type>campsite</type>
</wpt>
<trk><name>West Vancouver Bike Route Network</name>
<trkseg>
<trkpt lat="49.340715" lon="-123.263281"/>
<trkpt lat="49.340063" lon="-123.263819"/>
<trkpt lat="49.339634" lon="-123.262762"/>
<trkpt lat="49.339569" lon="-123.260898"/>
<trkpt lat="49.338958" lon="-123.259253"/>
<trkpt lat="49.338925" lon="-123.257723"/>
<trkpt lat="49.339210" lon="-123.256062"/>
<trkpt lat="49.338966" lon="-123.255675"/>
<trkpt lat="49.338915" lon="-123.255106"/>
</trkseg>
<trkseg>
<trkpt lat="49.338915" lon="-123.255106"/>
<trkpt lat="49.339101" lon="-123.254841"/>
<trkpt lat="49.339325" lon="-123.254631"/>
<trkpt lat="49.339891" lon="-123.252442"/>
<trkpt lat="49.340283" lon="-123.251876"/>
</trkseg>
<trkseg>
<trkpt lat="49.340283" lon="-123.251876"/>
<trkpt lat="49.338812" lon="-123.252375"/>
<trkpt lat="49.338496" lon="-123.253602"/>
<trkpt lat="49.338886" lon="-123.254344"/>
<trkpt lat="49.338915" lon="-123.255106"/>
</trkseg>
<trkseg>
<trkpt lat="49.340283" lon="-123.251876"/>
<trkpt lat="49.340450" lon="-123.251534"/>
<trkpt lat="49.341131" lon="-123.249630"/>
<trkpt lat="49.341063" lon="-123.248332"/>
</trkseg>
<trkseg>
<trkpt lat="49.341063" lon="-123.248332"/>
<trkpt lat="49.341249" lon="-123.249633"/>
<trkpt lat="49.340750" lon="-123.253477"/>
<trkpt lat="49.340282" lon="-123.256073"/>
<trkpt lat="49.340891" lon="-123.258745"/>
</trkseg>
<trkseg>
<trkpt lat="49.340891" lon="-123.258745"/>
<trkpt lat="49.340716" lon="-123.259173"/>
<trkpt lat="49.340312" lon="-123.260354"/>
<trkpt lat="49.340740" lon="-123.263512"/>
<trkpt lat="49.341029" lon="-123.264468"/>
<trkpt lat="49.341604" lon="-123.265104"/>
<trkpt lat="49.344261" lon="-123.265930"/>
<trkpt lat="49.345323" lon="-123.265777"/>
<trkpt lat="49.346425" lon="-123.266096"/>
<trkpt lat="49.347851" lon="-123.267740"/>
<trkpt lat="49.348621" lon="-123.267471"/>
<trkpt lat="49.349587" lon="-123.266458"/>
<trkpt lat="49.351773" lon="-123.266025"/>
<trkpt lat="49.352135" lon="-123.265441"/>
<trkpt lat="49.352498" lon="-123.263643"/>
<trkpt lat="49.352035" lon="-123.262326"/>
<trkpt lat="49.351738" lon="-123.261507"/>
<trkpt lat="49.351848" lon="-123.261064"/>
<trkpt lat="49.352237" lon="-123.260687"/>
<trkpt lat="49.352928" lon="-123.260648"/>
<trkpt lat="49.353364" lon="-123.260957"/>
<trkpt lat="49.353893" lon="-123.262422"/>
<trkpt lat="49.354565" lon="-123.263202"/>
<trkpt lat="49.355995" lon="-123.262751"/>
<trkpt lat="49.357514" lon="-123.266759"/>
<trkpt lat="49.358473" lon="-123.266916"/>
<trkpt lat="49.358827" lon="-123.267444"/>
<trkpt lat="49.357482" lon="-123.272456"/>
<trkpt lat="49.355577" lon="-123.276086"/>
<trkpt lat="49.356228" lon="-123.278731"/>
<trkpt lat="49.357266" lon="-123.279051"/>
<trkpt lat="49.361103" lon="-123.277838"/>
<trkpt lat="49.361945" lon="-123.277219"/>
<trkpt lat="49.364262" lon="-123.277417"/>
<trkpt lat="49.365944" lon="-123.276793"/>
<trkpt lat="49.367191" lon="-123.276745"/>
</trkseg>
<trkseg>
<trkpt lat="49.367191" lon="-123.276745"/>
<trkpt lat="49.369113" lon="-123.276236"/>
</trkseg>
<trkseg>
<trkpt lat="49.369113" lon="-123.276236"/>
<trkpt lat="49.369111" lon="-123.276168"/>
<trkpt lat="49.369273" lon="-123.275884"/>
<trkpt lat="49.369309" lon="-123.275968"/>
<trkpt lat="49.369915" lon="-123.275594"/>
<trkpt lat="49.370528" lon="-123.275838"/>
<trkpt lat="49.370916" lon="-123.277559"/>
<trkpt lat="49.371783" lon="-123.277994"/>
</trkseg>
<trkseg>
<trkpt lat="49.371798" lon="-123.278184"/>
<trkpt lat="49.370504" lon="-123.279408"/>
</trkseg>
<trkseg>
<trkpt lat="49.370504" lon="-123.279408"/>
<trkpt lat="49.370389" lon="-123.279822"/>
</trkseg>
<trkseg>
<trkpt lat="49.370389" lon="-123.279822"/>
<trkpt lat="49.370386" lon="-123.279838"/>
<trkpt lat="49.370361" lon="-123.279906"/>
<trkpt lat="49.370327" lon="-123.279942"/>
</trkseg>
<trkseg>
<trkpt lat="49.370327" lon="-123.279942"/>
<trkpt lat="49.370252" lon="-123.280115"/>
</trkseg>
<trkseg>
<trkpt lat="49.370252" lon="-123.280115"/>
<trkpt lat="49.370437" lon="-123.282429"/>
<trkpt lat="49.371159" lon="-123.283832"/>
<trkpt lat="49.372497" lon="-123.283428"/>
<trkpt lat="49.373746" lon="-123.282209"/>
<trkpt lat="49.375115" lon="-123.281362"/>
<trkpt lat="49.375837" lon="-123.282376"/>
<trkpt lat="49.375269" lon="-123.283687"/>
<trkpt lat="49.373586" lon="-123.285114"/>
<trkpt lat="49.371369" lon="-123.288278"/>
<trkpt lat="49.371216" lon="-123.288842"/>
<trkpt lat="49.371589" lon="-123.289769"/>
<trkpt lat="49.372070" lon="-123.289961"/>
<trkpt lat="49.373779" lon="-123.289091"/>
</trkseg>
<trkseg>
<trkpt lat="49.370252" lon="-123.280115"/>
<trkpt lat="49.370224" lon="-123.279916"/>
</trkseg>
<trkseg>
<trkpt lat="49.370224" lon="-123.279916"/>
<trkpt lat="49.370327" lon="-123.279942"/>
</trkseg>
<trkseg>
<trkpt lat="49.370389" lon="-123.279822"/>
<trkpt lat="49.370337" lon="-123.279664"/>
</trkseg>
<trkseg>
<trkpt lat="49.370337" lon="-123.279664"/>
<trkpt lat="49.370504" lon="-123.279408"/>
</trkseg>
<trkseg>
<trkpt lat="49.370504" lon="-123.279408"/>
<trkpt lat="49.370404" lon="-123.279529"/>
<trkpt lat="49.370218" lon="-123.279387"/>
</trkseg>
<trkseg>
<trkpt lat="49.370218" lon="-123.279387"/>
<trkpt lat="49.370224" lon="-123.279681"/>
</trkseg>
<trkseg>
<trkpt lat="49.370224" lon="-123.279681"/>
<trkpt lat="49.370189" lon="-123.279787"/>
</trkseg>
<trkseg>
<trkpt lat="49.370189" lon="-123.279787"/>
<trkpt lat="49.370122" lon="-123.279905"/>
</trkseg>
<trkseg>
<trkpt lat="49.370122" lon="-123.279905"/>
<trkpt lat="49.370207" lon="-123.279887"/>
</trkseg>
<trkseg>
<trkpt lat="49.370207" lon="-123.279887"/>
<trkpt lat="49.370224" lon="-123.279916"/>
</trkseg>
<trkseg>
<trkpt lat="49.370207" lon="-123.279887"/>
<trkpt lat="49.370189" lon="-123.279787"/>
</trkseg>
<trkseg>
<trkpt lat="49.370224" lon="-123.279681"/>
<trkpt lat="49.370288" lon="-123.279645"/>
</trkseg>
<trkseg>
<trkpt lat="49.370288" lon="-123.279645"/>
<trkpt lat="49.370337" lon="-123.279664"/>
</trkseg>
<trkseg>
<trkpt lat="49.370288" lon="-123.279645"/>
<trkpt lat="49.370218" lon="-123.279387"/>
</trkseg>
<trkseg>
<trkpt lat="49.370218" lon="-123.279387"/>
<trkpt lat="49.370403" lon="-123.277512"/>
<trkpt lat="49.370121" lon="-123.276496"/>
</trkseg>
<trkseg>
<trkpt lat="49.370121" lon="-123.276496"/>
<trkpt lat="49.370025" lon="-123.276390"/>
</trkseg>
<trkseg>
<trkpt lat="49.370121" lon="-123.276496"/>
<trkpt lat="49.369939" lon="-123.276126"/>
</trkseg>
<trkseg>
<trkpt lat="49.369939" lon="-123.276126"/>
<trkpt lat="49.369920" lon="-123.276309"/>
<trkpt lat="49.369868" lon="-123.276357"/>
<trkpt lat="49.369792" lon="-123.276345"/>
<trkpt lat="49.369761" lon="-123.276311"/>
</trkseg>
<trkseg>
<trkpt lat="49.369761" lon="-123.276311"/>
<trkpt lat="49.369433" lon="-123.276206"/>
</trkseg>
<trkseg>
<trkpt lat="49.369433" lon="-123.276206"/>
<trkpt lat="49.369240" lon="-123.276226"/>
</trkseg>
<trkseg>
<trkpt lat="49.369240" lon="-123.276226"/>
<trkpt lat="49.369113" lon="-123.276236"/>
</trkseg>
<trkseg>
<trkpt lat="49.369113" lon="-123.276236"/>
<trkpt lat="49.367191" lon="-123.276745"/>
</trkseg>
<trkseg>
<trkpt lat="49.368668" lon="-123.275130"/>
<trkpt lat="49.369150" lon="-123.275247"/>
</trkseg>
<trkseg>
<trkpt lat="49.369150" lon="-123.275247"/>
<trkpt lat="49.369662" lon="-123.275799"/>
</trkseg>
<trkseg>
<trkpt lat="49.369662" lon="-123.275799"/>
<trkpt lat="49.369740" lon="-123.276127"/>
</trkseg>
<trkseg>
<trkpt lat="49.369740" lon="-123.276127"/>
<trkpt lat="49.369761" lon="-123.276311"/>
</trkseg>
<trkseg>
<trkpt lat="49.369740" lon="-123.276127"/>
<trkpt lat="49.369433" lon="-123.276206"/>
</trkseg>
<trkseg>
<trkpt lat="49.369433" lon="-123.276206"/>
<trkpt lat="49.369240" lon="-123.276226"/>
</trkseg>
<trkseg>
<trkpt lat="49.369240" lon="-123.276226"/>
<trkpt lat="49.369113" lon="-123.276236"/>
</trkseg>
<trkseg>
<trkpt lat="49.369662" lon="-123.275799"/>
<trkpt lat="49.369847" lon="-123.276027"/>
</trkseg>
<trkseg>
<trkpt lat="49.369847" lon="-123.276027"/>
<trkpt lat="49.369740" lon="-123.276127"/>
</trkseg>
<trkseg>
<trkpt lat="49.369847" lon="-123.276027"/>
<trkpt lat="49.369939" lon="-123.276126"/>
</trkseg>
<trkseg>
<trkpt lat="49.369150" lon="-123.275247"/>
<trkpt lat="49.368965" lon="-123.274992"/>
</trkseg>
<trkseg>
<trkpt lat="49.370122" lon="-123.279905"/>
<trkpt lat="49.368336" lon="-123.281553"/>
<trkpt lat="49.367288" lon="-123.281430"/>
<trkpt lat="49.366526" lon="-123.280824"/>
<trkpt lat="49.365720" lon="-123.281024"/>
<trkpt lat="49.364797" lon="-123.280774"/>
<trkpt lat="49.364188" lon="-123.279534"/>
<trkpt lat="49.363672" lon="-123.279233"/>
<trkpt lat="49.363267" lon="-123.277396"/>
</trkseg>
<trkseg>
<trkpt lat="49.371798" lon="-123.278184"/>
<trkpt lat="49.373104" lon="-123.277367"/>
<trkpt lat="49.374643" lon="-123.277130"/>
<trkpt lat="49.375359" lon="-123.276731"/>
<trkpt lat="49.375414" lon="-123.276561"/>
<trkpt lat="49.374491" lon="-123.274221"/>
</trkseg>
<trkseg>
<trkpt lat="49.374491" lon="-123.274221"/>
<trkpt lat="49.373729" lon="-123.274958"/>
</trkseg>
<trkseg>
<trkpt lat="49.373729" lon="-123.274958"/>
<trkpt lat="49.371464" lon="-123.277195"/>
<trkpt lat="49.371798" lon="-123.278184"/>
</trkseg>
<trkseg>
<trkpt lat="49.373729" lon="-123.274958"/>
<trkpt lat="49.374458" lon="-123.274142"/>
</trkseg>
<trkseg>
<trkpt lat="49.374491" lon="-123.274221"/>
<trkpt lat="49.374323" lon="-123.272852"/>
<trkpt lat="49.374311" lon="-123.272697"/>
<trkpt lat="49.374281" lon="-123.272201"/>
<trkpt lat="49.373353" lon="-123.272076"/>
<trkpt lat="49.373007" lon="-123.272011"/>
</trkseg>
<trkseg>
<trkpt lat="49.361088" lon="-123.263333"/>
<trkpt lat="49.360699" lon="-123.262401"/>
<trkpt lat="49.360659" lon="-123.262347"/>
<trkpt lat="49.360106" lon="-123.263111"/>
<trkpt lat="49.359437" lon="-123.262871"/>
<trkpt lat="49.357926" lon="-123.263148"/>
<trkpt lat="49.356736" lon="-123.264464"/>
</trkseg>
<trkseg>
<trkpt lat="49.352928" lon="-123.260648"/>
<trkpt lat="49.353037" lon="-123.259289"/>
<trkpt lat="49.353644" lon="-123.258912"/>
<trkpt lat="49.354252" lon="-123.259473"/>
<trkpt lat="49.355151" lon="-123.261368"/>
<trkpt lat="49.355814" lon="-123.261209"/>
<trkpt lat="49.357344" lon="-123.259927"/>
<trkpt lat="49.357890" lon="-123.259083"/>
<trkpt lat="49.359694" lon="-123.259052"/>
<trkpt lat="49.360203" lon="-123.260081"/>
<trkpt lat="49.360699" lon="-123.260115"/>
<trkpt lat="49.360831" lon="-123.259859"/>
<trkpt lat="49.360458" lon="-123.257915"/>
<trkpt lat="49.360375" lon="-123.257596"/>
<trkpt lat="49.360284" lon="-123.254497"/>
<trkpt lat="49.360537" lon="-123.252516"/>
<trkpt lat="49.360142" lon="-123.251453"/>
<trkpt lat="49.358741" lon="-123.251177"/>
<trkpt lat="49.356995" lon="-123.252809"/>
<trkpt lat="49.355887" lon="-123.253256"/>
<trkpt lat="49.354789" lon="-123.253510"/>
<trkpt lat="49.353109" lon="-123.253087"/>
<trkpt lat="49.352247" lon="-123.251292"/>
</trkseg>
<trkseg>
<trkpt lat="49.352247" lon="-123.251292"/>
<trkpt lat="49.352064" lon="-123.251233"/>
</trkseg>
<trkseg>
<trkpt lat="49.352064" lon="-123.251233"/>
<trkpt lat="49.351800" lon="-123.251406"/>
<trkpt lat="49.351392" lon="-123.251715"/>
<trkpt lat="49.351192" lon="-123.251879"/>
<trkpt lat="49.351032" lon="-123.252002"/>
<trkpt lat="49.350815" lon="-123.252184"/>
<trkpt lat="49.350509" lon="-123.251722"/>
</trkseg>
<trkseg>
<trkpt lat="49.350509" lon="-123.251722"/>
<trkpt lat="49.350941" lon="-123.249128"/>
<trkpt lat="49.350690" lon="-123.246415"/>
<trkpt lat="49.349296" lon="-123.244700"/>
<trkpt lat="49.348883" lon="-123.245907"/>
</trkseg>
<trkseg>
<trkpt lat="49.348883" lon="-123.245907"/>
<trkpt lat="49.349296" lon="-123.244700"/>
<trkpt lat="49.350690" lon="-123.246415"/>
<trkpt lat="49.350941" lon="-123.249128"/>
<trkpt lat="49.350509" lon="-123.251722"/>
</trkseg>
<trkseg>
<trkpt lat="49.352064" lon="-123.251233"/>
<trkpt lat="49.352149" lon="-123.250879"/>
</trkseg>
<trkseg>
<trkpt lat="49.352149" lon="-123.250879"/>
<trkpt lat="49.352214" lon="-123.251154"/>
</trkseg>
<trkseg>
<trkpt lat="49.352214" lon="-123.251154"/>
<trkpt lat="49.352247" lon="-123.251292"/>
</trkseg>
<trkseg>
<trkpt lat="49.352214" lon="-123.251154"/>
<trkpt lat="49.352064" lon="-123.251233"/>
</trkseg>
<trkseg>
<trkpt lat="49.352149" lon="-123.250879"/>
<trkpt lat="49.352037" lon="-123.250439"/>
<trkpt lat="49.351637" lon="-123.247133"/>
<trkpt lat="49.351083" lon="-123.245479"/>
<trkpt lat="49.351408" lon="-123.244508"/>
<trkpt lat="49.350150" lon="-123.243375"/>
<trkpt lat="49.349735" lon="-123.241154"/>
<trkpt lat="49.349354" lon="-123.240959"/>
<trkpt lat="49.349219" lon="-123.240187"/>
<trkpt lat="49.349681" lon="-123.238282"/>
<trkpt lat="49.349479" lon="-123.237046"/>
<trkpt lat="49.348856" lon="-123.236231"/>
<trkpt lat="49.347475" lon="-123.235437"/>
<trkpt lat="49.346947" lon="-123.235228"/>
<trkpt lat="49.346871" lon="-123.232308"/>
<trkpt lat="49.346550" lon="-123.231937"/>
<trkpt lat="49.346775" lon="-123.230687"/>
<trkpt lat="49.346705" lon="-123.227285"/>
<trkpt lat="49.346909" lon="-123.226482"/>
<trkpt lat="49.347272" lon="-123.224986"/>
<trkpt lat="49.346187" lon="-123.219688"/>
<trkpt lat="49.345616" lon="-123.218783"/>
<trkpt lat="49.345557" lon="-123.218359"/>
<trkpt lat="49.345246" lon="-123.218051"/>
<trkpt lat="49.345602" lon="-123.216771"/>
<trkpt lat="49.345641" lon="-123.213466"/>
<trkpt lat="49.345750" lon="-123.212319"/>
<trkpt lat="49.345168" lon="-123.206724"/>
<trkpt lat="49.344171" lon="-123.206772"/>
<trkpt lat="49.343828" lon="-123.206031"/>
<trkpt lat="49.342982" lon="-123.205509"/>
<trkpt lat="49.342159" lon="-123.203174"/>
</trkseg>
<trkseg>
<trkpt lat="49.342159" lon="-123.203174"/>
<trkpt lat="49.341202" lon="-123.202734"/>
<trkpt lat="49.340501" lon="-123.202803"/>
</trkseg>
<trkseg>
<trkpt lat="49.340501" lon="-123.202803"/>
<trkpt lat="49.340319" lon="-123.203125"/>
</trkseg>
<trkseg>
<trkpt lat="49.340319" lon="-123.203125"/>
<trkpt lat="49.340361" lon="-123.203338"/>
<trkpt lat="49.340647" lon="-123.204797"/>
<trkpt lat="49.341001" lon="-123.206624"/>
<trkpt lat="49.342033" lon="-123.212565"/>
<trkpt lat="49.341317" lon="-123.213672"/>
<trkpt lat="49.340418" lon="-123.214247"/>
<trkpt lat="49.339134" lon="-123.216477"/>
<trkpt lat="49.338431" lon="-123.219655"/>
<trkpt lat="49.338583" lon="-123.220611"/>
<trkpt lat="49.339427" lon="-123.221790"/>
<trkpt lat="49.340217" lon="-123.224276"/>
<trkpt lat="49.341092" lon="-123.225999"/>
<trkpt lat="49.341320" lon="-123.226493"/>
<trkpt lat="49.341905" lon="-123.227816"/>
<trkpt lat="49.341997" lon="-123.228624"/>
<trkpt lat="49.341489" lon="-123.232497"/>
<trkpt lat="49.341503" lon="-123.234133"/>
<trkpt lat="49.340537" lon="-123.236729"/>
<trkpt lat="49.340961" lon="-123.241221"/>
<trkpt lat="49.341027" lon="-123.241634"/>
</trkseg>
<trkseg>
<trkpt lat="49.341027" lon="-123.241634"/>
<trkpt lat="49.341077" lon="-123.242048"/>
</trkseg>
<trkseg>
<trkpt lat="49.341077" lon="-123.242048"/>
<trkpt lat="49.341354" lon="-123.244762"/>
<trkpt lat="49.340989" lon="-123.246334"/>
<trkpt lat="49.341063" lon="-123.248332"/>
</trkseg>
<trkseg>
<trkpt lat="49.343423" lon="-123.252461"/>
<trkpt lat="49.342790" lon="-123.252509"/>
<trkpt lat="49.342643" lon="-123.253250"/>
<trkpt lat="49.342977" lon="-123.254864"/>
<trkpt lat="49.342700" lon="-123.255669"/>
<trkpt lat="49.342661" lon="-123.256744"/>
<trkpt lat="49.342145" lon="-123.256933"/>
<trkpt lat="49.342323" lon="-123.258360"/>
<trkpt lat="49.342441" lon="-123.259607"/>
<trkpt lat="49.342280" lon="-123.260183"/>
<trkpt lat="49.342161" lon="-123.260506"/>
<trkpt lat="49.341690" lon="-123.259984"/>
<trkpt lat="49.341400" lon="-123.258880"/>
<trkpt lat="49.340891" lon="-123.258745"/>
</trkseg>
<trkseg>
<trkpt lat="49.343423" lon="-123.252461"/>
<trkpt lat="49.343528" lon="-123.252510"/>
<trkpt lat="49.343606" lon="-123.252524"/>
<trkpt lat="49.343745" lon="-123.252507"/>
</trkseg>
<trkseg>
<trkpt lat="49.343745" lon="-123.252507"/>
<trkpt lat="49.345250" lon="-123.253206"/>
<trkpt lat="49.345617" lon="-123.253034"/>
<trkpt lat="49.346330" lon="-123.249339"/>
</trkseg>
<trkseg>
<trkpt lat="49.346330" lon="-123.249339"/>
<trkpt lat="49.347666" lon="-123.246681"/>
<trkpt lat="49.348883" lon="-123.245907"/>
</trkseg>
<trkseg>
<trkpt lat="49.348883" lon="-123.245907"/>
<trkpt lat="49.347666" lon="-123.246681"/>
<trkpt lat="49.346330" lon="-123.249339"/>
</trkseg>
<trkseg>
<trkpt lat="49.343745" lon="-123.252507"/>
<trkpt lat="49.343617" lon="-123.252413"/>
<trkpt lat="49.343533" lon="-123.252402"/>
<trkpt lat="49.343423" lon="-123.252461"/>
</trkseg>
<trkseg>
<trkpt lat="49.348883" lon="-123.245907"/>
<trkpt lat="49.348119" lon="-123.245131"/>
<trkpt lat="49.347206" lon="-123.245004"/>
<trkpt lat="49.346556" lon="-123.243964"/>
<trkpt lat="49.345393" lon="-123.243277"/>
<trkpt lat="49.344628" lon="-123.242118"/>
<trkpt lat="49.342190" lon="-123.240970"/>
<trkpt lat="49.341774" lon="-123.241061"/>
<trkpt lat="49.341253" lon="-123.241716"/>
</trkseg>
<trkseg>
<trkpt lat="49.341253" lon="-123.241716"/>
<trkpt lat="49.341077" lon="-123.242048"/>
</trkseg>
<trkseg>
<trkpt lat="49.341027" lon="-123.241634"/>
<trkpt lat="49.341253" lon="-123.241716"/>
</trkseg>
<trkseg>
<trkpt lat="49.353071" lon="-123.259215"/>
<trkpt lat="49.352876" lon="-123.259000"/>
<trkpt lat="49.352462" lon="-123.259250"/>
<trkpt lat="49.351249" lon="-123.260922"/>
<trkpt lat="49.351222" lon="-123.266245"/>
</trkseg>
<trkseg>
<trkpt lat="49.342159" lon="-123.203174"/>
<trkpt lat="49.341464" lon="-123.198784"/>
<trkpt lat="49.340185" lon="-123.195851"/>
<trkpt lat="49.339545" lon="-123.193407"/>
<trkpt lat="49.337832" lon="-123.194318"/>
</trkseg>
<trkseg>
<trkpt lat="49.337832" lon="-123.194318"/>
<trkpt lat="49.338344" lon="-123.196508"/>
<trkpt lat="49.340005" lon="-123.201490"/>
<trkpt lat="49.340022" lon="-123.201588"/>
<trkpt lat="49.340207" lon="-123.202573"/>
</trkseg>
<trkseg>
<trkpt lat="49.340207" lon="-123.202573"/>
<trkpt lat="49.340243" lon="-123.202738"/>
</trkseg>
<trkseg>
<trkpt lat="49.340243" lon="-123.202738"/>
<trkpt lat="49.340319" lon="-123.203125"/>
</trkseg>
<trkseg>
<trkpt lat="49.340243" lon="-123.202738"/>
<trkpt lat="49.340501" lon="-123.202803"/>
</trkseg>
<trkseg>
<trkpt lat="49.340207" lon="-123.202573"/>
<trkpt lat="49.339639" lon="-123.202544"/>
<trkpt lat="49.338839" lon="-123.200651"/>
<trkpt lat="49.338821" lon="-123.199853"/>
<trkpt lat="49.338189" lon="-123.197895"/>
<trkpt lat="49.337102" lon="-123.196182"/>
<trkpt lat="49.336775" lon="-123.194945"/>
</trkseg>
<trkseg>
<trkpt lat="49.336775" lon="-123.194945"/>
<trkpt lat="49.337832" lon="-123.194318"/>
</trkseg>
<trkseg>
<trkpt lat="49.337832" lon="-123.194318"/>
<trkpt lat="49.336866" lon="-123.190412"/>
<trkpt lat="49.336489" lon="-123.188844"/>
</trkseg>
<trkseg>
<trkpt lat="49.336489" lon="-123.188844"/>
<trkpt lat="49.336038" lon="-123.188887"/>
<trkpt lat="49.335836" lon="-123.188894"/>
</trkseg>
<trkseg>
<trkpt lat="49.335836" lon="-123.188894"/>
<trkpt lat="49.335885" lon="-123.191582"/>
<trkpt lat="49.335698" lon="-123.192859"/>
<trkpt lat="49.336289" lon="-123.195240"/>
<trkpt lat="49.336775" lon="-123.194945"/>
</trkseg>
<trkseg>
<trkpt lat="49.336489" lon="-123.188844"/>
<trkpt lat="49.337477" lon="-123.188814"/>
<trkpt lat="49.335923" lon="-123.182374"/>
</trkseg>
<trkseg>
<trkpt lat="49.335923" lon="-123.182374"/>
<trkpt lat="49.334937" lon="-123.182395"/>
</trkseg>
<trkseg>
<trkpt lat="49.334937" lon="-123.182395"/>
<trkpt lat="49.335739" lon="-123.185723"/>
<trkpt lat="49.336489" lon="-123.188844"/>
</trkseg>
<trkseg>
<trkpt lat="49.335836" lon="-123.188894"/>
<trkpt lat="49.335343" lon="-123.187117"/>
<trkpt lat="49.334588" lon="-123.185677"/>
<trkpt lat="49.333807" lon="-123.182466"/>
</trkseg>
<trkseg>
<trkpt lat="49.333807" lon="-123.182466"/>
<trkpt lat="49.334023" lon="-123.182429"/>
</trkseg>
<trkseg>
<trkpt lat="49.334023" lon="-123.182429"/>
<trkpt lat="49.334937" lon="-123.182395"/>
</trkseg>
<trkseg>
<trkpt lat="49.334937" lon="-123.182395"/>
<trkpt lat="49.334685" lon="-123.181519"/>
<trkpt lat="49.334185" lon="-123.179231"/>
</trkseg>
<trkseg>
<trkpt lat="49.334185" lon="-123.179231"/>
<trkpt lat="49.334937" lon="-123.182395"/>
</trkseg>
<trkseg>
<trkpt lat="49.334023" lon="-123.182429"/>
<trkpt lat="49.333272" lon="-123.179310"/>
</trkseg>
<trkseg>
<trkpt lat="49.333272" lon="-123.179310"/>
<trkpt lat="49.333060" lon="-123.179307"/>
<trkpt lat="49.333807" lon="-123.182466"/>
</trkseg>
<trkseg>
<trkpt lat="49.335923" lon="-123.182374"/>
<trkpt lat="49.336600" lon="-123.182372"/>
</trkseg>
<trkseg>
<trkpt lat="49.335923" lon="-123.182374"/>
<trkpt lat="49.335150" lon="-123.179175"/>
<trkpt lat="49.335654" lon="-123.179165"/>
<trkpt lat="49.335552" lon="-123.171754"/>
<trkpt lat="49.335518" lon="-123.170848"/>
</trkseg>
<trkseg>
<trkpt lat="49.334185" lon="-123.179231"/>
<trkpt lat="49.333144" lon="-123.174979"/>
<trkpt lat="49.332554" lon="-123.174037"/>
<trkpt lat="49.331272" lon="-123.172327"/>
<trkpt lat="49.330774" lon="-123.171022"/>
<trkpt lat="49.329871" lon="-123.168113"/>
<trkpt lat="49.329363" lon="-123.166462"/>
<trkpt lat="49.329041" lon="-123.165431"/>
<trkpt lat="49.328670" lon="-123.163861"/>
<trkpt lat="49.328632" lon="-123.160258"/>
<trkpt lat="49.328607" lon="-123.158931"/>
<trkpt lat="49.328587" lon="-123.158679"/>
<trkpt lat="49.328323" lon="-123.156797"/>
<trkpt lat="49.327939" lon="-123.154402"/>
<trkpt lat="49.327809" lon="-123.153682"/>
<trkpt lat="49.327631" lon="-123.152306"/>
<trkpt lat="49.327572" lon="-123.151647"/>
<trkpt lat="49.327360" lon="-123.150303"/>
</trkseg>
<trkseg>
<trkpt lat="49.327360" lon="-123.150303"/>
<trkpt lat="49.326657" lon="-123.146138"/>
<trkpt lat="49.326627" lon="-123.145579"/>
<trkpt lat="49.326629" lon="-123.145082"/>
<trkpt lat="49.326684" lon="-123.143706"/>
<trkpt lat="49.326714" lon="-123.143064"/>
<trkpt lat="49.326740" lon="-123.142518"/>
<trkpt lat="49.326753" lon="-123.142223"/>
<trkpt lat="49.326773" lon="-123.141828"/>
<trkpt lat="49.326806" lon="-123.141191"/>
<trkpt lat="49.326837" lon="-123.140527"/>
<trkpt lat="49.326841" lon="-123.140362"/>
<trkpt lat="49.326894" lon="-123.139221"/>
<trkpt lat="49.326941" lon="-123.138224"/>
<trkpt lat="49.326956" lon="-123.137903"/>
<trkpt lat="49.326977" lon="-123.137523"/>
<trkpt lat="49.327000" lon="-123.137029"/>
<trkpt lat="49.327058" lon="-123.135628"/>
<trkpt lat="49.327089" lon="-123.134940"/>
</trkseg>
<trkseg>
<trkpt lat="49.327226" lon="-123.134876"/>
<trkpt lat="49.327219" lon="-123.135017"/>
<trkpt lat="49.327135" lon="-123.136692"/>
<trkpt lat="49.327094" lon="-123.137593"/>
<trkpt lat="49.327066" lon="-123.138451"/>
<trkpt lat="49.327011" lon="-123.139577"/>
<trkpt lat="49.326972" lon="-123.140356"/>
<trkpt lat="49.326961" lon="-123.140525"/>
<trkpt lat="49.326912" lon="-123.141525"/>
<trkpt lat="49.326869" lon="-123.142408"/>
<trkpt lat="49.326829" lon="-123.143242"/>
<trkpt lat="49.326808" lon="-123.143678"/>
<trkpt lat="49.326770" lon="-123.144475"/>
<trkpt lat="49.326751" lon="-123.144890"/>
<trkpt lat="49.326739" lon="-123.145458"/>
<trkpt lat="49.327042" lon="-123.148126"/>
<trkpt lat="49.327360" lon="-123.150303"/>
</trkseg>
<trkseg>
<trkpt lat="49.327712" lon="-123.151609"/>
<trkpt lat="49.328679" lon="-123.151588"/>
</trkseg>
<trkseg>
<trkpt lat="49.327310" lon="-123.154438"/>
<trkpt lat="49.327352" lon="-123.154691"/>
<trkpt lat="49.327375" lon="-123.154889"/>
<trkpt lat="49.327402" lon="-123.156534"/>
<trkpt lat="49.327513" lon="-123.157649"/>
<trkpt lat="49.327762" lon="-123.164373"/>
<trkpt lat="49.328818" lon="-123.168012"/>
<trkpt lat="49.329766" lon="-123.171069"/>
<trkpt lat="49.330267" lon="-123.172297"/>
<trkpt lat="49.331715" lon="-123.174087"/>
<trkpt lat="49.332223" lon="-123.175052"/>
<trkpt lat="49.333272" lon="-123.179310"/>
</trkseg>
<trkseg>
<trkpt lat="49.327701" lon="-123.162237"/>
<trkpt lat="49.327293" lon="-123.162235"/>
<trkpt lat="49.327278" lon="-123.160854"/>
<trkpt lat="49.327269" lon="-123.158887"/>
<trkpt lat="49.327155" lon="-123.154918"/>
<trkpt lat="49.327162" lon="-123.154607"/>
<trkpt lat="49.327093" lon="-123.154351"/>
</trkseg>
<trkseg>
<trkpt lat="49.327093" lon="-123.154351"/>
<trkpt lat="49.327183" lon="-123.154387"/>
<trkpt lat="49.327310" lon="-123.154438"/>
</trkseg>
<trkseg>
<trkpt lat="49.327310" lon="-123.154438"/>
<trkpt lat="49.327269" lon="-123.154190"/>
<trkpt lat="49.327212" lon="-123.153836"/>
<trkpt lat="49.327171" lon="-123.153580"/>
<trkpt lat="49.327123" lon="-123.153283"/>
<trkpt lat="49.327069" lon="-123.152944"/>
<trkpt lat="49.326977" lon="-123.152370"/>
<trkpt lat="49.326968" lon="-123.152108"/>
<trkpt lat="49.326864" lon="-123.152185"/>
<trkpt lat="49.326760" lon="-123.152233"/>
<trkpt lat="49.326781" lon="-123.152341"/>
<trkpt lat="49.326795" lon="-123.152411"/>
<trkpt lat="49.327093" lon="-123.154351"/>
</trkseg>
</trk>
</gpx>