<?xml version="1.0" encoding="UTF-8"?>
<gpx version="1.1" creator="BC Bike Stops (bccycletourism.ca)" xmlns="http://www.topografix.com/GPX/1/1">
<metadata>
<name>Ferguson</name>
<link href="https://bccycletourism.ca/trail/ferguson/"><text>BC Bike Stops</text></link>
</metadata>
<wpt lat="49.219180" lon="-123.213944">
<name>Iona Beach Park</name>
<cmt>park</cmt>
<desc>Park / Nature</desc>
<sym>Dot</sym>
<type>rest_area</type>
</wpt>
<wpt lat="49.202624" lon="-123.144506">
<name>Milltown Bar &amp; Grill</name>
<cmt>bar</cmt>
<desc>Brewery / Pub</desc>
<sym>Dot</sym>
<type>food</type>
</wpt>
<wpt lat="49.206463" lon="-123.147683">
<name>Ho Yuen Cafe</name>
<cmt>coffee</cmt>
<desc>Café / Coffee</desc>
<sym>Dot</sym>
<type>food</type>
</wpt>
</gpx>