<?xml version="1.0" encoding="UTF-8"?>
<gpx version="1.1" creator="We Welcome Cyclists (bccycletourism.ca)" xmlns="http://www.topografix.com/GPX/1/1">
<metadata>
<name>The Flight Path</name>
<link href="https://bccycletourism.ca/trail/the-flight-path/"><text>We Welcome Cyclists</text></link>
</metadata>
<wpt lat="48.640740" lon="-123.416980">
<name>Mary's Bleue Moon Cafe</name>
<cmt>food</cmt>
<desc>Restaurant</desc>
<sym>Dot</sym>
<type>food</type>
</wpt>
<wpt lat="48.655007" lon="-123.416401">
<name>Pizza Plus</name>
<cmt>food</cmt>
<desc>Fast Food / Chain</desc>
<sym>Dot</sym>
<type>food</type>
</wpt>
<wpt lat="48.648630" lon="-123.405542">
<name>Mary Winspear Centre</name>
<cmt>rest_stop</cmt>
<desc>Community Centre</desc>
<sym>Dot</sym>
<type>rest_area</type>
</wpt>
<wpt lat="48.647277" lon="-123.403548">
<name>Dairy Queen</name>
<cmt>food</cmt>
<desc>Ice Cream</desc>
<sym>Dot</sym>
<type>food</type>
</wpt>
<wpt lat="48.649291" lon="-123.406358">
<name>McDonald's</name>
<cmt>food</cmt>
<desc>Fast Food / Chain</desc>
<sym>Dot</sym>
<type>food</type>
</wpt>
<wpt lat="48.649496" lon="-123.406398">
<name>Dickens Liquor Shoppe</name>
<cmt>convenience_store</cmt>
<desc>Liquor Store</desc>
<sym>Dot</sym>
<type>store</type>
</wpt>
<wpt lat="48.648738" lon="-123.404541">
<name>Sidney Information Centre</name>
<cmt>generic</cmt>
<desc>Visitor Centre</desc>
<sym>Dot</sym>
<type>generic</type>
</wpt>
<wpt lat="48.649494" lon="-123.406096">
<name>Charles Dickens' Pub</name>
<cmt>bar</cmt>
<desc>Brewery / Pub</desc>
<sym>Dot</sym>
<type>food</type>
</wpt>
<wpt lat="48.647416" lon="-123.402602">
<name>Panago</name>
<cmt>food</cmt>
<desc>Fast Food / Chain</desc>
<sym>Dot</sym>
<type>food</type>
</wpt>
<wpt lat="48.649632" lon="-123.405863">
<name>Days Inn</name>
<cmt>lodging</cmt>
<desc>Hotel / Motel</desc>
<sym>Dot</sym>
<type>shelter</type>
</wpt>
<wpt lat="48.648246" lon="-123.403174">
<name>BC Liquor Store</name>
<cmt>convenience_store</cmt>
<desc>Liquor Store</desc>
<sym>Dot</sym>
<type>store</type>
</wpt>
<wpt lat="48.648566" lon="-123.403284">
<name>The Five &amp; Dime Diner</name>
<cmt>food</cmt>
<desc>Restaurant</desc>
<sym>Dot</sym>
<type>food</type>
</wpt>
<wpt lat="48.648566" lon="-123.403194">
<name>J Kitchen Korean &amp; Japanese Restaurant</name>
<cmt>food</cmt>
<desc>Restaurant</desc>
<sym>Dot</sym>
<type>food</type>
</wpt>
<wpt lat="48.649229" lon="-123.404191">
<name>Subway</name>
<cmt>food</cmt>
<desc>Fast Food / Chain</desc>
<sym>Dot</sym>
<type>food</type>
</wpt>
<wpt lat="48.648234" lon="-123.402776">
<name>Tim Hortons</name>
<cmt>food</cmt>
<desc>Fast Food / Chain</desc>
<sym>Dot</sym>
<type>food</type>
</wpt>
<wpt lat="48.648143" lon="-123.402325">
<name>Save-On-Foods</name>
<cmt>convenience_store</cmt>
<desc>Grocery Store</desc>
<sym>Dot</sym>
<type>store</type>
</wpt>
<wpt lat="48.649641" lon="-123.404349">
<name>Thrifty Foods Sidney</name>
<cmt>convenience_store</cmt>
<desc>Grocery Store</desc>
<sym>Dot</sym>
<type>store</type>
</wpt>
<wpt lat="48.648190" lon="-123.402029">
<name>Starbucks</name>
<cmt>food</cmt>
<desc>Fast Food / Chain</desc>
<sym>Dot</sym>
<type>food</type>
</wpt>
<wpt lat="48.649400" lon="-123.403497">
<name>Best Western Plus Emerald Isle</name>
<cmt>lodging</cmt>
<desc>Hotel / Motel</desc>
<sym>Dot</sym>
<type>shelter</type>
</wpt>
<wpt lat="48.649725" lon="-123.402508">
<name>Taste of Tokyo</name>
<cmt>food</cmt>
<desc>Restaurant</desc>
<sym>Dot</sym>
<type>food</type>
</wpt>
<wpt lat="48.648814" lon="-123.401201">
<name>Thai Corner</name>
<cmt>food</cmt>
<desc>Restaurant</desc>
<sym>Dot</sym>
<type>food</type>
</wpt>
<wpt lat="48.650081" lon="-123.402753">
<name>Mariner pizza</name>
<cmt>food</cmt>
<desc>Fast Food / Chain</desc>
<sym>Dot</sym>
<type>food</type>
</wpt>
<wpt lat="48.648655" lon="-123.400852">
<name>Alexander's Coffee Bar</name>
<cmt>coffee</cmt>
<desc>Café / Coffee</desc>
<sym>Dot</sym>
<type>food</type>
</wpt>
<wpt lat="48.649080" lon="-123.401241">
<name>900 Bistro</name>
<cmt>food</cmt>
<desc>Restaurant</desc>
<sym>Dot</sym>
<type>food</type>
</wpt>
<wpt lat="48.649078" lon="-123.401057">
<name>The Farmer's Daughter</name>
<cmt>food</cmt>
<desc>Restaurant</desc>
<sym>Dot</sym>
<type>food</type>
</wpt>
<wpt lat="48.648511" lon="-123.400522">
<name>Fresh Tandoori Flavour Indian Restaurant Sidney</name>
<cmt>food</cmt>
<desc>Restaurant</desc>
<sym>Dot</sym>
<type>food</type>
</wpt>
<wpt lat="48.649051" lon="-123.400663">
<name>Scotty's Dog Shack</name>
<cmt>food</cmt>
<desc>Fast Food / Chain</desc>
<sym>Dot</sym>
<type>food</type>
</wpt>
<wpt lat="48.651240" lon="-123.417480">
<name>Maple Palace</name>
<cmt>food</cmt>
<desc>Restaurant</desc>
<sym>Dot</sym>
<type>food</type>
</wpt>
<wpt lat="48.643985" lon="-123.436268">
<name>Spitfire Grill</name>
<cmt>food</cmt>
<desc>Restaurant</desc>
<sym>Dot</sym>
<type>food</type>
</wpt>
<wpt lat="48.640295" lon="-123.419922">
<name>British Columbia Aviation Museum</name>
<cmt>monument</cmt>
<desc>Museum / Gallery</desc>
<sym>Dot</sym>
<type>info</type>
</wpt>
<wpt lat="48.645489" lon="-123.421109">
<name>Dakota Café</name>
<cmt>food</cmt>
<desc>Restaurant</desc>
<sym>Dot</sym>
<type>food</type>
</wpt>
<wpt lat="48.640541" lon="-123.429953">
<name>Tim Hortons</name>
<cmt>food</cmt>
<desc>Fast Food / Chain</desc>
<sym>Dot</sym>
<type>food</type>
</wpt>
<trk><name>The Flight Path</name>
<trkseg>
<trkpt lat="48.645699" lon="-123.437341"/>
<trkpt lat="48.638668" lon="-123.437166"/>
<trkpt lat="48.637632" lon="-123.435972"/>
<trkpt lat="48.637406" lon="-123.434980"/>
<trkpt lat="48.637457" lon="-123.433604"/>
<trkpt lat="48.637391" lon="-123.432742"/>
<trkpt lat="48.637399" lon="-123.430654"/>
<trkpt lat="48.636632" lon="-123.428870"/>
<trkpt lat="48.636240" lon="-123.427297"/>
<trkpt lat="48.636444" lon="-123.426997"/>
<trkpt lat="48.636328" lon="-123.426154"/>
<trkpt lat="48.635433" lon="-123.423183"/>
<trkpt lat="48.635288" lon="-123.421128"/>
<trkpt lat="48.635599" lon="-123.420360"/>
<trkpt lat="48.637024" lon="-123.420993"/>
<trkpt lat="48.637323" lon="-123.420629"/>
<trkpt lat="48.637326" lon="-123.418920"/>
<trkpt lat="48.637644" lon="-123.418612"/>
<trkpt lat="48.641410" lon="-123.417139"/>
<trkpt lat="48.642999" lon="-123.416763"/>
<trkpt lat="48.644530" lon="-123.416875"/>
<trkpt lat="48.644661" lon="-123.406695"/>
<trkpt lat="48.645065" lon="-123.405942"/>
<trkpt lat="48.645498" lon="-123.405839"/>
<trkpt lat="48.646696" lon="-123.406418"/>
<trkpt lat="48.647025" lon="-123.407046"/>
<trkpt lat="48.647473" lon="-123.409505"/>
<trkpt lat="48.648773" lon="-123.409714"/>
<trkpt lat="48.648931" lon="-123.412409"/>
<trkpt lat="48.648901" lon="-123.412680"/>
<trkpt lat="48.648966" lon="-123.412893"/>
<trkpt lat="48.649419" lon="-123.413359"/>
<trkpt lat="48.649895" lon="-123.415991"/>
<trkpt lat="48.650341" lon="-123.416838"/>
<trkpt lat="48.654686" lon="-123.417017"/>
<trkpt lat="48.655234" lon="-123.417890"/>
<trkpt lat="48.655156" lon="-123.443733"/>
<trkpt lat="48.654897" lon="-123.443994"/>
<trkpt lat="48.654218" lon="-123.443840"/>
<trkpt lat="48.654004" lon="-123.445242"/>
<trkpt lat="48.652060" lon="-123.444158"/>
<trkpt lat="48.650761" lon="-123.444474"/>
<trkpt lat="48.647872" lon="-123.439471"/>
<trkpt lat="48.647639" lon="-123.439541"/>
<trkpt lat="48.646586" lon="-123.437806"/>
<trkpt lat="48.645699" lon="-123.437341"/>
</trkseg>
</trk>
</gpx>