<?xml version="1.0" encoding="UTF-8"?>
<gpx version="1.1" creator="BC Bike Stops (bccycletourism.ca)" xmlns="http://www.topografix.com/GPX/1/1">
<metadata>
<name>Vye Road</name>
<link href="https://bccycletourism.ca/trail/vye-road/"><text>BC Bike Stops</text></link>
</metadata>
<wpt lat="49.016422" lon="-122.282115">
<name>Maan Farms</name>
<cmt>convenience_store</cmt>
<desc>Farmers' Market</desc>
<sym>Dot</sym>
<type>store</type>
</wpt>
<wpt lat="49.016110" lon="-122.289255">
<name>Willems Berry Farm</name>
<cmt>convenience_store</cmt>
<desc>Farmers' Market</desc>
<sym>Dot</sym>
<type>store</type>
</wpt>
</gpx>