<?xml version="1.0" encoding="UTF-8"?>
<gpx version="1.1" creator="BC Bike Stops (bccycletourism.ca)" xmlns="http://www.topografix.com/GPX/1/1">
<metadata>
<name>Hope Bicycle Loop Route</name>
<link href="https://bccycletourism.ca/trail/hope-bicycle-loop-route/"><text>BC Bike Stops</text></link>
</metadata>
<wpt lat="49.379066" lon="-121.431956">
<name>Hope Library</name>
<cmt>library</cmt>
<desc>Library</desc>
<sym>Dot</sym>
<type>info</type>
</wpt>
<wpt lat="49.380044" lon="-121.442390">
<name>Captain Jac Fish &amp; Chips</name>
<cmt>food</cmt>
<desc>Fast Food / Chain</desc>
<sym>Dot</sym>
<type>food</type>
</wpt>
<wpt lat="49.379536" lon="-121.441961">
<name>Hope Mountain Cafe</name>
<cmt>coffee</cmt>
<desc>Café / Coffee</desc>
<sym>Dot</sym>
<type>food</type>
</wpt>
<wpt lat="49.381542" lon="-121.434886">
<name>Kingpin Lounge</name>
<cmt>food</cmt>
<desc>Restaurant</desc>
<sym>Dot</sym>
<type>food</type>
</wpt>
<wpt lat="49.381393" lon="-121.434322">
<name>Sixth Avenue Sports</name>
<cmt>bike_shop</cmt>
<desc>Repair Shop</desc>
<sym>Dot</sym>
<type>gear</type>
</wpt>
<wpt lat="49.382032" lon="-121.435267">
<name>The Tree Hugger Smoothie &amp; Juice Bar</name>
<cmt>food</cmt>
<desc>Fast Food / Chain</desc>
<sym>Dot</sym>
<type>food</type>
</wpt>
<wpt lat="49.375689" lon="-121.431685">
<name>Save-On-Foods</name>
<cmt>convenience_store</cmt>
<desc>Grocery Store</desc>
<sym>Dot</sym>
<type>store</type>
</wpt>
<wpt lat="49.381558" lon="-121.434343">
<name>Rolling Pin Bakery</name>
<cmt>food</cmt>
<desc>Bakery / Donuts</desc>
<sym>Dot</sym>
<type>food</type>
</wpt>
<wpt lat="49.382011" lon="-121.435339">
<name>Lola's Tortas</name>
<cmt>food</cmt>
<desc>Fast Food / Chain</desc>
<sym>Dot</sym>
<type>food</type>
</wpt>
<wpt lat="49.374955" lon="-121.435258">
<name>Mountainview Tasting Lounge</name>
<cmt>bar</cmt>
<desc>Brewery / Pub</desc>
<sym>Dot</sym>
<type>food</type>
</wpt>
<wpt lat="49.374928" lon="-121.435375">
<name>Mountainview Brewing</name>
<cmt>food</cmt>
<desc>Food &amp; Drink</desc>
<sym>Dot</sym>
<type>food</type>
</wpt>
<wpt lat="49.381797" lon="-121.434460">
<name>Nomad So.Cial Eatery</name>
<cmt>food</cmt>
<desc>Restaurant</desc>
<sym>Dot</sym>
<type>food</type>
</wpt>
<wpt lat="49.375847" lon="-121.430528">
<name>Triple O's</name>
<cmt>food</cmt>
<desc>Fast Food / Chain</desc>
<sym>Dot</sym>
<type>food</type>
</wpt>
<wpt lat="49.378874" lon="-121.441628">
<name>Kan-Yon Restaurant</name>
<cmt>food</cmt>
<desc>Restaurant</desc>
<sym>Dot</sym>
<type>food</type>
</wpt>
<wpt lat="49.375405" lon="-121.435768">
<name>Hope Korean Kitchen</name>
<cmt>food</cmt>
<desc>Restaurant</desc>
<sym>Dot</sym>
<type>food</type>
</wpt>
<wpt lat="49.378897" lon="-121.441654">
<name>Freshslice Pizza</name>
<cmt>food</cmt>
<desc>Fast Food / Chain</desc>
<sym>Dot</sym>
<type>food</type>
</wpt>
<wpt lat="49.375350" lon="-121.429742">
<name>Starbucks</name>
<cmt>food</cmt>
<desc>Fast Food / Chain</desc>
<sym>Dot</sym>
<type>food</type>
</wpt>
<wpt lat="49.375352" lon="-121.429604">
<name>Booster Juice</name>
<cmt>food</cmt>
<desc>Fast Food / Chain</desc>
<sym>Dot</sym>
<type>food</type>
</wpt>
<wpt lat="49.375229" lon="-121.431666">
<name>Heritage Inn</name>
<cmt>lodging</cmt>
<desc>Hotel / Motel</desc>
<sym>Dot</sym>
<type>shelter</type>
</wpt>
<wpt lat="49.375804" lon="-121.426658">
<name>Wendy's</name>
<cmt>food</cmt>
<desc>Fast Food / Chain</desc>
<sym>Dot</sym>
<type>food</type>
</wpt>
<wpt lat="49.374756" lon="-121.436462">
<name>Travelodge</name>
<cmt>lodging</cmt>
<desc>Hotel / Motel</desc>
<sym>Dot</sym>
<type>shelter</type>
</wpt>
<wpt lat="49.375818" lon="-121.426868">
<name>Subway</name>
<cmt>food</cmt>
<desc>Fast Food / Chain</desc>
<sym>Dot</sym>
<type>food</type>
</wpt>
<wpt lat="49.375449" lon="-121.436238">
<name>Hope Inn and Suites</name>
<cmt>lodging</cmt>
<desc>Hotel / Motel</desc>
<sym>Dot</sym>
<type>shelter</type>
</wpt>
<wpt lat="49.375878" lon="-121.427331">
<name>Home Restaurant</name>
<cmt>food</cmt>
<desc>Restaurant</desc>
<sym>Dot</sym>
<type>food</type>
</wpt>
<wpt lat="49.379513" lon="-121.441084">
<name>Blue Moose Coffee House</name>
<cmt>coffee</cmt>
<desc>Café / Coffee</desc>
<sym>Dot</sym>
<type>food</type>
</wpt>
<wpt lat="49.382098" lon="-121.443340">
<name>Skagit Motel</name>
<cmt>lodging</cmt>
<desc>Hotel / Motel</desc>
<sym>Dot</sym>
<type>shelter</type>
</wpt>
<wpt lat="49.375696" lon="-121.434072">
<name>McDonald's</name>
<cmt>food</cmt>
<desc>Fast Food / Chain</desc>
<sym>Dot</sym>
<type>food</type>
</wpt>
<wpt lat="49.379480" lon="-121.431981">
<name>Hope Recreation Centre</name>
<cmt>rest_stop</cmt>
<desc>Community Centre</desc>
<sym>Dot</sym>
<type>rest_area</type>
</wpt>
<wpt lat="49.379008" lon="-121.442047">
<name>Treehouse Health</name>
<cmt>convenience_store</cmt>
<desc>Specialty / Health Food</desc>
<sym>Dot</sym>
<type>store</type>
</wpt>
<wpt lat="49.379552" lon="-121.440983">
<name>Artisans Attic and Fudgery</name>
<cmt>food</cmt>
<desc>Ice Cream</desc>
<sym>Dot</sym>
<type>food</type>
</wpt>
<wpt lat="49.375157" lon="-121.430315">
<name>A&amp;W</name>
<cmt>food</cmt>
<desc>Fast Food / Chain</desc>
<sym>Dot</sym>
<type>food</type>
</wpt>
<wpt lat="49.375110" lon="-121.430778">
<name>Royal Lodge Motel</name>
<cmt>lodging</cmt>
<desc>Hotel / Motel</desc>
<sym>Dot</sym>
<type>shelter</type>
</wpt>
<wpt lat="49.374553" lon="-121.438220">
<name>Tim Hortons</name>
<cmt>food</cmt>
<desc>Fast Food / Chain</desc>
<sym>Dot</sym>
<type>food</type>
</wpt>
<wpt lat="49.374856" lon="-121.433418">
<name>Evergreen Bed &amp; Breakfast</name>
<cmt>lodging</cmt>
<desc>B&amp;B / Inn</desc>
<sym>Dot</sym>
<type>shelter</type>
</wpt>
<wpt lat="49.378055" lon="-121.441388">
<name>Slumber Lodge</name>
<cmt>lodging</cmt>
<desc>Hotel / Motel</desc>
<sym>Dot</sym>
<type>shelter</type>
</wpt>
<wpt lat="49.375798" lon="-121.424759">
<name>7-Eleven</name>
<cmt>convenience_store</cmt>
<desc>Convenience Store</desc>
<sym>Dot</sym>
<type>store</type>
</wpt>
<wpt lat="49.376436" lon="-121.430946">
<name>Spice and Grill</name>
<cmt>food</cmt>
<desc>Restaurant</desc>
<sym>Dot</sym>
<type>food</type>
</wpt>
<wpt lat="49.374729" lon="-121.429448">
<name>Papa John's</name>
<cmt>food</cmt>
<desc>Fast Food / Chain</desc>
<sym>Dot</sym>
<type>food</type>
</wpt>
<wpt lat="49.383382" lon="-121.446982">
<name>Inntowne Motel</name>
<cmt>lodging</cmt>
<desc>Hotel / Motel</desc>
<sym>Dot</sym>
<type>shelter</type>
</wpt>
<wpt lat="49.379529" lon="-121.443816">
<name>Peter's Market &amp; Deli</name>
<cmt>convenience_store</cmt>
<desc>Convenience Store</desc>
<sym>Dot</sym>
<type>store</type>
</wpt>
<wpt lat="49.377882" lon="-121.442510">
<name>Rolly's</name>
<cmt>food</cmt>
<desc>Restaurant</desc>
<sym>Dot</sym>
<type>food</type>
</wpt>
<wpt lat="49.377933" lon="-121.442560">
<name>Best Continental Motel</name>
<cmt>lodging</cmt>
<desc>Hotel / Motel</desc>
<sym>Dot</sym>
<type>shelter</type>
</wpt>
<wpt lat="49.381446" lon="-121.436823">
<name>Stallones Kitchen + Bar</name>
<cmt>food</cmt>
<desc>Restaurant</desc>
<sym>Dot</sym>
<type>food</type>
</wpt>
<wpt lat="49.379721" lon="-121.427388">
<name>Coquihalla Campground</name>
<cmt>camping</cmt>
<desc>Private Campground</desc>
<sym>Dot</sym>
<type>campsite</type>
</wpt>
<wpt lat="49.379627" lon="-121.439426">
<name>Park Motel</name>
<cmt>lodging</cmt>
<desc>Hotel / Motel</desc>
<sym>Dot</sym>
<type>shelter</type>
</wpt>
<wpt lat="49.379207" lon="-121.444211">
<name>Pizza Hut</name>
<cmt>food</cmt>
<desc>Fast Food / Chain</desc>
<sym>Dot</sym>
<type>food</type>
</wpt>
<wpt lat="49.379295" lon="-121.444291">
<name>Subway</name>
<cmt>food</cmt>
<desc>Fast Food / Chain</desc>
<sym>Dot</sym>
<type>food</type>
</wpt>
<wpt lat="49.381055" lon="-121.437134">
<name>Bee's Convenience</name>
<cmt>convenience_store</cmt>
<desc>Convenience Store</desc>
<sym>Dot</sym>
<type>store</type>
</wpt>
<wpt lat="49.378337" lon="-121.443682">
<name>Dairy Queen</name>
<cmt>food</cmt>
<desc>Ice Cream</desc>
<sym>Dot</sym>
<type>food</type>
</wpt>
<wpt lat="49.377653" lon="-121.443157">
<name>Hope Pizza Place</name>
<cmt>food</cmt>
<desc>Restaurant</desc>
<sym>Dot</sym>
<type>food</type>
</wpt>
<wpt lat="49.380789" lon="-121.438816">
<name>City Center Motel</name>
<cmt>lodging</cmt>
<desc>Hotel / Motel</desc>
<sym>Dot</sym>
<type>shelter</type>
</wpt>
<wpt lat="49.380495" lon="-121.438515">
<name>Flames Pizzas</name>
<cmt>food</cmt>
<desc>Fast Food / Chain</desc>
<sym>Dot</sym>
<type>food</type>
</wpt>
<wpt lat="49.381357" lon="-121.438669">
<name>Buy-low foods</name>
<cmt>convenience_store</cmt>
<desc>Grocery Store</desc>
<sym>Dot</sym>
<type>store</type>
</wpt>
<wpt lat="49.381195" lon="-121.438830">
<name>BC Liquor Store</name>
<cmt>convenience_store</cmt>
<desc>Liquor Store</desc>
<sym>Dot</sym>
<type>store</type>
</wpt>
<wpt lat="49.380812" lon="-121.447445">
<name>Telte-Yet</name>
<cmt>camping</cmt>
<desc>Private Campground</desc>
<sym>Dot</sym>
<type>campsite</type>
</wpt>
<wpt lat="49.381807" lon="-121.425033">
<name>Hope Bike Park</name>
<cmt>rest_stop</cmt>
<desc>Community Centre</desc>
<sym>Dot</sym>
<type>rest_area</type>
</wpt>
<wpt lat="49.374398" lon="-121.419672">
<name>Colonial 900 Motel</name>
<cmt>lodging</cmt>
<desc>Hotel / Motel</desc>
<sym>Dot</sym>
<type>shelter</type>
</wpt>
<trk><name>Hope Bicycle Loop Route</name>
<trkseg>
<trkpt lat="49.387009" lon="-121.449666"/>
<trkpt lat="49.386778" lon="-121.448371"/>
<trkpt lat="49.386452" lon="-121.448478"/>
<trkpt lat="49.385779" lon="-121.447737"/>
<trkpt lat="49.385850" lon="-121.446652"/>
<trkpt lat="49.384997" lon="-121.446499"/>
<trkpt lat="49.383290" lon="-121.445035"/>
<trkpt lat="49.380997" lon="-121.443037"/>
<trkpt lat="49.379470" lon="-121.441705"/>
<trkpt lat="49.378004" lon="-121.440400"/>
<trkpt lat="49.374880" lon="-121.437675"/>
<trkpt lat="49.375620" lon="-121.429374"/>
<trkpt lat="49.375617" lon="-121.429009"/>
<trkpt lat="49.375399" lon="-121.425874"/>
<trkpt lat="49.378687" lon="-121.428712"/>
<trkpt lat="49.378865" lon="-121.428881"/>
<trkpt lat="49.379737" lon="-121.429682"/>
<trkpt lat="49.378896" lon="-121.432339"/>
<trkpt lat="49.380114" lon="-121.433413"/>
<trkpt lat="49.381961" lon="-121.435042"/>
<trkpt lat="49.382963" lon="-121.432506"/>
<trkpt lat="49.383200" lon="-121.432657"/>
<trkpt lat="49.384060" lon="-121.433396"/>
<trkpt lat="49.384472" lon="-121.433756"/>
<trkpt lat="49.385597" lon="-121.434756"/>
<trkpt lat="49.386015" lon="-121.435090"/>
<trkpt lat="49.386529" lon="-121.435566"/>
<trkpt lat="49.386869" lon="-121.434729"/>
<trkpt lat="49.387502" lon="-121.435276"/>
<trkpt lat="49.387903" lon="-121.437455"/>
<trkpt lat="49.388556" lon="-121.437324"/>
<trkpt lat="49.390509" lon="-121.439078"/>
<trkpt lat="49.391268" lon="-121.439748"/>
<trkpt lat="49.392011" lon="-121.440474"/>
<trkpt lat="49.392708" lon="-121.440998"/>
<trkpt lat="49.393276" lon="-121.441605"/>
<trkpt lat="49.391724" lon="-121.445576"/>
<trkpt lat="49.390074" lon="-121.446299"/>
<trkpt lat="49.388722" lon="-121.446863"/>
<trkpt lat="49.389071" lon="-121.448838"/>
<trkpt lat="49.387009" lon="-121.449666"/>
</trkseg>
</trk>
</gpx>