<?xml version="1.0" encoding="UTF-8"?>
<gpx version="1.1" creator="We Welcome Cyclists (bccycletourism.ca)" xmlns="http://www.topografix.com/GPX/1/1">
<metadata>
<name>Foothills</name>
<link href="https://bccycletourism.ca/trail/foothills/"><text>We Welcome Cyclists</text></link>
</metadata>
<wpt lat="53.985050" lon="-122.801639">
<name>Alpine Pub &amp; Grill</name>
<cmt>bar</cmt>
<desc>Brewery / Pub</desc>
<sym>Dot</sym>
<type>food</type>
</wpt>
<trk><name>Foothills</name>
<trkseg>
<trkpt lat="53.933619" lon="-122.819867"/>
<trkpt lat="53.937134" lon="-122.822448"/>
<trkpt lat="53.939436" lon="-122.822684"/>
<trkpt lat="53.940106" lon="-122.822453"/>
<trkpt lat="53.942726" lon="-122.820196"/>
<trkpt lat="53.942881" lon="-122.820074"/>
<trkpt lat="53.943463" lon="-122.819613"/>
<trkpt lat="53.943707" lon="-122.819421"/>
<trkpt lat="53.945912" lon="-122.817462"/>
<trkpt lat="53.947106" lon="-122.816442"/>
<trkpt lat="53.950195" lon="-122.814127"/>
<trkpt lat="53.957264" lon="-122.814006"/>
</trkseg>
<trkseg>
<trkpt lat="53.957264" lon="-122.814006"/>
<trkpt lat="53.957583" lon="-122.813879"/>
<trkpt lat="53.957988" lon="-122.813802"/>
<trkpt lat="53.958275" lon="-122.813726"/>
<trkpt lat="53.958547" lon="-122.813735"/>
</trkseg>
<trkseg>
<trkpt lat="53.958547" lon="-122.813735"/>
<trkpt lat="53.961659" lon="-122.812922"/>
<trkpt lat="53.962607" lon="-122.812242"/>
<trkpt lat="53.963425" lon="-122.810864"/>
<trkpt lat="53.964126" lon="-122.806598"/>
<trkpt lat="53.964337" lon="-122.801120"/>
<trkpt lat="53.964584" lon="-122.799672"/>
<trkpt lat="53.965392" lon="-122.797410"/>
<trkpt lat="53.967061" lon="-122.795428"/>
<trkpt lat="53.968318" lon="-122.794949"/>
<trkpt lat="53.970302" lon="-122.795615"/>
<trkpt lat="53.975166" lon="-122.799836"/>
<trkpt lat="53.977444" lon="-122.801270"/>
<trkpt lat="53.977952" lon="-122.801590"/>
<trkpt lat="53.978293" lon="-122.801805"/>
<trkpt lat="53.979925" lon="-122.803094"/>
<trkpt lat="53.980667" lon="-122.804169"/>
<trkpt lat="53.983735" lon="-122.809903"/>
<trkpt lat="53.987429" lon="-122.812384"/>
<trkpt lat="53.988702" lon="-122.813813"/>
<trkpt lat="53.994024" lon="-122.823745"/>
<trkpt lat="53.995333" lon="-122.825333"/>
<trkpt lat="53.996963" lon="-122.825606"/>
<trkpt lat="53.997938" lon="-122.825045"/>
<trkpt lat="54.000999" lon="-122.820609"/>
<trkpt lat="54.002655" lon="-122.819514"/>
<trkpt lat="54.009266" lon="-122.819428"/>
</trkseg>
<trkseg>
<trkpt lat="53.958547" lon="-122.813735"/>
<trkpt lat="53.958387" lon="-122.813835"/>
<trkpt lat="53.958016" lon="-122.813944"/>
<trkpt lat="53.957674" lon="-122.814020"/>
<trkpt lat="53.957264" lon="-122.814006"/>
</trkseg>
<trkseg>
<trkpt lat="53.933619" lon="-122.819867"/>
<trkpt lat="53.931177" lon="-122.819790"/>
<trkpt lat="53.926800" lon="-122.820843"/>
<trkpt lat="53.924895" lon="-122.819952"/>
<trkpt lat="53.920693" lon="-122.819562"/>
<trkpt lat="53.920560" lon="-122.819555"/>
<trkpt lat="53.916584" lon="-122.819436"/>
<trkpt lat="53.915742" lon="-122.818503"/>
<trkpt lat="53.914550" lon="-122.816308"/>
<trkpt lat="53.912065" lon="-122.811972"/>
<trkpt lat="53.910434" lon="-122.811690"/>
<trkpt lat="53.910282" lon="-122.811696"/>
<trkpt lat="53.908076" lon="-122.811520"/>
<trkpt lat="53.907525" lon="-122.811227"/>
<trkpt lat="53.907345" lon="-122.810721"/>
<trkpt lat="53.908105" lon="-122.811307"/>
<trkpt lat="53.910270" lon="-122.811463"/>
<trkpt lat="53.910435" lon="-122.811466"/>
<trkpt lat="53.911741" lon="-122.811548"/>
<trkpt lat="53.912366" lon="-122.812057"/>
<trkpt lat="53.914696" lon="-122.816103"/>
<trkpt lat="53.916225" lon="-122.818823"/>
<trkpt lat="53.916736" lon="-122.819235"/>
<trkpt lat="53.920553" lon="-122.819290"/>
<trkpt lat="53.920708" lon="-122.819290"/>
<trkpt lat="53.924920" lon="-122.819700"/>
<trkpt lat="53.927091" lon="-122.820521"/>
<trkpt lat="53.931172" lon="-122.819529"/>
<trkpt lat="53.932936" lon="-122.819529"/>
<trkpt lat="53.933619" lon="-122.819867"/>
</trkseg>
</trk>
</gpx>