<?xml version="1.0" encoding="UTF-8"?>
<gpx version="1.1" creator="BC Bike Stops (bccycletourism.ca)" xmlns="http://www.topografix.com/GPX/1/1">
<metadata>
<name>96 Avenue</name>
<link href="https://bccycletourism.ca/trail/96-avenue/"><text>BC Bike Stops</text></link>
</metadata>
<wpt lat="49.177180" lon="-122.789348">
<name>Super Save</name>
<cmt>convenience_store</cmt>
<desc>Convenience Store</desc>
<sym>Dot</sym>
<type>store</type>
</wpt>
<wpt lat="49.176596" lon="-122.780835">
<name>Scott 96 Pizza</name>
<cmt>food</cmt>
<desc>Fast Food / Chain</desc>
<sym>Dot</sym>
<type>food</type>
</wpt>
<wpt lat="49.176595" lon="-122.779403">
<name>Husky</name>
<cmt>convenience_store</cmt>
<desc>Convenience Store</desc>
<sym>Dot</sym>
<type>store</type>
</wpt>
<wpt lat="49.176670" lon="-122.801667">
<name>Circle K</name>
<cmt>convenience_store</cmt>
<desc>Convenience Store</desc>
<sym>Dot</sym>
<type>store</type>
</wpt>
<wpt lat="49.177585" lon="-122.756164">
<name>Tim Hortons</name>
<cmt>food</cmt>
<desc>Fast Food / Chain</desc>
<sym>Dot</sym>
<type>food</type>
</wpt>
<wpt lat="49.177670" lon="-122.778404">
<name>McDonald's</name>
<cmt>food</cmt>
<desc>Fast Food / Chain</desc>
<sym>Dot</sym>
<type>food</type>
</wpt>
<wpt lat="49.175987" lon="-122.801738">
<name>D-Plus Pizza</name>
<cmt>food</cmt>
<desc>Restaurant</desc>
<sym>Dot</sym>
<type>food</type>
</wpt>
<wpt lat="49.175759" lon="-122.801774">
<name>Swagat Indian Sweet &amp; Restaurant</name>
<cmt>food</cmt>
<desc>Restaurant</desc>
<sym>Dot</sym>
<type>food</type>
</wpt>
<wpt lat="49.180003" lon="-122.764076">
<name>Raven's Nest Outdoor Group Campsite</name>
<cmt>camping</cmt>
<desc>Public Campground</desc>
<sym>Dot</sym>
<type>campsite</type>
</wpt>
<trk><name>96 Avenue</name>
<trkseg>
<trkpt lat="49.176794" lon="-122.800975"/>
<trkpt lat="49.176817" lon="-122.798796"/>
<trkpt lat="49.176824" lon="-122.798277"/>
<trkpt lat="49.176827" lon="-122.796324"/>
<trkpt lat="49.176830" lon="-122.795498"/>
<trkpt lat="49.176836" lon="-122.793641"/>
<trkpt lat="49.176837" lon="-122.792997"/>
<trkpt lat="49.176847" lon="-122.790932"/>
<trkpt lat="49.176851" lon="-122.789971"/>
<trkpt lat="49.176855" lon="-122.787315"/>
<trkpt lat="49.176857" lon="-122.784516"/>
<trkpt lat="49.176857" lon="-122.782648"/>
<trkpt lat="49.176858" lon="-122.781921"/>
<trkpt lat="49.176859" lon="-122.779828"/>
<trkpt lat="49.176862" lon="-122.778940"/>
<trkpt lat="49.176861" lon="-122.778812"/>
<trkpt lat="49.176862" lon="-122.778572"/>
<trkpt lat="49.176866" lon="-122.778069"/>
<trkpt lat="49.176871" lon="-122.777058"/>
<trkpt lat="49.176874" lon="-122.776097"/>
<trkpt lat="49.176881" lon="-122.774842"/>
<trkpt lat="49.176882" lon="-122.774651"/>
<trkpt lat="49.176888" lon="-122.773043"/>
<trkpt lat="49.176892" lon="-122.771963"/>
<trkpt lat="49.176900" lon="-122.770849"/>
<trkpt lat="49.176909" lon="-122.770308"/>
<trkpt lat="49.176966" lon="-122.767492"/>
<trkpt lat="49.176968" lon="-122.767001"/>
<trkpt lat="49.176976" lon="-122.763396"/>
<trkpt lat="49.176975" lon="-122.762990"/>
<trkpt lat="49.176989" lon="-122.760569"/>
<trkpt lat="49.176991" lon="-122.760116"/>
<trkpt lat="49.176992" lon="-122.759782"/>
<trkpt lat="49.176994" lon="-122.759290"/>
<trkpt lat="49.176999" lon="-122.757695"/>
<trkpt lat="49.176996" lon="-122.756589"/>
<trkpt lat="49.176996" lon="-122.756317"/>
<trkpt lat="49.176996" lon="-122.755761"/>
<trkpt lat="49.176994" lon="-122.746763"/>
<trkpt lat="49.176993" lon="-122.745857"/>
<trkpt lat="49.176865" lon="-122.736867"/>
<trkpt lat="49.176699" lon="-122.736141"/>
<trkpt lat="49.176523" lon="-122.735416"/>
<trkpt lat="49.176399" lon="-122.734850"/>
<trkpt lat="49.176335" lon="-122.734578"/>
<trkpt lat="49.176303" lon="-122.734439"/>
<trkpt lat="49.176206" lon="-122.734050"/>
<trkpt lat="49.175490" lon="-122.730655"/>
<trkpt lat="49.175527" lon="-122.723752"/>
<trkpt lat="49.175570" lon="-122.717808"/>
<trkpt lat="49.176149" lon="-122.715815"/>
<trkpt lat="49.177176" lon="-122.714750"/>
<trkpt lat="49.178656" lon="-122.713685"/>
<trkpt lat="49.178659" lon="-122.713011"/>
<trkpt lat="49.177217" lon="-122.711382"/>
</trkseg>
<trkseg>
<trkpt lat="49.177298" lon="-122.711275"/>
<trkpt lat="49.178701" lon="-122.712866"/>
<trkpt lat="49.179067" lon="-122.713222"/>
<trkpt lat="49.179155" lon="-122.713310"/>
<trkpt lat="49.179079" lon="-122.713402"/>
<trkpt lat="49.177184" lon="-122.714884"/>
<trkpt lat="49.176203" lon="-122.715922"/>
<trkpt lat="49.175694" lon="-122.717589"/>
<trkpt lat="49.175664" lon="-122.722418"/>
<trkpt lat="49.175635" lon="-122.723756"/>
<trkpt lat="49.175591" lon="-122.730154"/>
<trkpt lat="49.175940" lon="-122.732345"/>
<trkpt lat="49.176217" lon="-122.733493"/>
<trkpt lat="49.176360" lon="-122.734075"/>
<trkpt lat="49.176445" lon="-122.734437"/>
<trkpt lat="49.176477" lon="-122.734572"/>
<trkpt lat="49.176542" lon="-122.734844"/>
<trkpt lat="49.176667" lon="-122.735366"/>
<trkpt lat="49.177073" lon="-122.737414"/>
<trkpt lat="49.177091" lon="-122.740701"/>
<trkpt lat="49.177090" lon="-122.741486"/>
<trkpt lat="49.177089" lon="-122.746263"/>
<trkpt lat="49.177088" lon="-122.746757"/>
<trkpt lat="49.177083" lon="-122.755650"/>
<trkpt lat="49.177085" lon="-122.756589"/>
<trkpt lat="49.177086" lon="-122.756821"/>
<trkpt lat="49.177087" lon="-122.757327"/>
<trkpt lat="49.177088" lon="-122.757768"/>
<trkpt lat="49.177083" lon="-122.760319"/>
<trkpt lat="49.177084" lon="-122.760845"/>
<trkpt lat="49.177050" lon="-122.762991"/>
<trkpt lat="49.177046" lon="-122.763395"/>
<trkpt lat="49.177059" lon="-122.766800"/>
<trkpt lat="49.177056" lon="-122.767509"/>
<trkpt lat="49.176991" lon="-122.770987"/>
<trkpt lat="49.176982" lon="-122.771958"/>
<trkpt lat="49.176980" lon="-122.772330"/>
<trkpt lat="49.176976" lon="-122.772825"/>
<trkpt lat="49.176964" lon="-122.775191"/>
<trkpt lat="49.176963" lon="-122.776096"/>
<trkpt lat="49.176957" lon="-122.777809"/>
<trkpt lat="49.176959" lon="-122.778937"/>
<trkpt lat="49.176959" lon="-122.781614"/>
<trkpt lat="49.176950" lon="-122.784485"/>
<trkpt lat="49.176948" lon="-122.787219"/>
<trkpt lat="49.176926" lon="-122.794624"/>
<trkpt lat="49.176921" lon="-122.795502"/>
<trkpt lat="49.176914" lon="-122.798109"/>
<trkpt lat="49.176905" lon="-122.799098"/>
<trkpt lat="49.176893" lon="-122.800973"/>
</trkseg>
</trk>
</gpx>