<?xml version="1.0" encoding="UTF-8"?>
<gpx version="1.1" creator="BC Bike Stops (bccycletourism.ca)" xmlns="http://www.topografix.com/GPX/1/1">
<metadata>
<name>Delta Watershed + Joe Brown Trails — cycling stops</name>
<link href="https://bccycletourism.ca/route/delta-watershed-joe-brown-trails/"><text>BC Bike Stops</text></link>
</metadata>
<wpt lat="49.141105" lon="-122.922177">
<name>Delta Nature Reserve</name>
<cmt>park</cmt>
<desc>Park / Nature</desc>
<sym>Dot</sym>
<type>rest_area</type>
</wpt>
<wpt lat="49.156616" lon="-122.940544">
<name>Tide Waters Pub</name>
<cmt>bar</cmt>
<desc>Brewery / Pub</desc>
<sym>Dot</sym>
<type>food</type>
</wpt>
<wpt lat="49.112745" lon="-122.903071">
<name>Watershed Park</name>
<cmt>park</cmt>
<desc>Park / Nature</desc>
<sym>Dot</sym>
<type>rest_area</type>
</wpt>
<wpt lat="49.148949" lon="-122.935282">
<name>Planet Ice Delta</name>
<cmt>rest_stop</cmt>
<desc>Community Centre</desc>
<sym>Dot</sym>
<type>rest_area</type>
</wpt>
<wpt lat="49.144911" lon="-122.930896">
<name>Buried Bulldozer</name>
<cmt>viewpoint</cmt>
<desc>Activity / Experience</desc>
<sym>Dot</sym>
<type>overlook</type>
</wpt>
</gpx>