<?xml version="1.0" encoding="UTF-8"?>
<gpx version="1.1" creator="BC Bike Stops (bccycletourism.ca)" xmlns="http://www.topografix.com/GPX/1/1">
<metadata>
<name>NorthStar Rails to Trails</name>
<link href="https://bccycletourism.ca/trail/northstar-rails-to-trails/"><text>BC Bike Stops</text></link>
</metadata>
<wpt lat="49.674416" lon="-115.976959">
<name>Kimberley Aquatic Centre</name>
<cmt>rest_stop</cmt>
<desc>Community Centre</desc>
<sym>Dot</sym>
<type>rest_area</type>
</wpt>
<wpt lat="49.673378" lon="-115.976991">
<name>Kimberley Community Garden</name>
<cmt>park</cmt>
<desc>Park / Nature</desc>
<sym>Dot</sym>
<type>rest_area</type>
</wpt>
<wpt lat="49.672679" lon="-115.981538">
<name>2 J's Cafe</name>
<cmt>food</cmt>
<desc>Restaurant</desc>
<sym>Dot</sym>
<type>food</type>
</wpt>
<wpt lat="49.672506" lon="-115.981788">
<name>Kimberley Kitchen</name>
<cmt>food</cmt>
<desc>Restaurant</desc>
<sym>Dot</sym>
<type>food</type>
</wpt>
<wpt lat="49.672735" lon="-115.982541">
<name>Save-On-Foods</name>
<cmt>convenience_store</cmt>
<desc>Grocery Store</desc>
<sym>Dot</sym>
<type>store</type>
</wpt>
<wpt lat="49.531850" lon="-115.749850">
<name>Walmart</name>
<cmt>convenience_store</cmt>
<desc>Grocery Store</desc>
<sym>Dot</sym>
<type>store</type>
</wpt>
<wpt lat="49.530825" lon="-115.751144">
<name>Great Canadian Liquor Warehouse</name>
<cmt>convenience_store</cmt>
<desc>Liquor Store</desc>
<sym>Dot</sym>
<type>store</type>
</wpt>
<wpt lat="49.529421" lon="-115.753441">
<name>Real Canadian Superstore</name>
<cmt>convenience_store</cmt>
<desc>Grocery Store</desc>
<sym>Dot</sym>
<type>store</type>
</wpt>
<wpt lat="49.531336" lon="-115.748762">
<name>Booster Juice</name>
<cmt>food</cmt>
<desc>Fast Food / Chain</desc>
<sym>Dot</sym>
<type>food</type>
</wpt>
<trk><name>NorthStar Rails to Trails</name>
<trkseg>
<trkpt lat="49.676090" lon="-115.977206"/>
<trkpt lat="49.676194" lon="-115.976776"/>
<trkpt lat="49.676264" lon="-115.976517"/>
<trkpt lat="49.672966" lon="-115.975678"/>
<trkpt lat="49.670224" lon="-115.973865"/>
<trkpt lat="49.669738" lon="-115.972669"/>
<trkpt lat="49.669585" lon="-115.970093"/>
<trkpt lat="49.669139" lon="-115.968801"/>
<trkpt lat="49.668300" lon="-115.966744"/>
<trkpt lat="49.666544" lon="-115.965679"/>
<trkpt lat="49.664614" lon="-115.965153"/>
<trkpt lat="49.660449" lon="-115.965117"/>
<trkpt lat="49.659227" lon="-115.965756"/>
<trkpt lat="49.657552" lon="-115.968207"/>
<trkpt lat="49.656735" lon="-115.968842"/>
<trkpt lat="49.654546" lon="-115.967975"/>
<trkpt lat="49.650468" lon="-115.968103"/>
<trkpt lat="49.648670" lon="-115.968706"/>
<trkpt lat="49.646579" lon="-115.966742"/>
<trkpt lat="49.645193" lon="-115.966443"/>
<trkpt lat="49.644056" lon="-115.965202"/>
<trkpt lat="49.642787" lon="-115.964553"/>
<trkpt lat="49.642204" lon="-115.963600"/>
<trkpt lat="49.641791" lon="-115.961913"/>
<trkpt lat="49.641993" lon="-115.958764"/>
<trkpt lat="49.641380" lon="-115.955866"/>
<trkpt lat="49.641495" lon="-115.954710"/>
<trkpt lat="49.642054" lon="-115.952996"/>
<trkpt lat="49.642201" lon="-115.951081"/>
<trkpt lat="49.642805" lon="-115.948984"/>
<trkpt lat="49.642615" lon="-115.946217"/>
<trkpt lat="49.642051" lon="-115.944538"/>
<trkpt lat="49.641178" lon="-115.943415"/>
<trkpt lat="49.638279" lon="-115.942654"/>
<trkpt lat="49.635713" lon="-115.939676"/>
<trkpt lat="49.634147" lon="-115.939492"/>
<trkpt lat="49.633103" lon="-115.939496"/>
<trkpt lat="49.631156" lon="-115.938311"/>
<trkpt lat="49.630101" lon="-115.936715"/>
<trkpt lat="49.629572" lon="-115.934765"/>
<trkpt lat="49.628886" lon="-115.933349"/>
<trkpt lat="49.625000" lon="-115.929672"/>
<trkpt lat="49.621731" lon="-115.926319"/>
<trkpt lat="49.620181" lon="-115.923775"/>
<trkpt lat="49.619118" lon="-115.920842"/>
<trkpt lat="49.617101" lon="-115.917569"/>
<trkpt lat="49.616087" lon="-115.914238"/>
<trkpt lat="49.615833" lon="-115.912551"/>
<trkpt lat="49.615487" lon="-115.905217"/>
<trkpt lat="49.614765" lon="-115.902289"/>
<trkpt lat="49.614293" lon="-115.901367"/>
<trkpt lat="49.612713" lon="-115.899776"/>
<trkpt lat="49.612098" lon="-115.895804"/>
<trkpt lat="49.611668" lon="-115.894392"/>
<trkpt lat="49.602576" lon="-115.875000"/>
<trkpt lat="49.602149" lon="-115.873228"/>
<trkpt lat="49.602147" lon="-115.870913"/>
<trkpt lat="49.603626" lon="-115.868143"/>
<trkpt lat="49.603528" lon="-115.865704"/>
<trkpt lat="49.602622" lon="-115.863516"/>
<trkpt lat="49.600866" lon="-115.860869"/>
<trkpt lat="49.600748" lon="-115.859548"/>
<trkpt lat="49.600970" lon="-115.856134"/>
<trkpt lat="49.599903" lon="-115.853642"/>
<trkpt lat="49.599727" lon="-115.851163"/>
<trkpt lat="49.597134" lon="-115.848298"/>
<trkpt lat="49.595996" lon="-115.847161"/>
<trkpt lat="49.593440" lon="-115.844726"/>
<trkpt lat="49.589569" lon="-115.843411"/>
<trkpt lat="49.588606" lon="-115.842544"/>
<trkpt lat="49.588281" lon="-115.841189"/>
<trkpt lat="49.588402" lon="-115.837421"/>
<trkpt lat="49.587875" lon="-115.835111"/>
<trkpt lat="49.587677" lon="-115.833075"/>
<trkpt lat="49.586753" lon="-115.831831"/>
<trkpt lat="49.585070" lon="-115.831566"/>
<trkpt lat="49.583610" lon="-115.828783"/>
<trkpt lat="49.582407" lon="-115.824964"/>
<trkpt lat="49.582416" lon="-115.820139"/>
<trkpt lat="49.581655" lon="-115.818585"/>
<trkpt lat="49.581110" lon="-115.816442"/>
<trkpt lat="49.580372" lon="-115.815647"/>
<trkpt lat="49.579256" lon="-115.815488"/>
<trkpt lat="49.578105" lon="-115.813717"/>
<trkpt lat="49.576456" lon="-115.812695"/>
<trkpt lat="49.571876" lon="-115.804774"/>
<trkpt lat="49.571451" lon="-115.802431"/>
<trkpt lat="49.571095" lon="-115.801674"/>
<trkpt lat="49.569989" lon="-115.800176"/>
<trkpt lat="49.567549" lon="-115.798640"/>
<trkpt lat="49.565703" lon="-115.796785"/>
<trkpt lat="49.565236" lon="-115.795971"/>
<trkpt lat="49.564946" lon="-115.794869"/>
<trkpt lat="49.564927" lon="-115.793704"/>
<trkpt lat="49.565562" lon="-115.789705"/>
<trkpt lat="49.564488" lon="-115.784260"/>
<trkpt lat="49.562500" lon="-115.779641"/>
<trkpt lat="49.556494" lon="-115.768086"/>
<trkpt lat="49.550206" lon="-115.758101"/>
<trkpt lat="49.549249" lon="-115.756965"/>
<trkpt lat="49.544891" lon="-115.754645"/>
<trkpt lat="49.539811" lon="-115.753382"/>
<trkpt lat="49.536786" lon="-115.753346"/>
<trkpt lat="49.533686" lon="-115.754556"/>
</trkseg>
</trk>
</gpx>