<?xml version="1.0" encoding="UTF-8"?>
<gpx version="1.1" creator="BC Bike Stops (bccycletourism.ca)" xmlns="http://www.topografix.com/GPX/1/1">
<metadata>
<name>116 Street</name>
<link href="https://bccycletourism.ca/trail/116-street/"><text>BC Bike Stops</text></link>
</metadata>
<wpt lat="49.182209" lon="-122.898651">
<name>Tom Hopkins Ravine Park</name>
<cmt>park</cmt>
<desc>Park / Nature</desc>
<sym>Dot</sym>
<type>rest_area</type>
</wpt>
<wpt lat="49.185555" lon="-122.899133">
<name>Maple Pizza and Grace Market</name>
<cmt>convenience_store</cmt>
<desc>Convenience Store</desc>
<sym>Dot</sym>
<type>store</type>
</wpt>
<wpt lat="49.156818" lon="-122.905469">
<name>North Delta Centre for the Arts</name>
<cmt>monument</cmt>
<desc>Museum / Gallery</desc>
<sym>Dot</sym>
<type>info</type>
</wpt>
<wpt lat="49.157125" lon="-122.906654">
<name>North Delta Recreation Centre</name>
<cmt>rest_stop</cmt>
<desc>Community Centre</desc>
<sym>Dot</sym>
<type>rest_area</type>
</wpt>
</gpx>