<?xml version="1.0" encoding="UTF-8"?>
<gpx version="1.1" creator="BC Bike Stops (bccycletourism.ca)" xmlns="http://www.topografix.com/GPX/1/1">
<metadata>
<name>Russ Baker Way Cycle Route</name>
<link href="https://bccycletourism.ca/trail/russ-baker-way-cycle-route/"><text>BC Bike Stops</text></link>
</metadata>
<wpt lat="49.179939" lon="-123.152347">
<name>McDonald's</name>
<cmt>food</cmt>
<desc>Fast Food / Chain</desc>
<sym>Dot</sym>
<type>food</type>
</wpt>
<wpt lat="49.190605" lon="-123.141091">
<name>Radisson Blu Vancouver Airport Hotel &amp; Marina</name>
<cmt>lodging</cmt>
<desc>Hotel / Motel</desc>
<sym>Dot</sym>
<type>shelter</type>
</wpt>
<wpt lat="49.191598" lon="-123.144316">
<name>Sea Island Community Centre</name>
<cmt>rest_stop</cmt>
<desc>Community Centre</desc>
<sym>Dot</sym>
<type>rest_area</type>
</wpt>
<wpt lat="49.190695" lon="-123.139231">
<name>The Deck Kitchen + Bar</name>
<cmt>food</cmt>
<desc>Restaurant</desc>
<sym>Dot</sym>
<type>food</type>
</wpt>
<wpt lat="49.174350" lon="-123.151881">
<name>Time Out Cafe</name>
<cmt>coffee</cmt>
<desc>Café / Coffee</desc>
<sym>Dot</sym>
<type>food</type>
</wpt>
<wpt lat="49.174408" lon="-123.151333">
<name>Richmond Olympic Experience</name>
<cmt>monument</cmt>
<desc>Museum / Gallery</desc>
<sym>Dot</sym>
<type>info</type>
</wpt>
</gpx>