<?xml version="1.0" encoding="UTF-8"?>
<gpx version="1.1" creator="BC Bike Stops (bccycletourism.ca)" xmlns="http://www.topografix.com/GPX/1/1">
<metadata>
<name>Texada Island • Savary Island — cycling stops</name>
<link href="https://bccycletourism.ca/route/isl-52/"><text>BC Bike Stops</text></link>
</metadata>
<wpt lat="49.941645" lon="-124.783285">
<name>Savary Island General Store</name>
<cmt>convenience_store</cmt>
<desc>Grocery Store</desc>
<sym>Dot</sym>
<type>store</type>
</wpt>
<wpt lat="49.941735" lon="-124.783220">
<name>Rigger's</name>
<cmt>bar</cmt>
<desc>Brewery / Pub</desc>
<sym>Dot</sym>
<type>food</type>
</wpt>
<wpt lat="49.654738" lon="-124.464849">
<name>Shelter Point Regional Campground</name>
<cmt>camping</cmt>
<desc>Private Campground</desc>
<sym>Dot</sym>
<type>campsite</type>
</wpt>
<wpt lat="49.760772" lon="-124.558821">
<name>Texada Island Museum</name>
<cmt>monument</cmt>
<desc>Museum / Gallery</desc>
<sym>Dot</sym>
<type>info</type>
</wpt>
</gpx>