<?xml version="1.0" encoding="UTF-8"?>
<gpx version="1.1" creator="BC Bike Stops (bccycletourism.ca)" xmlns="http://www.topografix.com/GPX/1/1">
<metadata>
<name>Tsawwassen Shared Lane Connectors</name>
<link href="https://bccycletourism.ca/trail/tsawwassen-shared-lane-connectors/"><text>BC Bike Stops</text></link>
</metadata>
<wpt lat="49.090353" lon="-123.082648">
<name>Stir Coffee House</name>
<cmt>coffee</cmt>
<desc>Café / Coffee</desc>
<sym>Dot</sym>
<type>food</type>
</wpt>
<wpt lat="49.090879" lon="-123.083367">
<name>Pizza Hut</name>
<cmt>food</cmt>
<desc>Fast Food / Chain</desc>
<sym>Dot</sym>
<type>food</type>
</wpt>
<wpt lat="49.089070" lon="-123.082278">
<name>Ladner Community Centre</name>
<cmt>rest_stop</cmt>
<desc>Community Centre</desc>
<sym>Dot</sym>
<type>rest_area</type>
</wpt>
<wpt lat="49.090027" lon="-123.083020">
<name>Domino's</name>
<cmt>food</cmt>
<desc>Fast Food / Chain</desc>
<sym>Dot</sym>
<type>food</type>
</wpt>
<wpt lat="49.089154" lon="-123.079931">
<name>Doon Express</name>
<cmt>food</cmt>
<desc>Restaurant</desc>
<sym>Dot</sym>
<type>food</type>
</wpt>
<wpt lat="49.089284" lon="-123.080070">
<name>Quiznos</name>
<cmt>food</cmt>
<desc>Fast Food / Chain</desc>
<sym>Dot</sym>
<type>food</type>
</wpt>
<wpt lat="49.089368" lon="-123.080157">
<name>Richlea Bakery</name>
<cmt>food</cmt>
<desc>Bakery / Donuts</desc>
<sym>Dot</sym>
<type>food</type>
</wpt>
<wpt lat="49.089411" lon="-123.080201">
<name>Non-Stop Pizza</name>
<cmt>food</cmt>
<desc>Fast Food / Chain</desc>
<sym>Dot</sym>
<type>food</type>
</wpt>
<wpt lat="49.089393" lon="-123.080178">
<name>Grizzly Flatbread</name>
<cmt>food</cmt>
<desc>Restaurant</desc>
<sym>Dot</sym>
<type>food</type>
</wpt>
<wpt lat="49.090376" lon="-123.083505">
<name>Taverna Gorgona</name>
<cmt>food</cmt>
<desc>Restaurant</desc>
<sym>Dot</sym>
<type>food</type>
</wpt>
<wpt lat="49.089882" lon="-123.091417">
<name>Ming Court</name>
<cmt>food</cmt>
<desc>Restaurant</desc>
<sym>Dot</sym>
<type>food</type>
</wpt>
<wpt lat="49.089991" lon="-123.080656">
<name>Dairy Queen</name>
<cmt>food</cmt>
<desc>Ice Cream</desc>
<sym>Dot</sym>
<type>food</type>
</wpt>
<wpt lat="49.090780" lon="-123.084238">
<name>Jarry's Market</name>
<cmt>convenience_store</cmt>
<desc>Grocery Store</desc>
<sym>Dot</sym>
<type>store</type>
</wpt>
<wpt lat="49.090659" lon="-123.084131">
<name>Cafe de Gourmet</name>
<cmt>coffee</cmt>
<desc>Café / Coffee</desc>
<sym>Dot</sym>
<type>food</type>
</wpt>
<wpt lat="49.090041" lon="-123.084298">
<name>Ladner Pho Saigon</name>
<cmt>food</cmt>
<desc>Restaurant</desc>
<sym>Dot</sym>
<type>food</type>
</wpt>
<wpt lat="49.090044" lon="-123.084032">
<name>Ladner Sushi</name>
<cmt>food</cmt>
<desc>Restaurant</desc>
<sym>Dot</sym>
<type>food</type>
</wpt>
<wpt lat="49.089063" lon="-123.079364">
<name>Save-On-Foods</name>
<cmt>convenience_store</cmt>
<desc>Grocery Store</desc>
<sym>Dot</sym>
<type>store</type>
</wpt>
<wpt lat="49.088454" lon="-123.081771">
<name>Ladner Outdoor Pool</name>
<cmt>rest_stop</cmt>
<desc>Community Centre</desc>
<sym>Dot</sym>
<type>rest_area</type>
</wpt>
<wpt lat="49.090630" lon="-123.064515">
<name>7-Eleven</name>
<cmt>convenience_store</cmt>
<desc>Convenience Store</desc>
<sym>Dot</sym>
<type>store</type>
</wpt>
<wpt lat="49.090256" lon="-123.084545">
<name>Sapporo Kitchen</name>
<cmt>food</cmt>
<desc>Restaurant</desc>
<sym>Dot</sym>
<type>food</type>
</wpt>
<wpt lat="49.093153" lon="-123.086651">
<name>Sharkey's Seafood Bar &amp; Grille</name>
<cmt>food</cmt>
<desc>Restaurant</desc>
<sym>Dot</sym>
<type>food</type>
</wpt>
<wpt lat="49.090502" lon="-123.080352">
<name>Freshslice Pizza</name>
<cmt>food</cmt>
<desc>Fast Food / Chain</desc>
<sym>Dot</sym>
<type>food</type>
</wpt>
<wpt lat="49.093190" lon="-123.086770">
<name>Speed's Pub</name>
<cmt>bar</cmt>
<desc>Brewery / Pub</desc>
<sym>Dot</sym>
<type>food</type>
</wpt>
<wpt lat="49.090408" lon="-123.085461">
<name>Soi ram</name>
<cmt>food</cmt>
<desc>Restaurant</desc>
<sym>Dot</sym>
<type>food</type>
</wpt>
<wpt lat="49.090468" lon="-123.084749">
<name>Cookie's Ice Cream Co.</name>
<cmt>food</cmt>
<desc>Ice Cream</desc>
<sym>Dot</sym>
<type>food</type>
</wpt>
<wpt lat="49.090509" lon="-123.084797">
<name>Delta Bakery</name>
<cmt>food</cmt>
<desc>Bakery / Donuts</desc>
<sym>Dot</sym>
<type>food</type>
</wpt>
<wpt lat="49.090443" lon="-123.085497">
<name>Panago</name>
<cmt>food</cmt>
<desc>Fast Food / Chain</desc>
<sym>Dot</sym>
<type>food</type>
</wpt>
<wpt lat="49.088052" lon="-123.083006">
<name>Ladner Pioneer Library</name>
<cmt>library</cmt>
<desc>Library</desc>
<sym>Dot</sym>
<type>info</type>
</wpt>
<wpt lat="49.090610" lon="-123.080221">
<name>The Chopped Leaf</name>
<cmt>food</cmt>
<desc>Restaurant</desc>
<sym>Dot</sym>
<type>food</type>
</wpt>
<wpt lat="49.091246" lon="-123.085886">
<name>Il Posto</name>
<cmt>food</cmt>
<desc>Restaurant</desc>
<sym>Dot</sym>
<type>food</type>
</wpt>
<wpt lat="49.090550" lon="-123.085609">
<name>Britannia Brewing Ladner</name>
<cmt>food</cmt>
<desc>Restaurant</desc>
<sym>Dot</sym>
<type>food</type>
</wpt>
<wpt lat="49.089711" lon="-123.079066">
<name>BC Liquor Store</name>
<cmt>convenience_store</cmt>
<desc>Liquor Store</desc>
<sym>Dot</sym>
<type>store</type>
</wpt>
<wpt lat="49.090868" lon="-123.080223">
<name>Rice &amp; Noodle</name>
<cmt>food</cmt>
<desc>Restaurant</desc>
<sym>Dot</sym>
<type>food</type>
</wpt>
<wpt lat="49.090929" lon="-123.080223">
<name>COBS Bread</name>
<cmt>food</cmt>
<desc>Bakery / Donuts</desc>
<sym>Dot</sym>
<type>food</type>
</wpt>
<wpt lat="49.091277" lon="-123.086394">
<name>Go-Go Sushi &amp; Cafe</name>
<cmt>food</cmt>
<desc>Restaurant</desc>
<sym>Dot</sym>
<type>food</type>
</wpt>
<wpt lat="49.090775" lon="-123.086285">
<name>Boca Grande Donuts &amp; Mexican Food</name>
<cmt>food</cmt>
<desc>Bakery / Donuts</desc>
<sym>Dot</sym>
<type>food</type>
</wpt>
<wpt lat="49.091042" lon="-123.080222">
<name>Bulk Barn</name>
<cmt>convenience_store</cmt>
<desc>Grocery Store</desc>
<sym>Dot</sym>
<type>store</type>
</wpt>
<wpt lat="49.089827" lon="-123.063506">
<name>McDonald's</name>
<cmt>food</cmt>
<desc>Fast Food / Chain</desc>
<sym>Dot</sym>
<type>food</type>
</wpt>
<wpt lat="49.089958" lon="-123.078805">
<name>Triple O's</name>
<cmt>food</cmt>
<desc>Fast Food / Chain</desc>
<sym>Dot</sym>
<type>food</type>
</wpt>
<wpt lat="49.091144" lon="-123.080214">
<name>Kin's Farm Market</name>
<cmt>convenience_store</cmt>
<desc>Farmers' Market</desc>
<sym>Dot</sym>
<type>store</type>
</wpt>
<wpt lat="49.091491" lon="-123.087264">
<name>Niagara Falls Resaurant</name>
<cmt>food</cmt>
<desc>Restaurant</desc>
<sym>Dot</sym>
<type>food</type>
</wpt>
<wpt lat="49.090467" lon="-123.079086">
<name>Ricky's</name>
<cmt>food</cmt>
<desc>Restaurant</desc>
<sym>Dot</sym>
<type>food</type>
</wpt>
<wpt lat="49.090461" lon="-123.078898">
<name>Fatburger</name>
<cmt>food</cmt>
<desc>Fast Food / Chain</desc>
<sym>Dot</sym>
<type>food</type>
</wpt>
<wpt lat="49.090412" lon="-123.078228">
<name>Subway</name>
<cmt>food</cmt>
<desc>Fast Food / Chain</desc>
<sym>Dot</sym>
<type>food</type>
</wpt>
<wpt lat="49.090405" lon="-123.078078">
<name>Starbucks</name>
<cmt>food</cmt>
<desc>Fast Food / Chain</desc>
<sym>Dot</sym>
<type>food</type>
</wpt>
<wpt lat="49.091413" lon="-123.078920">
<name>Maguro Sushi</name>
<cmt>food</cmt>
<desc>Restaurant</desc>
<sym>Dot</sym>
<type>food</type>
</wpt>
<wpt lat="49.090663" lon="-123.077834">
<name>FreshCo</name>
<cmt>convenience_store</cmt>
<desc>Grocery Store</desc>
<sym>Dot</sym>
<type>store</type>
</wpt>
<wpt lat="49.090606" lon="-123.077487">
<name>Shell</name>
<cmt>convenience_store</cmt>
<desc>Convenience Store</desc>
<sym>Dot</sym>
<type>store</type>
</wpt>
<trk><name>Tsawwassen Shared Lane Connectors</name>
<trkseg>
<trkpt lat="49.054108" lon="-123.130556"/>
<trkpt lat="49.054022" lon="-123.130594"/>
<trkpt lat="49.053971" lon="-123.130619"/>
<trkpt lat="49.053930" lon="-123.130656"/>
<trkpt lat="49.055670" lon="-123.135638"/>
<trkpt lat="49.057816" lon="-123.139829"/>
<trkpt lat="49.059587" lon="-123.144519"/>
<trkpt lat="49.061505" lon="-123.147286"/>
<trkpt lat="49.062386" lon="-123.150286"/>
<trkpt lat="49.063142" lon="-123.154311"/>
<trkpt lat="49.064530" lon="-123.157703"/>
<trkpt lat="49.066122" lon="-123.158143"/>
<trkpt lat="49.067340" lon="-123.157019"/>
<trkpt lat="49.068057" lon="-123.155273"/>
<trkpt lat="49.068214" lon="-123.151951"/>
<trkpt lat="49.068121" lon="-123.151820"/>
<trkpt lat="49.068468" lon="-123.149092"/>
<trkpt lat="49.069353" lon="-123.145460"/>
<trkpt lat="49.070094" lon="-123.139828"/>
<trkpt lat="49.071573" lon="-123.135053"/>
<trkpt lat="49.073774" lon="-123.131388"/>
<trkpt lat="49.076571" lon="-123.128066"/>
<trkpt lat="49.079371" lon="-123.126178"/>
<trkpt lat="49.082200" lon="-123.124345"/>
<trkpt lat="49.083020" lon="-123.122585"/>
<trkpt lat="49.085145" lon="-123.120717"/>
<trkpt lat="49.085315" lon="-123.118429"/>
<trkpt lat="49.084574" lon="-123.113692"/>
<trkpt lat="49.084591" lon="-123.108601"/>
</trkseg>
<trkseg>
<trkpt lat="49.084591" lon="-123.108601"/>
<trkpt lat="49.061916" lon="-123.109820"/>
<trkpt lat="49.061082" lon="-123.109920"/>
<trkpt lat="49.060718" lon="-123.109921"/>
</trkseg>
<trkseg>
<trkpt lat="49.063349" lon="-123.109607"/>
<trkpt lat="49.063972" lon="-123.130559"/>
<trkpt lat="49.074628" lon="-123.130400"/>
</trkseg>
<trkseg>
<trkpt lat="49.084591" lon="-123.108601"/>
<trkpt lat="49.086483" lon="-123.102547"/>
<trkpt lat="49.088974" lon="-123.094966"/>
</trkseg>
<trkseg>
<trkpt lat="49.088974" lon="-123.094966"/>
<trkpt lat="49.087968" lon="-123.095013"/>
<trkpt lat="49.085216" lon="-123.095132"/>
</trkseg>
<trkseg>
<trkpt lat="49.085216" lon="-123.095132"/>
<trkpt lat="49.083772" lon="-123.095184"/>
<trkpt lat="49.082769" lon="-123.095231"/>
<trkpt lat="49.082580" lon="-123.095239"/>
<trkpt lat="49.068528" lon="-123.096079"/>
<trkpt lat="49.068503" lon="-123.077677"/>
</trkseg>
<trkseg>
<trkpt lat="49.083081" lon="-123.077961"/>
<trkpt lat="49.085136" lon="-123.079074"/>
</trkseg>
<trkseg>
<trkpt lat="49.085136" lon="-123.079074"/>
<trkpt lat="49.085150" lon="-123.082617"/>
<trkpt lat="49.085166" lon="-123.087101"/>
<trkpt lat="49.085216" lon="-123.095132"/>
</trkseg>
<trkseg>
<trkpt lat="49.088974" lon="-123.094966"/>
<trkpt lat="49.089281" lon="-123.093994"/>
<trkpt lat="49.089275" lon="-123.091536"/>
<trkpt lat="49.089254" lon="-123.086757"/>
<trkpt lat="49.089389" lon="-123.082739"/>
<trkpt lat="49.090015" lon="-123.082010"/>
</trkseg>
<trkseg>
<trkpt lat="49.090015" lon="-123.082010"/>
<trkpt lat="49.090210" lon="-123.082236"/>
<trkpt lat="49.090542" lon="-123.082628"/>
<trkpt lat="49.092621" lon="-123.085275"/>
<trkpt lat="49.092781" lon="-123.085136"/>
<trkpt lat="49.093066" lon="-123.084888"/>
<trkpt lat="49.094630" lon="-123.083534"/>
<trkpt lat="49.096934" lon="-123.080801"/>
<trkpt lat="49.098043" lon="-123.080041"/>
<trkpt lat="49.098548" lon="-123.079505"/>
<trkpt lat="49.098763" lon="-123.079241"/>
<trkpt lat="49.098890" lon="-123.079083"/>
<trkpt lat="49.103690" lon="-123.072873"/>
<trkpt lat="49.104214" lon="-123.072385"/>
</trkseg>
<trkseg>
<trkpt lat="49.104214" lon="-123.072385"/>
<trkpt lat="49.105088" lon="-123.073592"/>
<trkpt lat="49.105198" lon="-123.073697"/>
<trkpt lat="49.105390" lon="-123.073862"/>
<trkpt lat="49.106250" lon="-123.074269"/>
<trkpt lat="49.106243" lon="-123.074378"/>
</trkseg>
<trkseg>
<trkpt lat="49.106243" lon="-123.074378"/>
<trkpt lat="49.105644" lon="-123.076301"/>
<trkpt lat="49.105775" lon="-123.079005"/>
</trkseg>
<trkseg>
<trkpt lat="49.106243" lon="-123.074378"/>
<trkpt lat="49.105356" lon="-123.073968"/>
<trkpt lat="49.105156" lon="-123.073802"/>
<trkpt lat="49.105049" lon="-123.073696"/>
<trkpt lat="49.104214" lon="-123.072385"/>
</trkseg>
<trkseg>
<trkpt lat="49.104214" lon="-123.072385"/>
<trkpt lat="49.102309" lon="-123.072267"/>
</trkseg>
<trkseg>
<trkpt lat="49.102309" lon="-123.072267"/>
<trkpt lat="49.102027" lon="-123.072279"/>
<trkpt lat="49.101912" lon="-123.072088"/>
</trkseg>
<trkseg>
<trkpt lat="49.102309" lon="-123.072267"/>
<trkpt lat="49.102062" lon="-123.072143"/>
<trkpt lat="49.101985" lon="-123.072042"/>
<trkpt lat="49.101826" lon="-123.071879"/>
<trkpt lat="49.097736" lon="-123.066004"/>
<trkpt lat="49.097730" lon="-123.065187"/>
<trkpt lat="49.097727" lon="-123.063636"/>
<trkpt lat="49.095052" lon="-123.063671"/>
<trkpt lat="49.091385" lon="-123.063737"/>
</trkseg>
<trkseg>
<trkpt lat="49.088861" lon="-123.080598"/>
<trkpt lat="49.089942" lon="-123.081916"/>
</trkseg>
<trkseg>
<trkpt lat="49.089942" lon="-123.081916"/>
<trkpt lat="49.090015" lon="-123.082010"/>
</trkseg>
<trkseg>
<trkpt lat="49.089942" lon="-123.081916"/>
<trkpt lat="49.089491" lon="-123.081273"/>
<trkpt lat="49.088861" lon="-123.080598"/>
</trkseg>
<trkseg>
<trkpt lat="49.088861" lon="-123.080598"/>
<trkpt lat="49.088300" lon="-123.080093"/>
<trkpt lat="49.087138" lon="-123.079221"/>
<trkpt lat="49.085136" lon="-123.079074"/>
</trkseg>
</trk>
</gpx>