<?xml version="1.0" encoding="UTF-8"?>
<gpx version="1.1" creator="We Welcome Cyclists (bccycletourism.ca)" xmlns="http://www.topografix.com/GPX/1/1">
<metadata>
<name>Kettle Valley Rail Trail (south of Penticton)</name>
<link href="https://bccycletourism.ca/trail/kettle-valley-rail-trail-south-of-penticton/"><text>We Welcome Cyclists</text></link>
</metadata>
<wpt lat="49.243564" lon="-119.524347">
<name>Gallagher Lake</name>
<cmt>camping</cmt>
<desc>Private Campground</desc>
<sym>Dot</sym>
<type>campsite</type>
</wpt>
<wpt lat="49.245102" lon="-119.525235">
<name>Dubh Glas Distillery</name>
<cmt>winery</cmt>
<desc>Winery / Cidery</desc>
<sym>Dot</sym>
<type>food</type>
</wpt>
<wpt lat="49.284542" lon="-119.522590">
<name>Ramification Cellars</name>
<cmt>winery</cmt>
<desc>Winery / Cidery</desc>
<sym>Dot</sym>
<type>food</type>
</wpt>
<wpt lat="49.243303" lon="-119.525055">
<name>The Flealess Hound Pub</name>
<cmt>bar</cmt>
<desc>Brewery / Pub</desc>
<sym>Dot</sym>
<type>food</type>
</wpt>
<wpt lat="49.298100" lon="-119.530522">
<name>Vaseux Lake Campground</name>
<cmt>camping</cmt>
<desc>Public Campground</desc>
<sym>Dot</sym>
<type>campsite</type>
</wpt>
<wpt lat="49.236745" lon="-119.528810">
<name>Winemaker's Cut</name>
<cmt>winery</cmt>
<desc>Winery / Cidery</desc>
<sym>Dot</sym>
<type>food</type>
</wpt>
<wpt lat="49.236823" lon="-119.528467">
<name>Gneiss Wines</name>
<cmt>winery</cmt>
<desc>Winery / Cidery</desc>
<sym>Dot</sym>
<type>food</type>
</wpt>
<wpt lat="49.236564" lon="-119.529079">
<name>Eur Vivre</name>
<cmt>winery</cmt>
<desc>Winery / Cidery</desc>
<sym>Dot</sym>
<type>food</type>
</wpt>
<wpt lat="49.236465" lon="-119.529112">
<name>Silhouette</name>
<cmt>winery</cmt>
<desc>Winery / Cidery</desc>
<sym>Dot</sym>
<type>food</type>
</wpt>
<wpt lat="49.236696" lon="-119.527986">
<name>Apricus Cellars</name>
<cmt>winery</cmt>
<desc>Winery / Cidery</desc>
<sym>Dot</sym>
<type>food</type>
</wpt>
<wpt lat="49.235539" lon="-119.530295">
<name>Tim Hortons</name>
<cmt>food</cmt>
<desc>Fast Food / Chain</desc>
<sym>Dot</sym>
<type>food</type>
</wpt>
<wpt lat="49.236609" lon="-119.527906">
<name>Foolish Wine</name>
<cmt>winery</cmt>
<desc>Winery / Cidery</desc>
<sym>Dot</sym>
<type>food</type>
</wpt>
<wpt lat="49.236422" lon="-119.528063">
<name>Neighbourhood Brewing</name>
<cmt>bar</cmt>
<desc>Brewery / Pub</desc>
<sym>Dot</sym>
<type>food</type>
</wpt>
<wpt lat="49.236160" lon="-119.528668">
<name>TIME Family of Wines</name>
<cmt>winery</cmt>
<desc>Winery / Cidery</desc>
<sym>Dot</sym>
<type>food</type>
</wpt>
<wpt lat="49.236333" lon="-119.528084">
<name>Ward's Wine Country Kitchen</name>
<cmt>food</cmt>
<desc>Restaurant</desc>
<sym>Dot</sym>
<type>food</type>
</wpt>
<wpt lat="49.227352" lon="-119.541171">
<name>Inkaneep Campground</name>
<cmt>camping</cmt>
<desc>Public Campground</desc>
<sym>Dot</sym>
<type>campsite</type>
</wpt>
<wpt lat="49.230445" lon="-119.544494">
<name>Dhillon Farms Fruits &amp; Vegetables</name>
<cmt>convenience_store</cmt>
<desc>Farmers' Market</desc>
<sym>Dot</sym>
<type>store</type>
</wpt>
<wpt lat="49.343237" lon="-119.571231">
<name>OK Falls Hotel</name>
<cmt>bar</cmt>
<desc>Brewery / Pub</desc>
<sym>Dot</sym>
<type>food</type>
</wpt>
<wpt lat="49.340981" lon="-119.571243">
<name>Tickleberry's</name>
<cmt>food</cmt>
<desc>Ice Cream</desc>
<sym>Dot</sym>
<type>food</type>
</wpt>
<wpt lat="49.345048" lon="-119.571100">
<name>Rise &amp; Shine Coffee House</name>
<cmt>coffee</cmt>
<desc>Café / Coffee</desc>
<sym>Dot</sym>
<type>food</type>
</wpt>
<wpt lat="49.345565" lon="-119.578371">
<name>Okanagan Falls Library Branch</name>
<cmt>library</cmt>
<desc>Library</desc>
<sym>Dot</sym>
<type>info</type>
</wpt>
<wpt lat="49.343732" lon="-119.570920">
<name>Esso</name>
<cmt>convenience_store</cmt>
<desc>Convenience Store</desc>
<sym>Dot</sym>
<type>store</type>
</wpt>
<wpt lat="49.346512" lon="-119.573846">
<name>Holiday Park Resort</name>
<cmt>lodging</cmt>
<desc>Hotel / Motel</desc>
<sym>Dot</sym>
<type>shelter</type>
</wpt>
<wpt lat="49.315162" lon="-119.545091">
<name>Noble Ridge Vineyards</name>
<cmt>winery</cmt>
<desc>Winery / Cidery</desc>
<sym>Dot</sym>
<type>food</type>
</wpt>
<wpt lat="49.341122" lon="-119.580882">
<name>sx̌ʷəx̌ʷnitkʷ (Okanagan Falls) Campground</name>
<cmt>camping</cmt>
<desc>Public Campground</desc>
<sym>Dot</sym>
<type>campsite</type>
</wpt>
<wpt lat="49.451335" lon="-119.608529">
<name>Lakeside Villa Inn and Suites</name>
<cmt>lodging</cmt>
<desc>Hotel / Motel</desc>
<sym>Dot</sym>
<type>shelter</type>
</wpt>
<wpt lat="49.446394" lon="-119.611621">
<name>Wright's Beach Camp RV Park</name>
<cmt>camping</cmt>
<desc>Private Campground</desc>
<sym>Dot</sym>
<type>campsite</type>
</wpt>
<wpt lat="49.453159" lon="-119.608270">
<name>Barefoot Beach Resort</name>
<cmt>camping</cmt>
<desc>Private Campground</desc>
<sym>Dot</sym>
<type>campsite</type>
</wpt>
<wpt lat="49.453852" lon="-119.611840">
<name>Play Estate Winery</name>
<cmt>winery</cmt>
<desc>Winery / Cidery</desc>
<sym>Dot</sym>
<type>food</type>
</wpt>
<wpt lat="49.231775" lon="-119.539253">
<name>EZ RV Park</name>
<cmt>camping</cmt>
<desc>Private Campground</desc>
<sym>Dot</sym>
<type>campsite</type>
</wpt>
<wpt lat="49.236186" lon="-119.528218">
<name>One Faith Vineyards</name>
<cmt>winery</cmt>
<desc>Winery / Cidery</desc>
<sym>Dot</sym>
<type>food</type>
</wpt>
<wpt lat="49.230935" lon="-119.535721">
<name>Great Estates Okanagan – Cellar Door &amp; More</name>
<cmt>convenience_store</cmt>
<desc>Liquor Store</desc>
<sym>Dot</sym>
<type>store</type>
</wpt>
<wpt lat="49.407174" lon="-119.605383">
<name>Camp-Along Resort</name>
<cmt>camping</cmt>
<desc>Private Campground</desc>
<sym>Dot</sym>
<type>campsite</type>
</wpt>
<wpt lat="49.384168" lon="-119.588267">
<name>Linden Gardens</name>
<cmt>park</cmt>
<desc>Park / Nature</desc>
<sym>Dot</sym>
<type>rest_area</type>
</wpt>
<wpt lat="49.384230" lon="-119.588502">
<name>Frog City Cafe</name>
<cmt>coffee</cmt>
<desc>Café / Coffee</desc>
<sym>Dot</sym>
<type>food</type>
</wpt>
<wpt lat="49.390031" lon="-119.595305">
<name>ORL: Kaleden Branch</name>
<cmt>library</cmt>
<desc>Library</desc>
<sym>Dot</sym>
<type>info</type>
</wpt>
<trk><name>Kettle Valley Rail Trail (south of Penticton)</name>
<trkseg>
<trkpt lat="49.230178" lon="-119.539091"/>
<trkpt lat="49.230093" lon="-119.538802"/>
<trkpt lat="49.229971" lon="-119.538707"/>
<trkpt lat="49.229994" lon="-119.538352"/>
<trkpt lat="49.230363" lon="-119.538365"/>
<trkpt lat="49.230737" lon="-119.538841"/>
<trkpt lat="49.231069" lon="-119.538376"/>
<trkpt lat="49.234861" lon="-119.533405"/>
<trkpt lat="49.236632" lon="-119.530178"/>
<trkpt lat="49.239309" lon="-119.524253"/>
<trkpt lat="49.240113" lon="-119.523877"/>
<trkpt lat="49.245399" lon="-119.524912"/>
<trkpt lat="49.245558" lon="-119.524946"/>
<trkpt lat="49.250814" lon="-119.526079"/>
<trkpt lat="49.257575" lon="-119.526048"/>
<trkpt lat="49.259098" lon="-119.525357"/>
<trkpt lat="49.261349" lon="-119.522254"/>
<trkpt lat="49.262852" lon="-119.520469"/>
<trkpt lat="49.264034" lon="-119.519990"/>
<trkpt lat="49.271845" lon="-119.520021"/>
<trkpt lat="49.276455" lon="-119.518931"/>
<trkpt lat="49.280150" lon="-119.519505"/>
<trkpt lat="49.281266" lon="-119.519306"/>
<trkpt lat="49.282215" lon="-119.519684"/>
<trkpt lat="49.285052" lon="-119.522329"/>
<trkpt lat="49.287067" lon="-119.523142"/>
<trkpt lat="49.288410" lon="-119.524625"/>
<trkpt lat="49.289886" lon="-119.524542"/>
<trkpt lat="49.291065" lon="-119.525518"/>
<trkpt lat="49.298832" lon="-119.530355"/>
<trkpt lat="49.302319" lon="-119.532087"/>
<trkpt lat="49.302967" lon="-119.533189"/>
<trkpt lat="49.304180" lon="-119.536485"/>
<trkpt lat="49.307551" lon="-119.540101"/>
<trkpt lat="49.315717" lon="-119.551988"/>
<trkpt lat="49.318097" lon="-119.555959"/>
<trkpt lat="49.320586" lon="-119.558857"/>
<trkpt lat="49.324034" lon="-119.561849"/>
<trkpt lat="49.331932" lon="-119.568647"/>
<trkpt lat="49.337930" lon="-119.570980"/>
<trkpt lat="49.339767" lon="-119.571649"/>
<trkpt lat="49.341300" lon="-119.571637"/>
<trkpt lat="49.341413" lon="-119.571633"/>
<trkpt lat="49.341874" lon="-119.571617"/>
<trkpt lat="49.344581" lon="-119.571483"/>
<trkpt lat="49.344874" lon="-119.571469"/>
<trkpt lat="49.344890" lon="-119.572189"/>
<trkpt lat="49.344905" lon="-119.572870"/>
<trkpt lat="49.344926" lon="-119.574209"/>
<trkpt lat="49.344945" lon="-119.575615"/>
</trkseg>
<trkseg>
<trkpt lat="49.344945" lon="-119.575615"/>
<trkpt lat="49.344966" lon="-119.576684"/>
<trkpt lat="49.344989" lon="-119.577850"/>
<trkpt lat="49.345279" lon="-119.579020"/>
<trkpt lat="49.347023" lon="-119.579606"/>
</trkseg>
<trkseg>
<trkpt lat="49.347023" lon="-119.579606"/>
<trkpt lat="49.347947" lon="-119.580129"/>
<trkpt lat="49.349236" lon="-119.580879"/>
<trkpt lat="49.352052" lon="-119.582410"/>
<trkpt lat="49.353294" lon="-119.581821"/>
<trkpt lat="49.354481" lon="-119.580812"/>
<trkpt lat="49.356369" lon="-119.580582"/>
<trkpt lat="49.358497" lon="-119.579633"/>
<trkpt lat="49.363312" lon="-119.581860"/>
<trkpt lat="49.365499" lon="-119.581696"/>
<trkpt lat="49.367687" lon="-119.582061"/>
<trkpt lat="49.369363" lon="-119.582754"/>
<trkpt lat="49.369755" lon="-119.582645"/>
<trkpt lat="49.371110" lon="-119.580984"/>
<trkpt lat="49.373420" lon="-119.580067"/>
<trkpt lat="49.375557" lon="-119.578489"/>
<trkpt lat="49.376425" lon="-119.578388"/>
<trkpt lat="49.378807" lon="-119.579144"/>
<trkpt lat="49.380867" lon="-119.578461"/>
<trkpt lat="49.381411" lon="-119.579528"/>
<trkpt lat="49.383658" lon="-119.581215"/>
<trkpt lat="49.383708" lon="-119.581028"/>
<trkpt lat="49.385694" lon="-119.582656"/>
<trkpt lat="49.387752" lon="-119.583543"/>
<trkpt lat="49.388347" lon="-119.584334"/>
<trkpt lat="49.388359" lon="-119.584885"/>
<trkpt lat="49.388784" lon="-119.585210"/>
<trkpt lat="49.389183" lon="-119.584973"/>
<trkpt lat="49.390721" lon="-119.586249"/>
<trkpt lat="49.392076" lon="-119.588829"/>
<trkpt lat="49.392054" lon="-119.589619"/>
<trkpt lat="49.393025" lon="-119.590536"/>
<trkpt lat="49.394435" lon="-119.592247"/>
<trkpt lat="49.396820" lon="-119.593454"/>
<trkpt lat="49.399452" lon="-119.596485"/>
<trkpt lat="49.403275" lon="-119.598636"/>
<trkpt lat="49.405540" lon="-119.598427"/>
<trkpt lat="49.407436" lon="-119.600197"/>
<trkpt lat="49.409052" lon="-119.600744"/>
<trkpt lat="49.409910" lon="-119.600766"/>
<trkpt lat="49.411132" lon="-119.600154"/>
<trkpt lat="49.412245" lon="-119.599537"/>
<trkpt lat="49.413220" lon="-119.599637"/>
<trkpt lat="49.416269" lon="-119.601307"/>
<trkpt lat="49.416751" lon="-119.601485"/>
<trkpt lat="49.417868" lon="-119.603071"/>
<trkpt lat="49.419236" lon="-119.604371"/>
<trkpt lat="49.422055" lon="-119.605154"/>
<trkpt lat="49.423457" lon="-119.606126"/>
<trkpt lat="49.425098" lon="-119.606785"/>
<trkpt lat="49.426521" lon="-119.606806"/>
<trkpt lat="49.428744" lon="-119.608367"/>
<trkpt lat="49.429759" lon="-119.609531"/>
<trkpt lat="49.431880" lon="-119.609987"/>
<trkpt lat="49.433881" lon="-119.612782"/>
<trkpt lat="49.437977" lon="-119.613866"/>
<trkpt lat="49.439321" lon="-119.614601"/>
<trkpt lat="49.439928" lon="-119.614558"/>
<trkpt lat="49.441892" lon="-119.612975"/>
<trkpt lat="49.444264" lon="-119.613130"/>
<trkpt lat="49.444889" lon="-119.612889"/>
<trkpt lat="49.447039" lon="-119.609597"/>
<trkpt lat="49.447863" lon="-119.609054"/>
<trkpt lat="49.450392" lon="-119.608909"/>
<trkpt lat="49.450582" lon="-119.608635"/>
<trkpt lat="49.450953" lon="-119.608550"/>
<trkpt lat="49.451293" lon="-119.607613"/>
<trkpt lat="49.451361" lon="-119.607651"/>
<trkpt lat="49.451431" lon="-119.607686"/>
<trkpt lat="49.451713" lon="-119.606593"/>
</trkseg>
<trkseg>
<trkpt lat="49.347023" lon="-119.579606"/>
<trkpt lat="49.346745" lon="-119.579176"/>
<trkpt lat="49.346656" lon="-119.577766"/>
<trkpt lat="49.346004" lon="-119.577810"/>
<trkpt lat="49.345963" lon="-119.575581"/>
<trkpt lat="49.345454" lon="-119.575598"/>
<trkpt lat="49.344945" lon="-119.575615"/>
</trkseg>
<trkseg>
<trkpt lat="49.344945" lon="-119.575615"/>
<trkpt lat="49.344335" lon="-119.575638"/>
<trkpt lat="49.343941" lon="-119.575651"/>
<trkpt lat="49.343634" lon="-119.575668"/>
<trkpt lat="49.343215" lon="-119.575690"/>
<trkpt lat="49.342950" lon="-119.575700"/>
<trkpt lat="49.341641" lon="-119.575757"/>
<trkpt lat="49.340832" lon="-119.575791"/>
<trkpt lat="49.340418" lon="-119.575810"/>
<trkpt lat="49.339732" lon="-119.575836"/>
<trkpt lat="49.338592" lon="-119.575878"/>
<trkpt lat="49.338233" lon="-119.575892"/>
<trkpt lat="49.338124" lon="-119.575898"/>
<trkpt lat="49.337965" lon="-119.575903"/>
<trkpt lat="49.337609" lon="-119.575914"/>
<trkpt lat="49.337477" lon="-119.575919"/>
<trkpt lat="49.337532" lon="-119.575304"/>
<trkpt lat="49.337988" lon="-119.574722"/>
<trkpt lat="49.338159" lon="-119.573848"/>
</trkseg>
<trkseg>
<trkpt lat="49.344938" lon="-119.578325"/>
<trkpt lat="49.339296" lon="-119.574447"/>
<trkpt lat="49.330432" lon="-119.569665"/>
<trkpt lat="49.327285" lon="-119.566817"/>
<trkpt lat="49.326148" lon="-119.566580"/>
<trkpt lat="49.323384" lon="-119.567544"/>
</trkseg>
</trk>
</gpx>