{"type":"FeatureCollection","features":[{"type":"Feature","properties":{"name":"Bridge crossing Petawawa River - photo stop"},"geometry":{"type":"Point","coordinates":[-77.28893,45.89995]}},{"type":"Feature","properties":{"name":"Buffalo rubbing stone - spot"},"geometry":{"type":"Point","coordinates":[-109.62271,51.47448]}},{"type":"Feature","properties":{"name":"Centennial Flame","desc":"Centennial Flame"},"geometry":{"type":"Point","coordinates":[-75.6987,45.42372]}},{"type":"Feature","properties":{"name":"Giant Lobster","desc":"Big Lobster"},"geometry":{"type":"Point","coordinates":[-64.55502,46.21873]}},{"type":"Feature","properties":{"name":"Glacier Skywalk (Paid Admission)"},"geometry":{"type":"Point","coordinates":[-117.28026,52.26105]}},{"type":"Feature","properties":{"name":"Hanna's Largest Goose","desc":"Hanna's Largest Goose"},"geometry":{"type":"Point","coordinates":[-111.94177,51.64063]}},{"type":"Feature","properties":{"name":"Hartland Covered Bridge - World's Longest Covered Bridge","desc":"Hartland Covered Bridge\n\nWorld's Longest Covered Bridge"},"geometry":{"type":"Point","coordinates":[-67.52995,46.29679]}},{"type":"Feature","properties":{"name":"Kakabeka Falls - Camera Stop","desc":"Kakabeka Falls"},"geometry":{"type":"Point","coordinates":[-89.62502,48.40322]}},{"type":"Feature","properties":{"name":"Loon Dollar Monument","desc":"area"},"geometry":{"type":"Point","coordinates":[-84.0737,46.48841]}},{"type":"Feature","properties":{"name":"Mac the Moose","desc":"area"},"geometry":{"type":"Point","coordinates":[-105.51013,50.41352]}},{"type":"Feature","properties":{"name":"Max the Moose","desc":"Max the Moose"},"geometry":{"type":"Point","coordinates":[-92.83821,49.78631]}},{"type":"Feature","properties":{"name":"Mile 0 St. John's, Newfoundland","desc":"Terry Fox Mile 0 Site"},"geometry":{"type":"Point","coordinates":[-52.69725,47.57031]}},{"type":"Feature","properties":{"name":"Mile 0 Victoria, BC","desc":"Mile 0"},"geometry":{"type":"Point","coordinates":[-123.369,48.40909]}},{"type":"Feature","properties":{"name":"Mistaya Canyon - Banff National Park"},"geometry":{"type":"Point","coordinates":[-116.7174,51.94137]}},{"type":"Feature","properties":{"name":"Nipigon Lookout - Camera stop","desc":"area"},"geometry":{"type":"Point","coordinates":[-88.25663,49.01746]}},{"type":"Feature","properties":{"name":"Original Giant Wawa Goose","desc":"area"},"geometry":{"type":"Point","coordinates":[-84.78015,47.98397]}},{"type":"Feature","properties":{"name":"Pacific Terminus of Trans-Canada Highway sign","desc":"area"},"geometry":{"type":"Point","coordinates":[-125.90964,49.15409]}},{"type":"Feature","properties":{"name":"Pont couvert Des Anses-Saint-Jean 1931","desc":"Route Verte 1"},"geometry":{"type":"Point","coordinates":[-67.44881,48.49164]}},{"type":"Feature","properties":{"name":"T. rex Discovery Centre","desc":"Hours\nCLOSED\nReopens May 20, 2023."},"geometry":{"type":"Point","coordinates":[-108.82538,49.52377]}},{"type":"Feature","properties":{"name":"Terry Fox Memorial Monument -"},"geometry":{"type":"Point","coordinates":[-89.16798,48.48488]}},{"type":"Feature","properties":{"name":"The Big Nickel","desc":"The Big Nickel"},"geometry":{"type":"Point","coordinates":[-81.03383,46.47352]}},{"type":"Feature","properties":{"name":"The Canada Goose","desc":"The Canada Goose"},"geometry":{"type":"Point","coordinates":[-84.78293,47.9735]}},{"type":"Feature","properties":{"name":"Tunnels of Moose Jaw","desc":"Tunnels of Moose Jaw"},"geometry":{"type":"Point","coordinates":[-105.53502,50.39004]}},{"type":"Feature","properties":{"name":"Vermillion Pass (1661m) / British Columbia/Alberta Border","desc":"British Columbia/Alberta"},"geometry":{"type":"Point","coordinates":[-116.05058,51.22771]}},{"type":"Feature","properties":{"name":"Welcome to Drumheller (sign)","desc":"area"},"geometry":{"type":"Point","coordinates":[-112.70028,51.44807]}},{"type":"Feature","properties":{"name":"Welcome to Manitoba Sign (no toilets)","desc":"area"},"geometry":{"type":"Point","coordinates":[-101.4367,50.05339]}},{"type":"Feature","properties":{"name":"Welcome to Saskatchewan Sign","desc":"area"},"geometry":{"type":"Point","coordinates":[-110.00206,49.95597]}},{"type":"Feature","properties":{"name":"Welcome to Saskatchewan Sign (no washrooms)","desc":"area"},"geometry":{"type":"Point","coordinates":[-101.44776,50.05926]}},{"type":"Feature","properties":{"name":"Wiarton Willie Statue","desc":"area"},"geometry":{"type":"Point","coordinates":[-81.13672,44.74422]}},{"type":"Feature","properties":{"name":"Winnie the Pooh","desc":"Winnie the Pooh"},"geometry":{"type":"Point","coordinates":[-85.27614,48.59313]}}]}