{"type":"FeatureCollection","features":[{"type":"Feature","properties":{"name":"Husky Showers","desc":"Husky"},"geometry":{"type":"Point","coordinates":[-116.97028,51.3121]}},{"type":"Feature","properties":{"name":"Nipigon Husky Travel Centre - Showers","desc":"Nipigon Husky Travel Centre"},"geometry":{"type":"Point","coordinates":[-88.30441,49.01924]}},{"type":"Feature","properties":{"name":"Petro-Canada Conv Store ($ shower available)","desc":"retail area"},"geometry":{"type":"Point","coordinates":[-114.47461,51.08737]}},{"type":"Feature","properties":{"name":"Showers - Cedar Grove Trailer Park (3395 Regional Road 55, Whitefish, ON P0M 3E0)","desc":"Camping"},"geometry":{"type":"Point","coordinates":[-81.2632,46.38543]}},{"type":"Feature","properties":{"name":"Steelhead Provincial Park - showers","desc":"area"},"geometry":{"type":"Point","coordinates":[-120.86545,50.75677]}}]}