<?xml version="1.0" encoding="UTF-8"?>
<gpx version="1.1" creator="BC Bike Stops (bccycletourism.ca)" xmlns="http://www.topografix.com/GPX/1/1">
<metadata>
<name>Blue Heron Loop</name>
<link href="https://bccycletourism.ca/trail/blue-heron-loop/"><text>BC Bike Stops</text></link>
</metadata>
<wpt lat="49.234135" lon="-122.632647">
<name>The Patch Brewery Laity Farms</name>
<cmt>bar</cmt>
<desc>Brewery / Pub</desc>
<sym>Dot</sym>
<type>food</type>
</wpt>
<trk><name>Blue Heron Loop</name>
<trkseg>
<trkpt lat="49.226331" lon="-122.631830"/>
<trkpt lat="49.227846" lon="-122.631801"/>
</trkseg>
<trkseg>
<trkpt lat="49.227846" lon="-122.631801"/>
<trkpt lat="49.234877" lon="-122.631756"/>
<trkpt lat="49.234878" lon="-122.631568"/>
<trkpt lat="49.235095" lon="-122.631574"/>
<trkpt lat="49.235093" lon="-122.633572"/>
<trkpt lat="49.240901" lon="-122.633709"/>
<trkpt lat="49.241659" lon="-122.634936"/>
<trkpt lat="49.241360" lon="-122.637199"/>
<trkpt lat="49.241661" lon="-122.638395"/>
<trkpt lat="49.243228" lon="-122.638699"/>
<trkpt lat="49.245285" lon="-122.638013"/>
<trkpt lat="49.246266" lon="-122.638510"/>
<trkpt lat="49.247451" lon="-122.640692"/>
<trkpt lat="49.247814" lon="-122.642501"/>
<trkpt lat="49.248561" lon="-122.644270"/>
<trkpt lat="49.248679" lon="-122.645663"/>
<trkpt lat="49.249658" lon="-122.646942"/>
<trkpt lat="49.250394" lon="-122.647174"/>
<trkpt lat="49.251904" lon="-122.649098"/>
<trkpt lat="49.252514" lon="-122.649436"/>
<trkpt lat="49.254141" lon="-122.648493"/>
<trkpt lat="49.255707" lon="-122.648122"/>
<trkpt lat="49.256650" lon="-122.648796"/>
<trkpt lat="49.257005" lon="-122.649732"/>
<trkpt lat="49.257559" lon="-122.653770"/>
<trkpt lat="49.258208" lon="-122.655486"/>
<trkpt lat="49.258979" lon="-122.656754"/>
<trkpt lat="49.260659" lon="-122.658243"/>
<trkpt lat="49.261785" lon="-122.659762"/>
<trkpt lat="49.261661" lon="-122.663864"/>
<trkpt lat="49.265462" lon="-122.668730"/>
<trkpt lat="49.267645" lon="-122.672419"/>
<trkpt lat="49.267572" lon="-122.672925"/>
<trkpt lat="49.264032" lon="-122.678519"/>
<trkpt lat="49.261870" lon="-122.681411"/>
<trkpt lat="49.261881" lon="-122.682614"/>
<trkpt lat="49.262214" lon="-122.683787"/>
<trkpt lat="49.263509" lon="-122.686318"/>
<trkpt lat="49.263912" lon="-122.689332"/>
<trkpt lat="49.264113" lon="-122.689319"/>
<trkpt lat="49.264940" lon="-122.689270"/>
<trkpt lat="49.265049" lon="-122.689274"/>
<trkpt lat="49.264849" lon="-122.685965"/>
<trkpt lat="49.265003" lon="-122.684524"/>
<trkpt lat="49.263911" lon="-122.683580"/>
<trkpt lat="49.263577" lon="-122.681749"/>
<trkpt lat="49.267201" lon="-122.677235"/>
<trkpt lat="49.268065" lon="-122.676729"/>
<trkpt lat="49.269082" lon="-122.675221"/>
<trkpt lat="49.269298" lon="-122.674307"/>
<trkpt lat="49.269388" lon="-122.671003"/>
<trkpt lat="49.269076" lon="-122.670286"/>
<trkpt lat="49.267936" lon="-122.669419"/>
<trkpt lat="49.267560" lon="-122.668477"/>
<trkpt lat="49.269632" lon="-122.664617"/>
<trkpt lat="49.271460" lon="-122.662035"/>
<trkpt lat="49.272967" lon="-122.660116"/>
<trkpt lat="49.274697" lon="-122.660422"/>
<trkpt lat="49.274936" lon="-122.661066"/>
</trkseg>
<trkseg>
<trkpt lat="49.274922" lon="-122.660923"/>
<trkpt lat="49.275306" lon="-122.660667"/>
<trkpt lat="49.275292" lon="-122.660452"/>
<trkpt lat="49.275166" lon="-122.659413"/>
<trkpt lat="49.275541" lon="-122.658378"/>
<trkpt lat="49.275307" lon="-122.656041"/>
<trkpt lat="49.272924" lon="-122.650516"/>
<trkpt lat="49.272242" lon="-122.648089"/>
<trkpt lat="49.272522" lon="-122.646673"/>
<trkpt lat="49.271767" lon="-122.646370"/>
<trkpt lat="49.271720" lon="-122.644235"/>
<trkpt lat="49.270960" lon="-122.644509"/>
<trkpt lat="49.269996" lon="-122.644616"/>
<trkpt lat="49.269716" lon="-122.644000"/>
<trkpt lat="49.270392" lon="-122.642915"/>
<trkpt lat="49.270384" lon="-122.641225"/>
<trkpt lat="49.269752" lon="-122.640176"/>
<trkpt lat="49.269809" lon="-122.638812"/>
<trkpt lat="49.269354" lon="-122.637541"/>
<trkpt lat="49.266258" lon="-122.634095"/>
<trkpt lat="49.264393" lon="-122.633099"/>
<trkpt lat="49.263251" lon="-122.630936"/>
<trkpt lat="49.261836" lon="-122.626512"/>
<trkpt lat="49.260713" lon="-122.625417"/>
<trkpt lat="49.259632" lon="-122.622095"/>
<trkpt lat="49.250661" lon="-122.622001"/>
<trkpt lat="49.249814" lon="-122.622259"/>
<trkpt lat="49.242352" lon="-122.622324"/>
<trkpt lat="49.241201" lon="-122.622401"/>
<trkpt lat="49.240696" lon="-122.622426"/>
<trkpt lat="49.235196" lon="-122.622522"/>
<trkpt lat="49.235080" lon="-122.622525"/>
<trkpt lat="49.234415" lon="-122.622532"/>
<trkpt lat="49.227844" lon="-122.622625"/>
<trkpt lat="49.227846" lon="-122.631801"/>
</trkseg>
</trk>
</gpx>