<?xml version="1.0" encoding="UTF-8"?>
<gpx version="1.1" creator="BC Bike Stops (bccycletourism.ca)" xmlns="http://www.topografix.com/GPX/1/1">
<metadata>
<name>Vancouver, Victoria &amp; Eastern</name>
<link href="https://bccycletourism.ca/trail/vancouver-victoria-eastern/"><text>BC Bike Stops</text></link>
</metadata>
<wpt lat="49.204507" lon="-119.861204">
<name>Eagle campground &amp; RV Park</name>
<cmt>camping</cmt>
<desc>Private Campground</desc>
<sym>Dot</sym>
<type>campsite</type>
</wpt>
<wpt lat="49.204689" lon="-119.822514">
<name>Buy-Low Foods</name>
<cmt>convenience_store</cmt>
<desc>Grocery Store</desc>
<sym>Dot</sym>
<type>store</type>
</wpt>
<wpt lat="49.205155" lon="-119.855525">
<name>Mariposa</name>
<cmt>convenience_store</cmt>
<desc>Grocery Store</desc>
<sym>Dot</sym>
<type>store</type>
</wpt>
<wpt lat="49.205059" lon="-119.844396">
<name>Sanderson Farms Market</name>
<cmt>convenience_store</cmt>
<desc>Farmers' Market</desc>
<sym>Dot</sym>
<type>store</type>
</wpt>
<wpt lat="49.204956" lon="-119.824380">
<name>BC Liquor Stores</name>
<cmt>convenience_store</cmt>
<desc>Liquor Store</desc>
<sym>Dot</sym>
<type>store</type>
</wpt>
<wpt lat="49.204988" lon="-119.823363">
<name>Blackbird Tavern</name>
<cmt>food</cmt>
<desc>Restaurant</desc>
<sym>Dot</sym>
<type>food</type>
</wpt>
<wpt lat="49.205025" lon="-119.825813">
<name>K Mountain Diner</name>
<cmt>food</cmt>
<desc>Fast Food / Chain</desc>
<sym>Dot</sym>
<type>food</type>
</wpt>
<wpt lat="49.205254" lon="-119.824231">
<name>Kool Beans</name>
<cmt>food</cmt>
<desc>Ice Cream</desc>
<sym>Dot</sym>
<type>food</type>
</wpt>
<wpt lat="49.205405" lon="-119.834546">
<name>Parsons Farm Market</name>
<cmt>convenience_store</cmt>
<desc>Farmers' Market</desc>
<sym>Dot</sym>
<type>store</type>
</wpt>
<wpt lat="49.205292" lon="-119.826113">
<name>Benja Thai</name>
<cmt>food</cmt>
<desc>Restaurant</desc>
<sym>Dot</sym>
<type>food</type>
</wpt>
<wpt lat="49.205381" lon="-119.823256">
<name>Keremeos Library Branch</name>
<cmt>library</cmt>
<desc>Library</desc>
<sym>Dot</sym>
<type>info</type>
</wpt>
<wpt lat="49.205512" lon="-119.832453">
<name>Mom and Pop's Farm Market</name>
<cmt>convenience_store</cmt>
<desc>Farmers' Market</desc>
<sym>Dot</sym>
<type>store</type>
</wpt>
<wpt lat="49.206038" lon="-119.831445">
<name>Elk Motel</name>
<cmt>lodging</cmt>
<desc>Hotel / Motel</desc>
<sym>Dot</sym>
<type>shelter</type>
</wpt>
<trk><name>Vancouver, Victoria &amp; Eastern</name>
<trkseg>
<trkpt lat="49.203504" lon="-119.805509"/>
<trkpt lat="49.203598" lon="-119.814055"/>
<trkpt lat="49.204155" lon="-119.859709"/>
<trkpt lat="49.204287" lon="-119.867004"/>
<trkpt lat="49.205014" lon="-119.873988"/>
<trkpt lat="49.204540" lon="-119.880898"/>
<trkpt lat="49.204402" lon="-119.882530"/>
<trkpt lat="49.204026" lon="-119.887619"/>
<trkpt lat="49.203874" lon="-119.889668"/>
<trkpt lat="49.204045" lon="-119.892251"/>
<trkpt lat="49.204827" lon="-119.894528"/>
</trkseg>
</trk>
</gpx>