<?xml version="1.0" encoding="UTF-8"?>
<gpx version="1.1" creator="BC Bike Stops (bccycletourism.ca)" xmlns="http://www.topografix.com/GPX/1/1">
<metadata>
<name>Cultus Lake to Tamihi Rec Site — cycling stops</name>
<link href="https://bccycletourism.ca/route/cultus-lake-tamihi-rec-site-tct-t72/"><text>BC Bike Stops</text></link>
</metadata>
<wpt lat="49.069990" lon="-121.962129">
<name>Cultus Lake Pub &amp; Liquor Store</name>
<cmt>bar</cmt>
<desc>Brewery / Pub</desc>
<sym>Dot</sym>
<type>food</type>
</wpt>
<wpt lat="49.066977" lon="-121.976446">
<name>Sunnyside Campground</name>
<cmt>camping</cmt>
<desc>Private Campground</desc>
<sym>Dot</sym>
<type>campsite</type>
</wpt>
<wpt lat="49.074842" lon="-121.975743">
<name>Lakeside Beach Club</name>
<cmt>food</cmt>
<desc>Restaurant</desc>
<sym>Dot</sym>
<type>food</type>
</wpt>
<wpt lat="49.074373" lon="-121.975229">
<name>J. Beethoven's Pizza</name>
<cmt>food</cmt>
<desc>Restaurant</desc>
<sym>Dot</sym>
<type>food</type>
</wpt>
<wpt lat="49.074504" lon="-121.975041">
<name>Maar's Burger Bar</name>
<cmt>food</cmt>
<desc>Restaurant</desc>
<sym>Dot</sym>
<type>food</type>
</wpt>
<wpt lat="49.055129" lon="-121.970938">
<name>Entrance Bay Campground</name>
<cmt>camping</cmt>
<desc>Public Campground</desc>
<sym>Dot</sym>
<type>campsite</type>
</wpt>
<wpt lat="49.074762" lon="-121.850476">
<name>Chilliwack River Rafting</name>
<cmt>viewpoint</cmt>
<desc>Activity / Experience</desc>
<sym>Dot</sym>
<type>overlook</type>
</wpt>
<wpt lat="49.071535" lon="-121.838425">
<name>Tamihi East Campground</name>
<cmt>camping</cmt>
<desc>Public Campground</desc>
<sym>Dot</sym>
<type>campsite</type>
</wpt>
<wpt lat="49.077737" lon="-121.868797">
<name>River Wrangler Sportsfishing</name>
<cmt>viewpoint</cmt>
<desc>Activity / Experience</desc>
<sym>Dot</sym>
<type>overlook</type>
</wpt>
<wpt lat="49.071454" lon="-121.837289">
<name>Tamihi Rapids Campground</name>
<cmt>camping</cmt>
<desc>Private Campground</desc>
<sym>Dot</sym>
<type>campsite</type>
</wpt>
<wpt lat="49.076449" lon="-121.879563">
<name>The Fish &amp; Chicks</name>
<cmt>lodging</cmt>
<desc>B&amp;B / Inn</desc>
<sym>Dot</sym>
<type>shelter</type>
</wpt>
<wpt lat="49.076528" lon="-121.879395">
<name>Cirrhosis of the River</name>
<cmt>lodging</cmt>
<desc>B&amp;B / Inn</desc>
<sym>Dot</sym>
<type>shelter</type>
</wpt>
<wpt lat="49.076578" lon="-121.879309">
<name>The Rodfathers</name>
<cmt>lodging</cmt>
<desc>B&amp;B / Inn</desc>
<sym>Dot</sym>
<type>shelter</type>
</wpt>
</gpx>