<?xml version="1.0" encoding="UTF-8"?>
<gpx version="1.1" creator="BC Bike Stops (bccycletourism.ca)" xmlns="http://www.topografix.com/GPX/1/1">
<metadata>
<name>Highway 10 Cycle Route</name>
<link href="https://bccycletourism.ca/trail/highway-10-cycle-route/"><text>BC Bike Stops</text></link>
</metadata>
<wpt lat="49.104678" lon="-122.798084">
<name>Quiznos</name>
<cmt>food</cmt>
<desc>Fast Food / Chain</desc>
<sym>Dot</sym>
<type>food</type>
</wpt>
<wpt lat="49.104135" lon="-122.797854">
<name>A&amp;W</name>
<cmt>food</cmt>
<desc>Fast Food / Chain</desc>
<sym>Dot</sym>
<type>food</type>
</wpt>
<wpt lat="49.104107" lon="-122.798356">
<name>Pizza Twist</name>
<cmt>food</cmt>
<desc>Fast Food / Chain</desc>
<sym>Dot</sym>
<type>food</type>
</wpt>
<wpt lat="49.104747" lon="-122.799047">
<name>Tim Hortons</name>
<cmt>food</cmt>
<desc>Fast Food / Chain</desc>
<sym>Dot</sym>
<type>food</type>
</wpt>
<wpt lat="49.104846" lon="-122.802272">
<name>Starbucks</name>
<cmt>food</cmt>
<desc>Fast Food / Chain</desc>
<sym>Dot</sym>
<type>food</type>
</wpt>
<wpt lat="49.104850" lon="-122.802818">
<name>The Chopped Leaf</name>
<cmt>food</cmt>
<desc>Restaurant</desc>
<sym>Dot</sym>
<type>food</type>
</wpt>
<wpt lat="49.104865" lon="-122.805168">
<name>Subway</name>
<cmt>food</cmt>
<desc>Fast Food / Chain</desc>
<sym>Dot</sym>
<type>food</type>
</wpt>
<wpt lat="49.104847" lon="-122.799602">
<name>West Village Cafe</name>
<cmt>coffee</cmt>
<desc>Café / Coffee</desc>
<sym>Dot</sym>
<type>food</type>
</wpt>
<wpt lat="49.104865" lon="-122.805100">
<name>Nonstop Chicken</name>
<cmt>food</cmt>
<desc>Restaurant</desc>
<sym>Dot</sym>
<type>food</type>
</wpt>
<wpt lat="49.103993" lon="-122.798559">
<name>Browns Socialhouse</name>
<cmt>bar</cmt>
<desc>Brewery / Pub</desc>
<sym>Dot</sym>
<type>food</type>
</wpt>
<wpt lat="49.104883" lon="-122.804416">
<name>McDonald's</name>
<cmt>food</cmt>
<desc>Fast Food / Chain</desc>
<sym>Dot</sym>
<type>food</type>
</wpt>
<wpt lat="49.104864" lon="-122.798023">
<name>Domino's</name>
<cmt>food</cmt>
<desc>Fast Food / Chain</desc>
<sym>Dot</sym>
<type>food</type>
</wpt>
<wpt lat="49.105155" lon="-122.805726">
<name>Mahek Restaurant &amp; Lounge</name>
<cmt>food</cmt>
<desc>Restaurant</desc>
<sym>Dot</sym>
<type>food</type>
</wpt>
<wpt lat="49.105165" lon="-122.806802">
<name>Tong Louie Family YMCA</name>
<cmt>rest_stop</cmt>
<desc>Community Centre</desc>
<sym>Dot</sym>
<type>rest_area</type>
</wpt>
<wpt lat="49.103565" lon="-122.797503">
<name>Quesada</name>
<cmt>food</cmt>
<desc>Fast Food / Chain</desc>
<sym>Dot</sym>
<type>food</type>
</wpt>
<wpt lat="49.105309" lon="-122.800494">
<name>Dairy Queen</name>
<cmt>food</cmt>
<desc>Ice Cream</desc>
<sym>Dot</sym>
<type>food</type>
</wpt>
<wpt lat="49.105297" lon="-122.798646">
<name>Spice Kings Bistro</name>
<cmt>food</cmt>
<desc>Fast Food / Chain</desc>
<sym>Dot</sym>
<type>food</type>
</wpt>
<wpt lat="49.105316" lon="-122.797825">
<name>The Whole Bowl</name>
<cmt>food</cmt>
<desc>Restaurant</desc>
<sym>Dot</sym>
<type>food</type>
</wpt>
<wpt lat="49.103500" lon="-122.800475">
<name>Ato Sushi Bar + Kitchen</name>
<cmt>food</cmt>
<desc>Restaurant</desc>
<sym>Dot</sym>
<type>food</type>
</wpt>
<wpt lat="49.105466" lon="-122.800534">
<name>Mary Brown's</name>
<cmt>food</cmt>
<desc>Fast Food / Chain</desc>
<sym>Dot</sym>
<type>food</type>
</wpt>
<wpt lat="49.105277" lon="-122.756096">
<name>Cloverdale Country Farm Market</name>
<cmt>convenience_store</cmt>
<desc>Farmers' Market</desc>
<sym>Dot</sym>
<type>store</type>
</wpt>
<wpt lat="49.105589" lon="-122.804727">
<name>Boba Boy</name>
<cmt>coffee</cmt>
<desc>Café / Coffee</desc>
<sym>Dot</sym>
<type>food</type>
</wpt>
<wpt lat="49.105679" lon="-122.805150">
<name>Fresh Street Market</name>
<cmt>convenience_store</cmt>
<desc>Grocery Store</desc>
<sym>Dot</sym>
<type>store</type>
</wpt>
<wpt lat="49.105750" lon="-122.802128">
<name>White Spot</name>
<cmt>food</cmt>
<desc>Fast Food / Chain</desc>
<sym>Dot</sym>
<type>food</type>
</wpt>
<wpt lat="49.105616" lon="-122.738875">
<name>Starbucks</name>
<cmt>food</cmt>
<desc>Fast Food / Chain</desc>
<sym>Dot</sym>
<type>food</type>
</wpt>
<wpt lat="49.105767" lon="-122.739572">
<name>Vera's Burger Shack</name>
<cmt>food</cmt>
<desc>Restaurant</desc>
<sym>Dot</sym>
<type>food</type>
</wpt>
<wpt lat="49.106635" lon="-122.801358">
<name>Twisted Indian</name>
<cmt>food</cmt>
<desc>Restaurant</desc>
<sym>Dot</sym>
<type>food</type>
</wpt>
<wpt lat="49.106637" lon="-122.801560">
<name>COBS Bread</name>
<cmt>food</cmt>
<desc>Bakery / Donuts</desc>
<sym>Dot</sym>
<type>food</type>
</wpt>
<wpt lat="49.106639" lon="-122.801479">
<name>Pizza Pizza</name>
<cmt>food</cmt>
<desc>Fast Food / Chain</desc>
<sym>Dot</sym>
<type>food</type>
</wpt>
<wpt lat="49.104896" lon="-122.735141">
<name>Hawthorne Beer Market &amp; Bistro</name>
<cmt>bar</cmt>
<desc>Brewery / Pub</desc>
<sym>Dot</sym>
<type>food</type>
</wpt>
<wpt lat="49.103903" lon="-122.734552">
<name>Coast &amp; Country Diner</name>
<cmt>food</cmt>
<desc>Restaurant</desc>
<sym>Dot</sym>
<type>food</type>
</wpt>
<wpt lat="49.104318" lon="-122.734527">
<name>De Dutch</name>
<cmt>food</cmt>
<desc>Fast Food / Chain</desc>
<sym>Dot</sym>
<type>food</type>
</wpt>
<wpt lat="49.104319" lon="-122.734393">
<name>Mom's Dosa Palace</name>
<cmt>food</cmt>
<desc>Restaurant</desc>
<sym>Dot</sym>
<type>food</type>
</wpt>
<wpt lat="49.104002" lon="-122.734334">
<name>Clydesdale Inn</name>
<cmt>lodging</cmt>
<desc>Hotel / Motel</desc>
<sym>Dot</sym>
<type>shelter</type>
</wpt>
<wpt lat="49.105777" lon="-122.735176">
<name>Ken's Cafe &amp; Restaurant</name>
<cmt>coffee</cmt>
<desc>Café / Coffee</desc>
<sym>Dot</sym>
<type>food</type>
</wpt>
<wpt lat="49.105511" lon="-122.734779">
<name>Republica Coffee Roasters Cloverdale</name>
<cmt>coffee</cmt>
<desc>Café / Coffee</desc>
<sym>Dot</sym>
<type>food</type>
</wpt>
<wpt lat="49.103933" lon="-122.734095">
<name>Clydesdale Inn</name>
<cmt>bar</cmt>
<desc>Brewery / Pub</desc>
<sym>Dot</sym>
<type>food</type>
</wpt>
<wpt lat="49.103730" lon="-122.733900">
<name>Cloverdale Station</name>
<cmt>monument</cmt>
<desc>Museum / Gallery</desc>
<sym>Dot</sym>
<type>info</type>
</wpt>
<wpt lat="49.104909" lon="-122.733411">
<name>Cloverdale Branch</name>
<cmt>library</cmt>
<desc>Library</desc>
<sym>Dot</sym>
<type>info</type>
</wpt>
<wpt lat="49.107109" lon="-122.734777">
<name>The Vault</name>
<cmt>food</cmt>
<desc>Restaurant</desc>
<sym>Dot</sym>
<type>food</type>
</wpt>
<wpt lat="49.103652" lon="-122.732531">
<name>Subway</name>
<cmt>food</cmt>
<desc>Fast Food / Chain</desc>
<sym>Dot</sym>
<type>food</type>
</wpt>
<wpt lat="49.104328" lon="-122.732373">
<name>Museum of Surrey</name>
<cmt>monument</cmt>
<desc>Museum / Gallery</desc>
<sym>Dot</sym>
<type>info</type>
</wpt>
<wpt lat="49.103480" lon="-122.732176">
<name>Pizza Hut Delivery</name>
<cmt>food</cmt>
<desc>Fast Food / Chain</desc>
<sym>Dot</sym>
<type>food</type>
</wpt>
<wpt lat="49.103999" lon="-122.731751">
<name>Dairy Queen</name>
<cmt>food</cmt>
<desc>Ice Cream</desc>
<sym>Dot</sym>
<type>food</type>
</wpt>
<wpt lat="49.103264" lon="-122.731558">
<name>No Frills</name>
<cmt>convenience_store</cmt>
<desc>Grocery Store</desc>
<sym>Dot</sym>
<type>store</type>
</wpt>
<trk><name>Highway 10 Cycle Route</name>
<trkseg>
<trkpt lat="49.100566" lon="-122.902150"/>
<trkpt lat="49.101503" lon="-122.901210"/>
<trkpt lat="49.102158" lon="-122.900599"/>
<trkpt lat="49.102698" lon="-122.900071"/>
<trkpt lat="49.103471" lon="-122.899292"/>
<trkpt lat="49.103646" lon="-122.899121"/>
<trkpt lat="49.104063" lon="-122.898695"/>
<trkpt lat="49.105103" lon="-122.897681"/>
<trkpt lat="49.105255" lon="-122.897538"/>
<trkpt lat="49.105683" lon="-122.897121"/>
<trkpt lat="49.106416" lon="-122.896462"/>
<trkpt lat="49.107919" lon="-122.894720"/>
<trkpt lat="49.108236" lon="-122.893727"/>
<trkpt lat="49.108298" lon="-122.892462"/>
<trkpt lat="49.108223" lon="-122.891296"/>
<trkpt lat="49.108199" lon="-122.890821"/>
<trkpt lat="49.108190" lon="-122.890497"/>
<trkpt lat="49.108187" lon="-122.890372"/>
<trkpt lat="49.108179" lon="-122.890065"/>
<trkpt lat="49.108162" lon="-122.881885"/>
<trkpt lat="49.108154" lon="-122.880888"/>
<trkpt lat="49.108117" lon="-122.870085"/>
<trkpt lat="49.108067" lon="-122.867856"/>
<trkpt lat="49.108146" lon="-122.856734"/>
<trkpt lat="49.108163" lon="-122.845380"/>
<trkpt lat="49.108174" lon="-122.843360"/>
<trkpt lat="49.108113" lon="-122.841104"/>
<trkpt lat="49.107736" lon="-122.839442"/>
<trkpt lat="49.104864" lon="-122.834205"/>
<trkpt lat="49.104728" lon="-122.833719"/>
<trkpt lat="49.104526" lon="-122.831533"/>
<trkpt lat="49.104526" lon="-122.831105"/>
<trkpt lat="49.104527" lon="-122.830329"/>
<trkpt lat="49.104513" lon="-122.826296"/>
<trkpt lat="49.104507" lon="-122.825567"/>
<trkpt lat="49.104501" lon="-122.824849"/>
<trkpt lat="49.104490" lon="-122.823607"/>
<trkpt lat="49.104489" lon="-122.823422"/>
<trkpt lat="49.104480" lon="-122.820648"/>
<trkpt lat="49.104470" lon="-122.817880"/>
<trkpt lat="49.104457" lon="-122.814971"/>
<trkpt lat="49.104442" lon="-122.812307"/>
<trkpt lat="49.104440" lon="-122.811756"/>
<trkpt lat="49.104428" lon="-122.809870"/>
<trkpt lat="49.104419" lon="-122.808357"/>
<trkpt lat="49.104414" lon="-122.806390"/>
<trkpt lat="49.104411" lon="-122.806167"/>
<trkpt lat="49.104392" lon="-122.804549"/>
<trkpt lat="49.104386" lon="-122.803752"/>
<trkpt lat="49.104386" lon="-122.802890"/>
<trkpt lat="49.104377" lon="-122.801126"/>
<trkpt lat="49.104376" lon="-122.800986"/>
<trkpt lat="49.104351" lon="-122.798721"/>
<trkpt lat="49.104342" lon="-122.797250"/>
<trkpt lat="49.104340" lon="-122.796961"/>
<trkpt lat="49.104428" lon="-122.781089"/>
<trkpt lat="49.104421" lon="-122.779050"/>
<trkpt lat="49.104410" lon="-122.770362"/>
<trkpt lat="49.104387" lon="-122.768304"/>
<trkpt lat="49.104254" lon="-122.759076"/>
<trkpt lat="49.104228" lon="-122.756670"/>
<trkpt lat="49.104205" lon="-122.754146"/>
<trkpt lat="49.104149" lon="-122.748344"/>
<trkpt lat="49.104096" lon="-122.746113"/>
<trkpt lat="49.104038" lon="-122.743564"/>
<trkpt lat="49.104024" lon="-122.741513"/>
<trkpt lat="49.104018" lon="-122.740309"/>
<trkpt lat="49.104012" lon="-122.738868"/>
<trkpt lat="49.104014" lon="-122.738422"/>
<trkpt lat="49.104013" lon="-122.738193"/>
</trkseg>
<trkseg>
<trkpt lat="49.104153" lon="-122.738191"/>
<trkpt lat="49.104152" lon="-122.738416"/>
<trkpt lat="49.104156" lon="-122.738826"/>
<trkpt lat="49.104158" lon="-122.740379"/>
<trkpt lat="49.104164" lon="-122.741182"/>
<trkpt lat="49.104156" lon="-122.742547"/>
<trkpt lat="49.104150" lon="-122.743372"/>
<trkpt lat="49.104207" lon="-122.746111"/>
<trkpt lat="49.104225" lon="-122.747283"/>
<trkpt lat="49.104316" lon="-122.754345"/>
<trkpt lat="49.104327" lon="-122.756101"/>
<trkpt lat="49.104338" lon="-122.756583"/>
<trkpt lat="49.104469" lon="-122.767356"/>
<trkpt lat="49.104565" lon="-122.767452"/>
<trkpt lat="49.104489" lon="-122.768252"/>
<trkpt lat="49.104490" lon="-122.768303"/>
<trkpt lat="49.104500" lon="-122.770360"/>
<trkpt lat="49.104522" lon="-122.776762"/>
<trkpt lat="49.104531" lon="-122.779053"/>
<trkpt lat="49.104474" lon="-122.788489"/>
<trkpt lat="49.104452" lon="-122.789547"/>
<trkpt lat="49.104447" lon="-122.790194"/>
<trkpt lat="49.104438" lon="-122.794776"/>
<trkpt lat="49.104447" lon="-122.795355"/>
<trkpt lat="49.104469" lon="-122.796734"/>
<trkpt lat="49.104470" lon="-122.796917"/>
<trkpt lat="49.104472" lon="-122.797141"/>
<trkpt lat="49.104491" lon="-122.798517"/>
<trkpt lat="49.104501" lon="-122.799305"/>
<trkpt lat="49.104525" lon="-122.800986"/>
<trkpt lat="49.104529" lon="-122.801125"/>
<trkpt lat="49.104511" lon="-122.803874"/>
<trkpt lat="49.104528" lon="-122.805565"/>
<trkpt lat="49.104518" lon="-122.806161"/>
<trkpt lat="49.104521" lon="-122.806476"/>
<trkpt lat="49.104521" lon="-122.807266"/>
<trkpt lat="49.104540" lon="-122.810267"/>
<trkpt lat="49.104561" lon="-122.812306"/>
<trkpt lat="49.104555" lon="-122.815882"/>
<trkpt lat="49.104560" lon="-122.817833"/>
<trkpt lat="49.104562" lon="-122.819495"/>
<trkpt lat="49.104564" lon="-122.820651"/>
<trkpt lat="49.104577" lon="-122.821375"/>
<trkpt lat="49.104584" lon="-122.821949"/>
<trkpt lat="49.104599" lon="-122.823360"/>
<trkpt lat="49.104600" lon="-122.823497"/>
<trkpt lat="49.104850" lon="-122.828515"/>
<trkpt lat="49.104966" lon="-122.829065"/>
<trkpt lat="49.105131" lon="-122.829920"/>
<trkpt lat="49.105221" lon="-122.831947"/>
<trkpt lat="49.105223" lon="-122.832396"/>
<trkpt lat="49.105524" lon="-122.835133"/>
<trkpt lat="49.107423" lon="-122.838423"/>
<trkpt lat="49.107963" lon="-122.839828"/>
<trkpt lat="49.108246" lon="-122.841475"/>
<trkpt lat="49.108262" lon="-122.844020"/>
<trkpt lat="49.108253" lon="-122.845755"/>
<trkpt lat="49.108246" lon="-122.847333"/>
<trkpt lat="49.108180" lon="-122.864635"/>
<trkpt lat="49.108182" lon="-122.865965"/>
<trkpt lat="49.108187" lon="-122.867791"/>
<trkpt lat="49.108187" lon="-122.868021"/>
<trkpt lat="49.108228" lon="-122.870656"/>
<trkpt lat="49.108230" lon="-122.871534"/>
<trkpt lat="49.108234" lon="-122.873502"/>
<trkpt lat="49.108265" lon="-122.879143"/>
<trkpt lat="49.108285" lon="-122.888845"/>
<trkpt lat="49.108288" lon="-122.889395"/>
<trkpt lat="49.108293" lon="-122.889908"/>
<trkpt lat="49.108303" lon="-122.890367"/>
<trkpt lat="49.108305" lon="-122.890497"/>
<trkpt lat="49.108314" lon="-122.890846"/>
<trkpt lat="49.108413" lon="-122.893044"/>
<trkpt lat="49.108120" lon="-122.894528"/>
<trkpt lat="49.107525" lon="-122.895528"/>
<trkpt lat="49.105553" lon="-122.897456"/>
<trkpt lat="49.105508" lon="-122.897504"/>
<trkpt lat="49.105302" lon="-122.897666"/>
<trkpt lat="49.105179" lon="-122.897786"/>
<trkpt lat="49.104864" lon="-122.898101"/>
<trkpt lat="49.104238" lon="-122.898727"/>
<trkpt lat="49.103764" lon="-122.899184"/>
<trkpt lat="49.103605" lon="-122.899341"/>
<trkpt lat="49.102805" lon="-122.900134"/>
<trkpt lat="49.102262" lon="-122.900664"/>
<trkpt lat="49.101969" lon="-122.900923"/>
<trkpt lat="49.100827" lon="-122.902069"/>
<trkpt lat="49.100745" lon="-122.902150"/>
</trkseg>
</trk>
</gpx>