<?xml version="1.0" encoding="UTF-8"?>
<gpx version="1.1" creator="We Welcome Cyclists (bccycletourism.ca)" xmlns="http://www.topografix.com/GPX/1/1">
<metadata>
<name>Granville</name>
<link href="https://bccycletourism.ca/trail/granville/"><text>We Welcome Cyclists</text></link>
</metadata>
<wpt lat="49.162433" lon="-123.131755">
<name>7-Eleven</name>
<cmt>convenience_store</cmt>
<desc>Convenience Store</desc>
<sym>Dot</sym>
<type>store</type>
</wpt>
<wpt lat="49.163035" lon="-123.136381">
<name>Pho Lan Beef Noodle Soup</name>
<cmt>food</cmt>
<desc>Restaurant</desc>
<sym>Dot</sym>
<type>food</type>
</wpt>
<wpt lat="49.163097" lon="-123.136378">
<name>Panda Pod Hotel</name>
<cmt>lodging</cmt>
<desc>Hotel / Motel</desc>
<sym>Dot</sym>
<type>shelter</type>
</wpt>
<wpt lat="49.162286" lon="-123.131715">
<name>Redbud Restaurant</name>
<cmt>food</cmt>
<desc>Restaurant</desc>
<sym>Dot</sym>
<type>food</type>
</wpt>
<wpt lat="49.162275" lon="-123.132539">
<name>Wing Kee Restaurant</name>
<cmt>food</cmt>
<desc>Restaurant</desc>
<sym>Dot</sym>
<type>food</type>
</wpt>
<wpt lat="49.163203" lon="-123.136382">
<name>Bamboo Grove Restaurant</name>
<cmt>food</cmt>
<desc>Restaurant</desc>
<sym>Dot</sym>
<type>food</type>
</wpt>
<wpt lat="49.163355" lon="-123.135093">
<name>Storeys Cafe</name>
<cmt>coffee</cmt>
<desc>Café / Coffee</desc>
<sym>Dot</sym>
<type>food</type>
</wpt>
<wpt lat="49.163370" lon="-123.136365">
<name>King Fried Chicken</name>
<cmt>food</cmt>
<desc>Fast Food / Chain</desc>
<sym>Dot</sym>
<type>food</type>
</wpt>
<wpt lat="49.163513" lon="-123.165675">
<name>Thompson Community Centre</name>
<cmt>rest_stop</cmt>
<desc>Community Centre</desc>
<sym>Dot</sym>
<type>rest_area</type>
</wpt>
<wpt lat="49.163617" lon="-123.133986">
<name>Giant</name>
<cmt>bike_shop</cmt>
<desc>Repair Shop</desc>
<sym>Dot</sym>
<type>gear</type>
</wpt>
<wpt lat="49.163621" lon="-123.134269">
<name>Tea Origin</name>
<cmt>coffee</cmt>
<desc>Café / Coffee</desc>
<sym>Dot</sym>
<type>food</type>
</wpt>
<wpt lat="49.163622" lon="-123.134826">
<name>Kumo Sukiyaki Restaurant</name>
<cmt>food</cmt>
<desc>Restaurant</desc>
<sym>Dot</sym>
<type>food</type>
</wpt>
<wpt lat="49.163624" lon="-123.134597">
<name>Cafe &amp; Life Co.</name>
<cmt>coffee</cmt>
<desc>Café / Coffee</desc>
<sym>Dot</sym>
<type>food</type>
</wpt>
<wpt lat="49.163624" lon="-123.135103">
<name>Golden Paramount Seafood Restaurant</name>
<cmt>food</cmt>
<desc>Restaurant</desc>
<sym>Dot</sym>
<type>food</type>
</wpt>
<wpt lat="49.161719" lon="-123.136134">
<name>McDonald's</name>
<cmt>food</cmt>
<desc>Fast Food / Chain</desc>
<sym>Dot</sym>
<type>food</type>
</wpt>
<wpt lat="49.163946" lon="-123.133960">
<name>Prunus</name>
<cmt>coffee</cmt>
<desc>Café / Coffee</desc>
<sym>Dot</sym>
<type>food</type>
</wpt>
<wpt lat="49.164076" lon="-123.141337">
<name>Richmond Public Library, Brighouse (Main) Library</name>
<cmt>library</cmt>
<desc>Library</desc>
<sym>Dot</sym>
<type>info</type>
</wpt>
<wpt lat="49.164129" lon="-123.136378">
<name>John 3:16 Malaysian Delights</name>
<cmt>food</cmt>
<desc>Restaurant</desc>
<sym>Dot</sym>
<type>food</type>
</wpt>
<wpt lat="49.164154" lon="-123.140711">
<name>Richmond Art Gallery</name>
<cmt>monument</cmt>
<desc>Museum / Gallery</desc>
<sym>Dot</sym>
<type>info</type>
</wpt>
<wpt lat="49.164207" lon="-123.136373">
<name>Pho An Nam</name>
<cmt>food</cmt>
<desc>Restaurant</desc>
<sym>Dot</sym>
<type>food</type>
</wpt>
<wpt lat="49.164253" lon="-123.134705">
<name>Kumare Restaurant &amp; Bakery</name>
<cmt>food</cmt>
<desc>Bakery / Donuts</desc>
<sym>Dot</sym>
<type>food</type>
</wpt>
<wpt lat="49.164261" lon="-123.141107">
<name>Richmond Museum</name>
<cmt>monument</cmt>
<desc>Museum / Gallery</desc>
<sym>Dot</sym>
<type>info</type>
</wpt>
<wpt lat="49.164296" lon="-123.146166">
<name>Minoru Centre for Active Living</name>
<cmt>rest_stop</cmt>
<desc>Community Centre</desc>
<sym>Dot</sym>
<type>rest_area</type>
</wpt>
<wpt lat="49.164299" lon="-123.135334">
<name>Wo Fung Noodle Express</name>
<cmt>food</cmt>
<desc>Restaurant</desc>
<sym>Dot</sym>
<type>food</type>
</wpt>
<wpt lat="49.164514" lon="-123.136119">
<name>IHOP</name>
<cmt>food</cmt>
<desc>Restaurant</desc>
<sym>Dot</sym>
<type>food</type>
</wpt>
<wpt lat="49.164734" lon="-123.142512">
<name>Minoru Arenas</name>
<cmt>rest_stop</cmt>
<desc>Community Centre</desc>
<sym>Dot</sym>
<type>rest_area</type>
</wpt>
<wpt lat="49.164851" lon="-123.134576">
<name>Deer One Hotpot</name>
<cmt>food</cmt>
<desc>Restaurant</desc>
<sym>Dot</sym>
<type>food</type>
</wpt>
<wpt lat="49.164867" lon="-123.135396">
<name>Sushi Lovers</name>
<cmt>food</cmt>
<desc>Restaurant</desc>
<sym>Dot</sym>
<type>food</type>
</wpt>
<wpt lat="49.164870" lon="-123.134973">
<name>Sungiven Foods</name>
<cmt>convenience_store</cmt>
<desc>Grocery Store</desc>
<sym>Dot</sym>
<type>store</type>
</wpt>
<wpt lat="49.165652" lon="-123.137966">
<name>Boss Bakery</name>
<cmt>food</cmt>
<desc>Bakery / Donuts</desc>
<sym>Dot</sym>
<type>food</type>
</wpt>
<wpt lat="49.165661" lon="-123.138716">
<name>Unique Green</name>
<cmt>coffee</cmt>
<desc>Café / Coffee</desc>
<sym>Dot</sym>
<type>food</type>
</wpt>
<wpt lat="49.165727" lon="-123.137787">
<name>Shi-Art Chinese Cuisine</name>
<cmt>food</cmt>
<desc>Restaurant</desc>
<sym>Dot</sym>
<type>food</type>
</wpt>
<wpt lat="49.165823" lon="-123.137731">
<name>Tim Hortons</name>
<cmt>food</cmt>
<desc>Fast Food / Chain</desc>
<sym>Dot</sym>
<type>food</type>
</wpt>
<wpt lat="49.165964" lon="-123.138158">
<name>Muji</name>
<cmt>convenience_store</cmt>
<desc>Grocery Store</desc>
<sym>Dot</sym>
<type>store</type>
</wpt>
<wpt lat="49.165964" lon="-123.137877">
<name>Hey! I am Yogost</name>
<cmt>coffee</cmt>
<desc>Café / Coffee</desc>
<sym>Dot</sym>
<type>food</type>
</wpt>
<wpt lat="49.166212" lon="-123.133913">
<name>Momo Tanghulu</name>
<cmt>coffee</cmt>
<desc>Café / Coffee</desc>
<sym>Dot</sym>
<type>food</type>
</wpt>
<wpt lat="49.166369" lon="-123.133929">
<name>Yogurie</name>
<cmt>coffee</cmt>
<desc>Café / Coffee</desc>
<sym>Dot</sym>
<type>food</type>
</wpt>
<wpt lat="49.166697" lon="-123.134774">
<name>Yoki Tapas &amp; Sake Bar</name>
<cmt>food</cmt>
<desc>Restaurant</desc>
<sym>Dot</sym>
<type>food</type>
</wpt>
<wpt lat="49.166698" lon="-123.135093">
<name>Chungchun</name>
<cmt>food</cmt>
<desc>Fast Food / Chain</desc>
<sym>Dot</sym>
<type>food</type>
</wpt>
<wpt lat="49.166699" lon="-123.135252">
<name>Miion Café</name>
<cmt>coffee</cmt>
<desc>Café / Coffee</desc>
<sym>Dot</sym>
<type>food</type>
</wpt>
<wpt lat="49.166712" lon="-123.135791">
<name>Yummy Slice Pizza</name>
<cmt>food</cmt>
<desc>Fast Food / Chain</desc>
<sym>Dot</sym>
<type>food</type>
</wpt>
<wpt lat="49.166803" lon="-123.139443">
<name>Hello Nori</name>
<cmt>food</cmt>
<desc>Restaurant</desc>
<sym>Dot</sym>
<type>food</type>
</wpt>
<wpt lat="49.166823" lon="-123.137895">
<name>Chatime</name>
<cmt>coffee</cmt>
<desc>Café / Coffee</desc>
<sym>Dot</sym>
<type>food</type>
</wpt>
<wpt lat="49.166931" lon="-123.137806">
<name>Cactus Club Cafe</name>
<cmt>food</cmt>
<desc>Restaurant</desc>
<sym>Dot</sym>
<type>food</type>
</wpt>
<wpt lat="49.166964" lon="-123.136182">
<name>Lao Shan Dong Homemade Noodle House</name>
<cmt>food</cmt>
<desc>Restaurant</desc>
<sym>Dot</sym>
<type>food</type>
</wpt>
<wpt lat="49.167028" lon="-123.136091">
<name>Nonbiri Cafe</name>
<cmt>coffee</cmt>
<desc>Café / Coffee</desc>
<sym>Dot</sym>
<type>food</type>
</wpt>
<wpt lat="49.167086" lon="-123.136088">
<name>Pokey Okey</name>
<cmt>food</cmt>
<desc>Restaurant</desc>
<sym>Dot</sym>
<type>food</type>
</wpt>
<wpt lat="49.167100" lon="-123.138666">
<name>% Arabica</name>
<cmt>coffee</cmt>
<desc>Café / Coffee</desc>
<sym>Dot</sym>
<type>food</type>
</wpt>
<wpt lat="49.167139" lon="-123.136087">
<name>Oishinoya Japanese Gyudon</name>
<cmt>food</cmt>
<desc>Restaurant</desc>
<sym>Dot</sym>
<type>food</type>
</wpt>
<wpt lat="49.167168" lon="-123.139319">
<name>Basha Restaurant</name>
<cmt>food</cmt>
<desc>Fast Food / Chain</desc>
<sym>Dot</sym>
<type>food</type>
</wpt>
<wpt lat="49.167231" lon="-123.139320">
<name>New York Fries</name>
<cmt>food</cmt>
<desc>Fast Food / Chain</desc>
<sym>Dot</sym>
<type>food</type>
</wpt>
<wpt lat="49.167269" lon="-123.138663">
<name>Castella Cheesecake</name>
<cmt>food</cmt>
<desc>Bakery / Donuts</desc>
<sym>Dot</sym>
<type>food</type>
</wpt>
<wpt lat="49.167290" lon="-123.139288">
<name>Jugo Juice</name>
<cmt>food</cmt>
<desc>Fast Food / Chain</desc>
<sym>Dot</sym>
<type>food</type>
</wpt>
<wpt lat="49.167290" lon="-123.139299">
<name>Curry Express</name>
<cmt>food</cmt>
<desc>Fast Food / Chain</desc>
<sym>Dot</sym>
<type>food</type>
</wpt>
<trk><name>Granville</name>
<trkseg>
<trkpt lat="49.162979" lon="-123.184388"/>
<trkpt lat="49.162810" lon="-123.183785"/>
<trkpt lat="49.162828" lon="-123.181212"/>
<trkpt lat="49.162902" lon="-123.170327"/>
<trkpt lat="49.162636" lon="-123.169446"/>
<trkpt lat="49.162597" lon="-123.169393"/>
</trkseg>
<trkseg>
<trkpt lat="49.162597" lon="-123.169393"/>
<trkpt lat="49.162376" lon="-123.169080"/>
</trkseg>
<trkseg>
<trkpt lat="49.162376" lon="-123.169080"/>
<trkpt lat="49.162600" lon="-123.168346"/>
<trkpt lat="49.162676" lon="-123.167731"/>
<trkpt lat="49.162675" lon="-123.167077"/>
<trkpt lat="49.162676" lon="-123.166529"/>
<trkpt lat="49.162680" lon="-123.165550"/>
<trkpt lat="49.162688" lon="-123.164582"/>
<trkpt lat="49.162682" lon="-123.164021"/>
<trkpt lat="49.162675" lon="-123.161926"/>
<trkpt lat="49.162675" lon="-123.161314"/>
<trkpt lat="49.162669" lon="-123.159762"/>
<trkpt lat="49.162670" lon="-123.157911"/>
<trkpt lat="49.162678" lon="-123.154079"/>
<trkpt lat="49.162680" lon="-123.153147"/>
<trkpt lat="49.162675" lon="-123.152498"/>
<trkpt lat="49.162674" lon="-123.152349"/>
<trkpt lat="49.162673" lon="-123.151902"/>
<trkpt lat="49.162669" lon="-123.150046"/>
<trkpt lat="49.162666" lon="-123.149498"/>
<trkpt lat="49.162668" lon="-123.148636"/>
<trkpt lat="49.162674" lon="-123.147779"/>
<trkpt lat="49.162676" lon="-123.145949"/>
<trkpt lat="49.162679" lon="-123.144391"/>
<trkpt lat="49.162681" lon="-123.143046"/>
<trkpt lat="49.162680" lon="-123.142418"/>
<trkpt lat="49.162681" lon="-123.141690"/>
<trkpt lat="49.162680" lon="-123.140858"/>
<trkpt lat="49.162679" lon="-123.140289"/>
<trkpt lat="49.162680" lon="-123.139578"/>
<trkpt lat="49.162678" lon="-123.138280"/>
<trkpt lat="49.162674" lon="-123.137187"/>
<trkpt lat="49.162672" lon="-123.136660"/>
<trkpt lat="49.162671" lon="-123.136520"/>
<trkpt lat="49.162669" lon="-123.135723"/>
<trkpt lat="49.162672" lon="-123.134714"/>
<trkpt lat="49.162670" lon="-123.133760"/>
<trkpt lat="49.162671" lon="-123.131733"/>
<trkpt lat="49.162670" lon="-123.131591"/>
<trkpt lat="49.162667" lon="-123.130990"/>
<trkpt lat="49.162665" lon="-123.130650"/>
<trkpt lat="49.162671" lon="-123.127591"/>
<trkpt lat="49.162733" lon="-123.126471"/>
<trkpt lat="49.162751" lon="-123.125872"/>
<trkpt lat="49.162794" lon="-123.125499"/>
<trkpt lat="49.162808" lon="-123.125374"/>
<trkpt lat="49.162815" lon="-123.125254"/>
</trkseg>
<trkseg>
<trkpt lat="49.162815" lon="-123.125254"/>
<trkpt lat="49.162851" lon="-123.125259"/>
<trkpt lat="49.162874" lon="-123.125294"/>
<trkpt lat="49.162884" lon="-123.125356"/>
<trkpt lat="49.162984" lon="-123.125519"/>
<trkpt lat="49.163051" lon="-123.125596"/>
<trkpt lat="49.163088" lon="-123.125641"/>
<trkpt lat="49.163128" lon="-123.125688"/>
<trkpt lat="49.163177" lon="-123.125746"/>
<trkpt lat="49.162833" lon="-123.127121"/>
<trkpt lat="49.162823" lon="-123.127778"/>
</trkseg>
<trkseg>
<trkpt lat="49.162823" lon="-123.127778"/>
<trkpt lat="49.162785" lon="-123.127933"/>
<trkpt lat="49.162785" lon="-123.128474"/>
<trkpt lat="49.162785" lon="-123.129862"/>
<trkpt lat="49.162783" lon="-123.130186"/>
<trkpt lat="49.162788" lon="-123.131016"/>
<trkpt lat="49.162786" lon="-123.131511"/>
<trkpt lat="49.162788" lon="-123.133761"/>
<trkpt lat="49.162790" lon="-123.134567"/>
<trkpt lat="49.162789" lon="-123.134925"/>
<trkpt lat="49.162787" lon="-123.135603"/>
<trkpt lat="49.162785" lon="-123.135905"/>
<trkpt lat="49.162786" lon="-123.136519"/>
<trkpt lat="49.162785" lon="-123.136658"/>
<trkpt lat="49.162794" lon="-123.138746"/>
<trkpt lat="49.162794" lon="-123.138991"/>
<trkpt lat="49.162792" lon="-123.139479"/>
<trkpt lat="49.162790" lon="-123.140169"/>
<trkpt lat="49.162791" lon="-123.140289"/>
<trkpt lat="49.162794" lon="-123.141075"/>
<trkpt lat="49.162800" lon="-123.142519"/>
<trkpt lat="49.162802" lon="-123.143043"/>
<trkpt lat="49.162796" lon="-123.145175"/>
<trkpt lat="49.162794" lon="-123.145715"/>
<trkpt lat="49.162791" lon="-123.146655"/>
<trkpt lat="49.162790" lon="-123.147009"/>
<trkpt lat="49.162790" lon="-123.147779"/>
<trkpt lat="49.162789" lon="-123.148442"/>
<trkpt lat="49.162791" lon="-123.148884"/>
<trkpt lat="49.162790" lon="-123.153154"/>
<trkpt lat="49.162791" lon="-123.153273"/>
<trkpt lat="49.162791" lon="-123.153791"/>
<trkpt lat="49.162797" lon="-123.157805"/>
<trkpt lat="49.162799" lon="-123.158743"/>
<trkpt lat="49.162799" lon="-123.158903"/>
<trkpt lat="49.162800" lon="-123.159500"/>
<trkpt lat="49.162796" lon="-123.160925"/>
<trkpt lat="49.162791" lon="-123.161486"/>
<trkpt lat="49.162791" lon="-123.161926"/>
<trkpt lat="49.162800" lon="-123.163428"/>
<trkpt lat="49.162805" lon="-123.163930"/>
<trkpt lat="49.162810" lon="-123.164582"/>
<trkpt lat="49.162800" lon="-123.165020"/>
<trkpt lat="49.162789" lon="-123.165529"/>
<trkpt lat="49.162767" lon="-123.166914"/>
<trkpt lat="49.162767" lon="-123.167200"/>
<trkpt lat="49.162762" lon="-123.167734"/>
<trkpt lat="49.162687" lon="-123.168374"/>
<trkpt lat="49.162573" lon="-123.168776"/>
</trkseg>
<trkseg>
<trkpt lat="49.162573" lon="-123.168776"/>
<trkpt lat="49.162597" lon="-123.169393"/>
</trkseg>
<trkseg>
<trkpt lat="49.162376" lon="-123.169080"/>
<trkpt lat="49.162573" lon="-123.168776"/>
</trkseg>
<trkseg>
<trkpt lat="49.162823" lon="-123.127778"/>
<trkpt lat="49.163999" lon="-123.127462"/>
<trkpt lat="49.164803" lon="-123.126242"/>
<trkpt lat="49.165028" lon="-123.125880"/>
<trkpt lat="49.165211" lon="-123.124868"/>
</trkseg>
<trkseg>
<trkpt lat="49.162815" lon="-123.125254"/>
<trkpt lat="49.162832" lon="-123.124936"/>
<trkpt lat="49.162832" lon="-123.124625"/>
<trkpt lat="49.162836" lon="-123.120484"/>
<trkpt lat="49.162835" lon="-123.119852"/>
<trkpt lat="49.162832" lon="-123.114948"/>
<trkpt lat="49.162829" lon="-123.114056"/>
<trkpt lat="49.162827" lon="-123.113578"/>
<trkpt lat="49.162818" lon="-123.102729"/>
</trkseg>
</trk>
</gpx>