<?xml version="1.0" encoding="UTF-8"?>
<gpx version="1.1" creator="We Welcome Cyclists (bccycletourism.ca)" xmlns="http://www.topografix.com/GPX/1/1">
<metadata>
<name>Poco Trail/TCT</name>
<link href="https://bccycletourism.ca/trail/poco-trail-tct/"><text>We Welcome Cyclists</text></link>
</metadata>
<wpt lat="49.251190" lon="-122.732744">
<name>Tinhouse Tasting Lounge</name>
<cmt>bar</cmt>
<desc>Brewery / Pub</desc>
<sym>Dot</sym>
<type>food</type>
</wpt>
<wpt lat="49.251238" lon="-122.732836">
<name>Tinhouse Brewing</name>
<cmt>bar</cmt>
<desc>Brewery / Pub</desc>
<sym>Dot</sym>
<type>food</type>
</wpt>
<wpt lat="49.252992" lon="-122.733207">
<name>Side Quest Brewing Co.</name>
<cmt>bar</cmt>
<desc>Brewery / Pub</desc>
<sym>Dot</sym>
<type>food</type>
</wpt>
<wpt lat="49.283823" lon="-122.744713">
<name>Hyde Creek Nature Reserve</name>
<cmt>park</cmt>
<desc>Park / Nature</desc>
<sym>Dot</sym>
<type>rest_area</type>
</wpt>
<wpt lat="49.252026" lon="-122.735614">
<name>The Hive</name>
<cmt>rest_stop</cmt>
<desc>Community Centre</desc>
<sym>Dot</sym>
<type>rest_area</type>
</wpt>
<wpt lat="49.251735" lon="-122.735940">
<name>C Market Coffee</name>
<cmt>coffee</cmt>
<desc>Café / Coffee</desc>
<sym>Dot</sym>
<type>food</type>
</wpt>
<wpt lat="49.252128" lon="-122.736412">
<name>Pizza Hut</name>
<cmt>food</cmt>
<desc>Fast Food / Chain</desc>
<sym>Dot</sym>
<type>food</type>
</wpt>
<wpt lat="49.252163" lon="-122.736559">
<name>Pür &amp; Simple</name>
<cmt>food</cmt>
<desc>Restaurant</desc>
<sym>Dot</sym>
<type>food</type>
</wpt>
<wpt lat="49.272984" lon="-122.755573">
<name>7-Eleven</name>
<cmt>convenience_store</cmt>
<desc>Convenience Store</desc>
<sym>Dot</sym>
<type>store</type>
</wpt>
<wpt lat="49.272980" lon="-122.756447">
<name>Reggiano's Pizza</name>
<cmt>food</cmt>
<desc>Restaurant</desc>
<sym>Dot</sym>
<type>food</type>
</wpt>
<wpt lat="49.252457" lon="-122.737076">
<name>Grelhados</name>
<cmt>food</cmt>
<desc>Restaurant</desc>
<sym>Dot</sym>
<type>food</type>
</wpt>
<wpt lat="49.272054" lon="-122.755737">
<name>Blend Bubble Tea</name>
<cmt>coffee</cmt>
<desc>Café / Coffee</desc>
<sym>Dot</sym>
<type>food</type>
</wpt>
<wpt lat="49.254865" lon="-122.735427">
<name>McDonald's</name>
<cmt>food</cmt>
<desc>Fast Food / Chain</desc>
<sym>Dot</sym>
<type>food</type>
</wpt>
<wpt lat="49.271826" lon="-122.755494">
<name>Spice Cart Indian Cuisine</name>
<cmt>food</cmt>
<desc>Restaurant</desc>
<sym>Dot</sym>
<type>food</type>
</wpt>
<wpt lat="49.253403" lon="-122.737379">
<name>A&amp;W</name>
<cmt>food</cmt>
<desc>Fast Food / Chain</desc>
<sym>Dot</sym>
<type>food</type>
</wpt>
<wpt lat="49.271809" lon="-122.755646">
<name>Little Caesars</name>
<cmt>food</cmt>
<desc>Fast Food / Chain</desc>
<sym>Dot</sym>
<type>food</type>
</wpt>
<wpt lat="49.271521" lon="-122.754067">
<name>Natureway Farm Market</name>
<cmt>convenience_store</cmt>
<desc>Farmers' Market</desc>
<sym>Dot</sym>
<type>store</type>
</wpt>
<wpt lat="49.253038" lon="-122.737845">
<name>Kai Japanese Restaurant</name>
<cmt>food</cmt>
<desc>Restaurant</desc>
<sym>Dot</sym>
<type>food</type>
</wpt>
<wpt lat="49.254881" lon="-122.735697">
<name>Walmart</name>
<cmt>convenience_store</cmt>
<desc>Grocery Store</desc>
<sym>Dot</sym>
<type>store</type>
</wpt>
<wpt lat="49.253102" lon="-122.738030">
<name>NoodleBox</name>
<cmt>food</cmt>
<desc>Fast Food / Chain</desc>
<sym>Dot</sym>
<type>food</type>
</wpt>
<wpt lat="49.271321" lon="-122.755135">
<name>Subway</name>
<cmt>food</cmt>
<desc>Fast Food / Chain</desc>
<sym>Dot</sym>
<type>food</type>
</wpt>
<wpt lat="49.271921" lon="-122.757155">
<name>The Arms Pub</name>
<cmt>bar</cmt>
<desc>Brewery / Pub</desc>
<sym>Dot</sym>
<type>food</type>
</wpt>
<wpt lat="49.271335" lon="-122.755624">
<name>Dairy Queen</name>
<cmt>food</cmt>
<desc>Ice Cream</desc>
<sym>Dot</sym>
<type>food</type>
</wpt>
<trk><name>Poco Trail/TCT</name>
<trkseg>
<trkpt lat="49.276554" lon="-122.776023"/>
<trkpt lat="49.276856" lon="-122.776027"/>
<trkpt lat="49.277739" lon="-122.776043"/>
<trkpt lat="49.278027" lon="-122.775377"/>
<trkpt lat="49.278400" lon="-122.775470"/>
</trkseg>
<trkseg>
<trkpt lat="49.278428" lon="-122.775577"/>
<trkpt lat="49.279044" lon="-122.775544"/>
<trkpt lat="49.279668" lon="-122.776136"/>
<trkpt lat="49.280169" lon="-122.775908"/>
<trkpt lat="49.279790" lon="-122.774742"/>
<trkpt lat="49.279787" lon="-122.773955"/>
<trkpt lat="49.279358" lon="-122.773065"/>
<trkpt lat="49.280466" lon="-122.772588"/>
<trkpt lat="49.280015" lon="-122.772119"/>
<trkpt lat="49.279478" lon="-122.770454"/>
<trkpt lat="49.278785" lon="-122.770449"/>
<trkpt lat="49.278611" lon="-122.769735"/>
<trkpt lat="49.278772" lon="-122.769226"/>
<trkpt lat="49.278686" lon="-122.767893"/>
<trkpt lat="49.278480" lon="-122.767330"/>
</trkseg>
<trkseg>
<trkpt lat="49.278331" lon="-122.767111"/>
<trkpt lat="49.278343" lon="-122.765264"/>
</trkseg>
<trkseg>
<trkpt lat="49.278343" lon="-122.765264"/>
<trkpt lat="49.278392" lon="-122.765303"/>
</trkseg>
<trkseg>
<trkpt lat="49.278343" lon="-122.765264"/>
<trkpt lat="49.277727" lon="-122.764980"/>
<trkpt lat="49.277119" lon="-122.763895"/>
<trkpt lat="49.276604" lon="-122.761825"/>
</trkseg>
<trkseg>
<trkpt lat="49.276480" lon="-122.761637"/>
<trkpt lat="49.276510" lon="-122.757686"/>
</trkseg>
<trkseg>
<trkpt lat="49.276513" lon="-122.757485"/>
<trkpt lat="49.276511" lon="-122.756263"/>
</trkseg>
<trkseg>
<trkpt lat="49.276512" lon="-122.756247"/>
<trkpt lat="49.276516" lon="-122.756034"/>
</trkseg>
<trkseg>
<trkpt lat="49.276591" lon="-122.755257"/>
<trkpt lat="49.276559" lon="-122.754837"/>
<trkpt lat="49.275775" lon="-122.753927"/>
<trkpt lat="49.275539" lon="-122.753243"/>
<trkpt lat="49.275725" lon="-122.751554"/>
<trkpt lat="49.281548" lon="-122.746326"/>
<trkpt lat="49.281937" lon="-122.745229"/>
<trkpt lat="49.282362" lon="-122.740426"/>
<trkpt lat="49.282816" lon="-122.738743"/>
</trkseg>
<trkseg>
<trkpt lat="49.282838" lon="-122.738435"/>
<trkpt lat="49.282867" lon="-122.738416"/>
<trkpt lat="49.283076" lon="-122.738283"/>
<trkpt lat="49.284858" lon="-122.735429"/>
</trkseg>
<trkseg>
<trkpt lat="49.284745" lon="-122.735482"/>
<trkpt lat="49.285525" lon="-122.734138"/>
<trkpt lat="49.285383" lon="-122.733939"/>
</trkseg>
<trkseg>
<trkpt lat="49.285374" lon="-122.733781"/>
<trkpt lat="49.284035" lon="-122.730326"/>
<trkpt lat="49.282552" lon="-122.729549"/>
<trkpt lat="49.281265" lon="-122.727970"/>
<trkpt lat="49.281413" lon="-122.723751"/>
<trkpt lat="49.280768" lon="-122.717179"/>
<trkpt lat="49.280237" lon="-122.715351"/>
</trkseg>
<trkseg>
<trkpt lat="49.279886" lon="-122.714061"/>
<trkpt lat="49.279032" lon="-122.711059"/>
<trkpt lat="49.278575" lon="-122.710599"/>
<trkpt lat="49.274164" lon="-122.713015"/>
<trkpt lat="49.272061" lon="-122.713801"/>
<trkpt lat="49.268368" lon="-122.716113"/>
<trkpt lat="49.266834" lon="-122.717756"/>
<trkpt lat="49.263133" lon="-122.720146"/>
<trkpt lat="49.255885" lon="-122.724094"/>
<trkpt lat="49.253078" lon="-122.727238"/>
<trkpt lat="49.252935" lon="-122.727832"/>
<trkpt lat="49.253100" lon="-122.729748"/>
<trkpt lat="49.250674" lon="-122.732818"/>
<trkpt lat="49.250389" lon="-122.732794"/>
<trkpt lat="49.250033" lon="-122.731728"/>
<trkpt lat="49.250534" lon="-122.730652"/>
<trkpt lat="49.249801" lon="-122.731183"/>
</trkseg>
<trkseg>
<trkpt lat="49.249576" lon="-122.731527"/>
<trkpt lat="49.248946" lon="-122.731633"/>
<trkpt lat="49.248687" lon="-122.732741"/>
</trkseg>
</trk>
</gpx>