<?xml version="1.0" encoding="UTF-8"?>
<gpx version="1.1" creator="We Welcome Cyclists (bccycletourism.ca)" xmlns="http://www.topografix.com/GPX/1/1">
<metadata>
<name>King George Boulevard Cycle Route</name>
<link href="https://bccycletourism.ca/trail/king-george-boulevard-cycle-route/"><text>We Welcome Cyclists</text></link>
</metadata>
<wpt lat="49.135232" lon="-122.845959">
<name>KFC</name>
<cmt>food</cmt>
<desc>Fast Food / Chain</desc>
<sym>Dot</sym>
<type>food</type>
</wpt>
<wpt lat="49.135281" lon="-122.845995">
<name>Taco Bell</name>
<cmt>food</cmt>
<desc>Fast Food / Chain</desc>
<sym>Dot</sym>
<type>food</type>
</wpt>
<wpt lat="49.134890" lon="-122.845213">
<name>Tim Hortons</name>
<cmt>food</cmt>
<desc>Fast Food / Chain</desc>
<sym>Dot</sym>
<type>food</type>
</wpt>
<wpt lat="49.135994" lon="-122.845269">
<name>A&amp;W</name>
<cmt>food</cmt>
<desc>Fast Food / Chain</desc>
<sym>Dot</sym>
<type>food</type>
</wpt>
<wpt lat="49.059264" lon="-122.810032">
<name>Tudor Liquor Store</name>
<cmt>convenience_store</cmt>
<desc>Liquor Store</desc>
<sym>Dot</sym>
<type>store</type>
</wpt>
<wpt lat="49.174354" lon="-122.845427">
<name>Dairy Queen</name>
<cmt>food</cmt>
<desc>Ice Cream</desc>
<sym>Dot</sym>
<type>food</type>
</wpt>
<wpt lat="49.127319" lon="-122.845123">
<name>Denny's</name>
<cmt>food</cmt>
<desc>Restaurant</desc>
<sym>Dot</sym>
<type>food</type>
</wpt>
<wpt lat="49.132808" lon="-122.846067">
<name>Tim Hortons</name>
<cmt>food</cmt>
<desc>Fast Food / Chain</desc>
<sym>Dot</sym>
<type>food</type>
</wpt>
<wpt lat="49.137036" lon="-122.845006">
<name>Brewster's Sports Pub &amp; Liquor Store</name>
<cmt>bar</cmt>
<desc>Brewery / Pub</desc>
<sym>Dot</sym>
<type>food</type>
</wpt>
<wpt lat="49.055588" lon="-122.805342">
<name>Krispy Samosa</name>
<cmt>food</cmt>
<desc>Restaurant</desc>
<sym>Dot</sym>
<type>food</type>
</wpt>
<wpt lat="49.045909" lon="-122.793368">
<name>Crispy Falafel</name>
<cmt>food</cmt>
<desc>Restaurant</desc>
<sym>Dot</sym>
<type>food</type>
</wpt>
<wpt lat="49.120165" lon="-122.844982">
<name>Subway</name>
<cmt>food</cmt>
<desc>Fast Food / Chain</desc>
<sym>Dot</sym>
<type>food</type>
</wpt>
<wpt lat="49.050092" lon="-122.799870">
<name>C-Lovers Fish &amp; Chips</name>
<cmt>food</cmt>
<desc>Fast Food / Chain</desc>
<sym>Dot</sym>
<type>food</type>
</wpt>
<wpt lat="49.081537" lon="-122.821186">
<name>Hungry Otters</name>
<cmt>food</cmt>
<desc>Fast Food / Chain</desc>
<sym>Dot</sym>
<type>food</type>
</wpt>
<wpt lat="49.148798" lon="-122.846258">
<name>Best Western King George Inn &amp; Suites</name>
<cmt>lodging</cmt>
<desc>Hotel / Motel</desc>
<sym>Dot</sym>
<type>shelter</type>
</wpt>
<wpt lat="49.162407" lon="-122.846355">
<name>Subway</name>
<cmt>food</cmt>
<desc>Fast Food / Chain</desc>
<sym>Dot</sym>
<type>food</type>
</wpt>
<wpt lat="49.134346" lon="-122.844971">
<name>Kelly's Pub</name>
<cmt>bar</cmt>
<desc>Brewery / Pub</desc>
<sym>Dot</sym>
<type>food</type>
</wpt>
<wpt lat="49.132502" lon="-122.846175">
<name>Rocky Cycle</name>
<cmt>bike_shop</cmt>
<desc>Repair Shop</desc>
<sym>Dot</sym>
<type>gear</type>
</wpt>
<wpt lat="49.132821" lon="-122.846194">
<name>7-Eleven</name>
<cmt>convenience_store</cmt>
<desc>Convenience Store</desc>
<sym>Dot</sym>
<type>store</type>
</wpt>
<wpt lat="49.121212" lon="-122.844950">
<name>Canadian Inn</name>
<cmt>lodging</cmt>
<desc>Hotel / Motel</desc>
<sym>Dot</sym>
<type>shelter</type>
</wpt>
<wpt lat="49.138246" lon="-122.845064">
<name>Burger King</name>
<cmt>food</cmt>
<desc>Fast Food / Chain</desc>
<sym>Dot</sym>
<type>food</type>
</wpt>
<wpt lat="49.178899" lon="-122.845024">
<name>Browns Social House</name>
<cmt>food</cmt>
<desc>Restaurant</desc>
<sym>Dot</sym>
<type>food</type>
</wpt>
<wpt lat="49.043810" lon="-122.792160">
<name>A&amp;W</name>
<cmt>food</cmt>
<desc>Fast Food / Chain</desc>
<sym>Dot</sym>
<type>food</type>
</wpt>
<wpt lat="49.176671" lon="-122.846412">
<name>Tim Hortons</name>
<cmt>food</cmt>
<desc>Fast Food / Chain</desc>
<sym>Dot</sym>
<type>food</type>
</wpt>
<wpt lat="49.042895" lon="-122.791050">
<name>Subway</name>
<cmt>food</cmt>
<desc>Fast Food / Chain</desc>
<sym>Dot</sym>
<type>food</type>
</wpt>
<wpt lat="49.121701" lon="-122.844957">
<name>Motel 6</name>
<cmt>lodging</cmt>
<desc>Hotel / Motel</desc>
<sym>Dot</sym>
<type>shelter</type>
</wpt>
<wpt lat="49.033727" lon="-122.779571">
<name>Circle K</name>
<cmt>convenience_store</cmt>
<desc>Convenience Store</desc>
<sym>Dot</sym>
<type>store</type>
</wpt>
<wpt lat="49.178800" lon="-122.844962">
<name>Mucho Burrito</name>
<cmt>food</cmt>
<desc>Fast Food / Chain</desc>
<sym>Dot</sym>
<type>food</type>
</wpt>
<wpt lat="49.044938" lon="-122.791925">
<name>KW Gardens Restaurant</name>
<cmt>food</cmt>
<desc>Restaurant</desc>
<sym>Dot</sym>
<type>food</type>
</wpt>
<wpt lat="49.118242" lon="-122.846192">
<name>McDonald's</name>
<cmt>food</cmt>
<desc>Fast Food / Chain</desc>
<sym>Dot</sym>
<type>food</type>
</wpt>
<wpt lat="49.138111" lon="-122.844955">
<name>Boston Pizza</name>
<cmt>food</cmt>
<desc>Fast Food / Chain</desc>
<sym>Dot</sym>
<type>food</type>
</wpt>
<wpt lat="49.049999" lon="-122.799971">
<name>All Of Oils, Wholesome Oils &amp; Vinegars</name>
<cmt>convenience_store</cmt>
<desc>Grocery Store</desc>
<sym>Dot</sym>
<type>store</type>
</wpt>
<wpt lat="49.128118" lon="-122.844970">
<name>Mecca Halal Meats &amp; Grocery</name>
<cmt>convenience_store</cmt>
<desc>Convenience Store</desc>
<sym>Dot</sym>
<type>store</type>
</wpt>
<wpt lat="49.128082" lon="-122.844967">
<name>Ambar Surrey Dhaba</name>
<cmt>food</cmt>
<desc>Restaurant</desc>
<sym>Dot</sym>
<type>food</type>
</wpt>
<wpt lat="49.180757" lon="-122.844544">
<name>Ruex Café &amp; Bar</name>
<cmt>food</cmt>
<desc>Restaurant</desc>
<sym>Dot</sym>
<type>food</type>
</wpt>
<wpt lat="49.055801" lon="-122.805285">
<name>Eggcetra Breakfast Cafe</name>
<cmt>food</cmt>
<desc>Restaurant</desc>
<sym>Dot</sym>
<type>food</type>
</wpt>
<wpt lat="49.045101" lon="-122.792040">
<name>Tim Hortons</name>
<cmt>food</cmt>
<desc>Fast Food / Chain</desc>
<sym>Dot</sym>
<type>food</type>
</wpt>
<wpt lat="49.041529" lon="-122.787699">
<name>Ricky's</name>
<cmt>food</cmt>
<desc>Restaurant</desc>
<sym>Dot</sym>
<type>food</type>
</wpt>
<wpt lat="49.077045" lon="-122.822763">
<name>BCB Honey Farm</name>
<cmt>convenience_store</cmt>
<desc>Farmers' Market</desc>
<sym>Dot</sym>
<type>store</type>
</wpt>
<wpt lat="49.061396" lon="-122.812196">
<name>Subway</name>
<cmt>food</cmt>
<desc>Fast Food / Chain</desc>
<sym>Dot</sym>
<type>food</type>
</wpt>
<wpt lat="49.025601" lon="-122.767918">
<name>Border RV Park</name>
<cmt>camping</cmt>
<desc>Private Campground</desc>
<sym>Dot</sym>
<type>campsite</type>
</wpt>
<wpt lat="49.057387" lon="-122.809213">
<name>Royal Taj Cusine</name>
<cmt>food</cmt>
<desc>Restaurant</desc>
<sym>Dot</sym>
<type>food</type>
</wpt>
<wpt lat="49.056614" lon="-122.808252">
<name>Rosie's Country Cafe</name>
<cmt>coffee</cmt>
<desc>Café / Coffee</desc>
<sym>Dot</sym>
<type>food</type>
</wpt>
<wpt lat="49.050460" lon="-122.800686">
<name>Maguroguy Sushi &amp; Grill</name>
<cmt>food</cmt>
<desc>Restaurant</desc>
<sym>Dot</sym>
<type>food</type>
</wpt>
<wpt lat="49.048996" lon="-122.796713">
<name>Newton Pizza</name>
<cmt>food</cmt>
<desc>Fast Food / Chain</desc>
<sym>Dot</sym>
<type>food</type>
</wpt>
<wpt lat="49.093315" lon="-122.818887">
<name>Surrey Farms</name>
<cmt>convenience_store</cmt>
<desc>Farmers' Market</desc>
<sym>Dot</sym>
<type>store</type>
</wpt>
<wpt lat="49.133884" lon="-122.844542">
<name>Select Pizza</name>
<cmt>food</cmt>
<desc>Fast Food / Chain</desc>
<sym>Dot</sym>
<type>food</type>
</wpt>
<wpt lat="49.027939" lon="-122.772763">
<name>The Turkey House &amp; Deli</name>
<cmt>convenience_store</cmt>
<desc>Specialty / Health Food</desc>
<sym>Dot</sym>
<type>store</type>
</wpt>
<wpt lat="49.061561" lon="-122.812182">
<name>Rasoi Fine Indian Cuisine</name>
<cmt>food</cmt>
<desc>Restaurant</desc>
<sym>Dot</sym>
<type>food</type>
</wpt>
<wpt lat="49.058885" lon="-122.808842">
<name>McDonald's</name>
<cmt>food</cmt>
<desc>Fast Food / Chain</desc>
<sym>Dot</sym>
<type>food</type>
</wpt>
<wpt lat="49.043267" lon="-122.791920">
<name>Best Western</name>
<cmt>lodging</cmt>
<desc>Hotel / Motel</desc>
<sym>Dot</sym>
<type>shelter</type>
</wpt>
<wpt lat="49.046734" lon="-122.793750">
<name>The Carvery Sandwich Shop</name>
<cmt>food</cmt>
<desc>Fast Food / Chain</desc>
<sym>Dot</sym>
<type>food</type>
</wpt>
<wpt lat="49.138444" lon="-122.846619">
<name>Costco Food Court</name>
<cmt>food</cmt>
<desc>Fast Food / Chain</desc>
<sym>Dot</sym>
<type>food</type>
</wpt>
<wpt lat="49.050294" lon="-122.800700">
<name>Blenz Coffee</name>
<cmt>coffee</cmt>
<desc>Café / Coffee</desc>
<sym>Dot</sym>
<type>food</type>
</wpt>
<wpt lat="49.136546" lon="-122.844627">
<name>Veneto's Cakes &amp; Pastries</name>
<cmt>food</cmt>
<desc>Bakery / Donuts</desc>
<sym>Dot</sym>
<type>food</type>
</wpt>
<wpt lat="49.115814" lon="-122.845772">
<name>Panorama Pizza and Curry</name>
<cmt>food</cmt>
<desc>Fast Food / Chain</desc>
<sym>Dot</sym>
<type>food</type>
</wpt>
<wpt lat="49.045332" lon="-122.794623">
<name>Domino's</name>
<cmt>food</cmt>
<desc>Fast Food / Chain</desc>
<sym>Dot</sym>
<type>food</type>
</wpt>
<wpt lat="49.046707" lon="-122.796398">
<name>Safeway</name>
<cmt>convenience_store</cmt>
<desc>Grocery Store</desc>
<sym>Dot</sym>
<type>store</type>
</wpt>
<wpt lat="49.045055" lon="-122.794365">
<name>Red Rose Restaurant</name>
<cmt>food</cmt>
<desc>Restaurant</desc>
<sym>Dot</sym>
<type>food</type>
</wpt>
<wpt lat="49.133835" lon="-122.846931">
<name>McDonald's</name>
<cmt>food</cmt>
<desc>Fast Food / Chain</desc>
<sym>Dot</sym>
<type>food</type>
</wpt>
<wpt lat="49.136956" lon="-122.844347">
<name>Starbucks</name>
<cmt>food</cmt>
<desc>Fast Food / Chain</desc>
<sym>Dot</sym>
<type>food</type>
</wpt>
<wpt lat="49.045327" lon="-122.794754">
<name>The Bike Zone</name>
<cmt>bike_shop</cmt>
<desc>Repair Shop</desc>
<sym>Dot</sym>
<type>gear</type>
</wpt>
<wpt lat="49.059228" lon="-122.812001">
<name>Natalinos Pizza</name>
<cmt>food</cmt>
<desc>Fast Food / Chain</desc>
<sym>Dot</sym>
<type>food</type>
</wpt>
<wpt lat="49.046810" lon="-122.796634">
<name>Starbucks</name>
<cmt>food</cmt>
<desc>Fast Food / Chain</desc>
<sym>Dot</sym>
<type>food</type>
</wpt>
<wpt lat="49.133888" lon="-122.844220">
<name>Kyoto Sushi</name>
<cmt>food</cmt>
<desc>Restaurant</desc>
<sym>Dot</sym>
<type>food</type>
</wpt>
<wpt lat="49.044893" lon="-122.794310">
<name>Docksteader Source For Sports</name>
<cmt>convenience_store</cmt>
<desc>Outdoor Gear</desc>
<sym>Dot</sym>
<type>store</type>
</wpt>
<wpt lat="49.127750" lon="-122.844413">
<name>Greco's Specialty Foods Market</name>
<cmt>convenience_store</cmt>
<desc>Grocery Store</desc>
<sym>Dot</sym>
<type>store</type>
</wpt>
<wpt lat="49.134369" lon="-122.844272">
<name>Freshsllice Pizza</name>
<cmt>food</cmt>
<desc>Restaurant</desc>
<sym>Dot</sym>
<type>food</type>
</wpt>
<wpt lat="49.133892" lon="-122.844124">
<name>Diya Restaurant &amp; Sweets</name>
<cmt>food</cmt>
<desc>Restaurant</desc>
<sym>Dot</sym>
<type>food</type>
</wpt>
<wpt lat="49.128061" lon="-122.846856">
<name>Aggarwal Grocery Hub</name>
<cmt>convenience_store</cmt>
<desc>Grocery Store</desc>
<sym>Dot</sym>
<type>store</type>
</wpt>
<wpt lat="49.130956" lon="-122.846959">
<name>Organic Warehouse</name>
<cmt>convenience_store</cmt>
<desc>Grocery Store</desc>
<sym>Dot</sym>
<type>store</type>
</wpt>
<wpt lat="49.056083" lon="-122.804770">
<name>Kaffina Coffee</name>
<cmt>coffee</cmt>
<desc>Café / Coffee</desc>
<sym>Dot</sym>
<type>food</type>
</wpt>
<wpt lat="49.181222" lon="-122.844250">
<name>Save-On-Foods</name>
<cmt>convenience_store</cmt>
<desc>Grocery Store</desc>
<sym>Dot</sym>
<type>store</type>
</wpt>
<wpt lat="49.045083" lon="-122.791045">
<name>Bucky's West Coast Pizzeria</name>
<cmt>food</cmt>
<desc>Restaurant</desc>
<sym>Dot</sym>
<type>food</type>
</wpt>
<wpt lat="49.045843" lon="-122.795882">
<name>Bulk Barn</name>
<cmt>convenience_store</cmt>
<desc>Grocery Store</desc>
<sym>Dot</sym>
<type>store</type>
</wpt>
<wpt lat="49.047258" lon="-122.797658">
<name>Delhi delite indian cuisine &amp; sweets</name>
<cmt>food</cmt>
<desc>Restaurant</desc>
<sym>Dot</sym>
<type>food</type>
</wpt>
<wpt lat="49.133308" lon="-122.847286">
<name>Newton Cultural Centre</name>
<cmt>monument</cmt>
<desc>Museum / Gallery</desc>
<sym>Dot</sym>
<type>info</type>
</wpt>
<wpt lat="49.134373" lon="-122.843940">
<name>The Greek Corner</name>
<cmt>food</cmt>
<desc>Restaurant</desc>
<sym>Dot</sym>
<type>food</type>
</wpt>
<wpt lat="49.120798" lon="-122.843895">
<name>Linda Vista Motel</name>
<cmt>lodging</cmt>
<desc>Hotel / Motel</desc>
<sym>Dot</sym>
<type>shelter</type>
</wpt>
<wpt lat="49.061392" lon="-122.811064">
<name>Choices Market</name>
<cmt>convenience_store</cmt>
<desc>Grocery Store</desc>
<sym>Dot</sym>
<type>store</type>
</wpt>
<wpt lat="49.181585" lon="-122.845071">
<name>Jollibee</name>
<cmt>food</cmt>
<desc>Fast Food / Chain</desc>
<sym>Dot</sym>
<type>food</type>
</wpt>
<wpt lat="49.137517" lon="-122.843813">
<name>BC Liquor Store</name>
<cmt>convenience_store</cmt>
<desc>Liquor Store</desc>
<sym>Dot</sym>
<type>store</type>
</wpt>
<wpt lat="49.140677" lon="-122.847332">
<name>Canadian Tire</name>
<cmt>convenience_store</cmt>
<desc>General merchandise</desc>
<sym>Dot</sym>
<type>store</type>
</wpt>
<wpt lat="49.181191" lon="-122.843764">
<name>Waffle House Diner</name>
<cmt>food</cmt>
<desc>Restaurant</desc>
<sym>Dot</sym>
<type>food</type>
</wpt>
<wpt lat="49.053238" lon="-122.800774">
<name>Taste Of Super Kings</name>
<cmt>food</cmt>
<desc>Restaurant</desc>
<sym>Dot</sym>
<type>food</type>
</wpt>
<wpt lat="49.076538" lon="-122.820249">
<name>Peace Arch RV Park</name>
<cmt>camping</cmt>
<desc>Private Campground</desc>
<sym>Dot</sym>
<type>campsite</type>
</wpt>
<wpt lat="49.056287" lon="-122.804429">
<name>Chatime</name>
<cmt>coffee</cmt>
<desc>Café / Coffee</desc>
<sym>Dot</sym>
<type>food</type>
</wpt>
<wpt lat="49.053333" lon="-122.800762">
<name>Hanaya Japanese Restaurant</name>
<cmt>food</cmt>
<desc>Restaurant</desc>
<sym>Dot</sym>
<type>food</type>
</wpt>
<wpt lat="49.134979" lon="-122.843536">
<name>Save-On-Foods</name>
<cmt>convenience_store</cmt>
<desc>Grocery Store</desc>
<sym>Dot</sym>
<type>store</type>
</wpt>
<wpt lat="49.056347" lon="-122.804358">
<name>Damiko Sushi</name>
<cmt>food</cmt>
<desc>Restaurant</desc>
<sym>Dot</sym>
<type>food</type>
</wpt>
<wpt lat="49.140356" lon="-122.843678">
<name>Real Canadian Superstore</name>
<cmt>convenience_store</cmt>
<desc>Grocery Store</desc>
<sym>Dot</sym>
<type>store</type>
</wpt>
<wpt lat="49.181536" lon="-122.843929">
<name>Starbucks</name>
<cmt>food</cmt>
<desc>Fast Food / Chain</desc>
<sym>Dot</sym>
<type>food</type>
</wpt>
<wpt lat="49.181555" lon="-122.843844">
<name>Panago</name>
<cmt>food</cmt>
<desc>Fast Food / Chain</desc>
<sym>Dot</sym>
<type>food</type>
</wpt>
<wpt lat="49.181523" lon="-122.843715">
<name>Subway</name>
<cmt>food</cmt>
<desc>Fast Food / Chain</desc>
<sym>Dot</sym>
<type>food</type>
</wpt>
<wpt lat="49.181440" lon="-122.843513">
<name>Presotea</name>
<cmt>coffee</cmt>
<desc>Café / Coffee</desc>
<sym>Dot</sym>
<type>food</type>
</wpt>
<wpt lat="49.181497" lon="-122.843571">
<name>Sushi Street</name>
<cmt>food</cmt>
<desc>Restaurant</desc>
<sym>Dot</sym>
<type>food</type>
</wpt>
<wpt lat="49.182038" lon="-122.845924">
<name>Combine Cafe &amp; Bar</name>
<cmt>food</cmt>
<desc>Restaurant</desc>
<sym>Dot</sym>
<type>food</type>
</wpt>
<wpt lat="49.138627" lon="-122.848056">
<name>Costco</name>
<cmt>convenience_store</cmt>
<desc>Grocery Store</desc>
<sym>Dot</sym>
<type>store</type>
</wpt>
<wpt lat="49.136591" lon="-122.843180">
<name>Sushi Line</name>
<cmt>food</cmt>
<desc>Restaurant</desc>
<sym>Dot</sym>
<type>food</type>
</wpt>
<wpt lat="49.135356" lon="-122.843062">
<name>Panago</name>
<cmt>food</cmt>
<desc>Fast Food / Chain</desc>
<sym>Dot</sym>
<type>food</type>
</wpt>
<wpt lat="49.134786" lon="-122.843034">
<name>Namdhari's Restaurant</name>
<cmt>food</cmt>
<desc>Restaurant</desc>
<sym>Dot</sym>
<type>food</type>
</wpt>
<wpt lat="49.134708" lon="-122.843025">
<name>Fab Burgers Inc.</name>
<cmt>food</cmt>
<desc>Restaurant</desc>
<sym>Dot</sym>
<type>food</type>
</wpt>
<wpt lat="49.181810" lon="-122.843717">
<name>KINTON RAMEN</name>
<cmt>food</cmt>
<desc>Restaurant</desc>
<sym>Dot</sym>
<type>food</type>
</wpt>
<wpt lat="49.139141" lon="-122.843154">
<name>Pho Newton</name>
<cmt>food</cmt>
<desc>Fast Food / Chain</desc>
<sym>Dot</sym>
<type>food</type>
</wpt>
<wpt lat="49.045992" lon="-122.797328">
<name>CoCo Fresh Tea &amp; Juice</name>
<cmt>coffee</cmt>
<desc>Café / Coffee</desc>
<sym>Dot</sym>
<type>food</type>
</wpt>
<wpt lat="49.045997" lon="-122.797460">
<name>Quesada</name>
<cmt>food</cmt>
<desc>Fast Food / Chain</desc>
<sym>Dot</sym>
<type>food</type>
</wpt>
<wpt lat="49.045818" lon="-122.797258">
<name>Sushi Mori Japanese Restaurant</name>
<cmt>food</cmt>
<desc>Restaurant</desc>
<sym>Dot</sym>
<type>food</type>
</wpt>
<wpt lat="49.047060" lon="-122.798820">
<name>BC Liquor Store</name>
<cmt>convenience_store</cmt>
<desc>Liquor Store</desc>
<sym>Dot</sym>
<type>store</type>
</wpt>
<wpt lat="49.181925" lon="-122.843686">
<name>Rice and Noodle</name>
<cmt>food</cmt>
<desc>Restaurant</desc>
<sym>Dot</sym>
<type>food</type>
</wpt>
<wpt lat="49.133772" lon="-122.842602">
<name>Swift Convenience Store &amp; Smoke</name>
<cmt>convenience_store</cmt>
<desc>Convenience Store</desc>
<sym>Dot</sym>
<type>store</type>
</wpt>
<wpt lat="49.133872" lon="-122.842603">
<name>Tasty Donair</name>
<cmt>food</cmt>
<desc>Fast Food / Chain</desc>
<sym>Dot</sym>
<type>food</type>
</wpt>
<wpt lat="49.182145" lon="-122.843993">
<name>Tim Hortons</name>
<cmt>food</cmt>
<desc>Fast Food / Chain</desc>
<sym>Dot</sym>
<type>food</type>
</wpt>
<wpt lat="49.133131" lon="-122.842616">
<name>Newton Wave Pool</name>
<cmt>rest_stop</cmt>
<desc>Community Centre</desc>
<sym>Dot</sym>
<type>rest_area</type>
</wpt>
<wpt lat="49.046654" lon="-122.798562">
<name>Phở Sunrise</name>
<cmt>food</cmt>
<desc>Restaurant</desc>
<sym>Dot</sym>
<type>food</type>
</wpt>
<wpt lat="49.182071" lon="-122.843605">
<name>Pho 68</name>
<cmt>food</cmt>
<desc>Restaurant</desc>
<sym>Dot</sym>
<type>food</type>
</wpt>
<wpt lat="49.182291" lon="-122.844360">
<name>A&amp;W</name>
<cmt>food</cmt>
<desc>Fast Food / Chain</desc>
<sym>Dot</sym>
<type>food</type>
</wpt>
<wpt lat="49.134550" lon="-122.842576">
<name>Tomato's</name>
<cmt>food</cmt>
<desc>Restaurant</desc>
<sym>Dot</sym>
<type>food</type>
</wpt>
<wpt lat="49.138804" lon="-122.842669">
<name>Mary Brown's</name>
<cmt>food</cmt>
<desc>Fast Food / Chain</desc>
<sym>Dot</sym>
<type>food</type>
</wpt>
<wpt lat="49.138737" lon="-122.842664">
<name>Haveli Indian Bistro</name>
<cmt>food</cmt>
<desc>Restaurant</desc>
<sym>Dot</sym>
<type>food</type>
</wpt>
<wpt lat="49.057820" lon="-122.804870">
<name>Canadian Tire</name>
<cmt>convenience_store</cmt>
<desc>General merchandise</desc>
<sym>Dot</sym>
<type>store</type>
</wpt>
<wpt lat="49.136535" lon="-122.842577">
<name>The Jin Sushi</name>
<cmt>food</cmt>
<desc>Restaurant</desc>
<sym>Dot</sym>
<type>food</type>
</wpt>
<wpt lat="49.133753" lon="-122.848888">
<name>Old Surrey Restaurant</name>
<cmt>food</cmt>
<desc>Restaurant</desc>
<sym>Dot</sym>
<type>food</type>
</wpt>
<wpt lat="49.135883" lon="-122.842536">
<name>Espresso Café</name>
<cmt>coffee</cmt>
<desc>Café / Coffee</desc>
<sym>Dot</sym>
<type>food</type>
</wpt>
<wpt lat="49.136014" lon="-122.842536">
<name>Scott Hill Pizza</name>
<cmt>food</cmt>
<desc>Fast Food / Chain</desc>
<sym>Dot</sym>
<type>food</type>
</wpt>
<wpt lat="49.177217" lon="-122.842562">
<name>Quesada</name>
<cmt>food</cmt>
<desc>Fast Food / Chain</desc>
<sym>Dot</sym>
<type>food</type>
</wpt>
<wpt lat="49.050200" lon="-122.795219">
<name>Sunnyside Outdoor Pool</name>
<cmt>rest_stop</cmt>
<desc>Community Centre</desc>
<sym>Dot</sym>
<type>rest_area</type>
</wpt>
<wpt lat="49.178142" lon="-122.842416">
<name>Captain's Oven Pizza</name>
<cmt>food</cmt>
<desc>Restaurant</desc>
<sym>Dot</sym>
<type>food</type>
</wpt>
<wpt lat="49.162420" lon="-122.842528">
<name>Surrey Art Gallery</name>
<cmt>monument</cmt>
<desc>Museum / Gallery</desc>
<sym>Dot</sym>
<type>info</type>
</wpt>
<wpt lat="49.162638" lon="-122.842521">
<name>Surrey Arts Centre</name>
<cmt>monument</cmt>
<desc>Museum / Gallery</desc>
<sym>Dot</sym>
<type>info</type>
</wpt>
<wpt lat="49.177425" lon="-122.842381">
<name>Starbucks</name>
<cmt>food</cmt>
<desc>Fast Food / Chain</desc>
<sym>Dot</sym>
<type>food</type>
</wpt>
<wpt lat="49.177555" lon="-122.842370">
<name>Subway</name>
<cmt>food</cmt>
<desc>Fast Food / Chain</desc>
<sym>Dot</sym>
<type>food</type>
</wpt>
<wpt lat="49.046094" lon="-122.798505">
<name>Booster Juice</name>
<cmt>food</cmt>
<desc>Fast Food / Chain</desc>
<sym>Dot</sym>
<type>food</type>
</wpt>
<wpt lat="49.134115" lon="-122.841952">
<name>Lucky Horse Restaurant</name>
<cmt>food</cmt>
<desc>Restaurant</desc>
<sym>Dot</sym>
<type>food</type>
</wpt>
<wpt lat="49.182826" lon="-122.845007">
<name>Freshslice Pizza</name>
<cmt>food</cmt>
<desc>Fast Food / Chain</desc>
<sym>Dot</sym>
<type>food</type>
</wpt>
<wpt lat="49.133217" lon="-122.849362">
<name>Robinhood Liquor Store</name>
<cmt>convenience_store</cmt>
<desc>Liquor Store</desc>
<sym>Dot</sym>
<type>store</type>
</wpt>
<wpt lat="49.173869" lon="-122.849553">
<name>Queen Elizabeth Meadows Community Garden</name>
<cmt>park</cmt>
<desc>Park / Nature</desc>
<sym>Dot</sym>
<type>rest_area</type>
</wpt>
<wpt lat="49.182952" lon="-122.844378">
<name>Jerusalem Grill Shawarma Express</name>
<cmt>food</cmt>
<desc>Fast Food / Chain</desc>
<sym>Dot</sym>
<type>food</type>
</wpt>
<wpt lat="49.182987" lon="-122.844452">
<name>Chaiiwala of London - King George Hub</name>
<cmt>coffee</cmt>
<desc>Café / Coffee</desc>
<sym>Dot</sym>
<type>food</type>
</wpt>
<wpt lat="49.056779" lon="-122.802383">
<name>Save-On-Foods</name>
<cmt>convenience_store</cmt>
<desc>Grocery Store</desc>
<sym>Dot</sym>
<type>store</type>
</wpt>
<wpt lat="49.055569" lon="-122.800740">
<name>Chopstick Corner</name>
<cmt>food</cmt>
<desc>Restaurant</desc>
<sym>Dot</sym>
<type>food</type>
</wpt>
<wpt lat="49.133779" lon="-122.841190">
<name>Subway</name>
<cmt>food</cmt>
<desc>Fast Food / Chain</desc>
<sym>Dot</sym>
<type>food</type>
</wpt>
<wpt lat="49.055744" lon="-122.800677">
<name>Panago</name>
<cmt>food</cmt>
<desc>Fast Food / Chain</desc>
<sym>Dot</sym>
<type>food</type>
</wpt>
<wpt lat="49.133950" lon="-122.841140">
<name>New Parmar Sweets &amp; Catering</name>
<cmt>food</cmt>
<desc>Restaurant</desc>
<sym>Dot</sym>
<type>food</type>
</wpt>
<wpt lat="49.055990" lon="-122.800673">
<name>Fruticana</name>
<cmt>convenience_store</cmt>
<desc>Grocery Store</desc>
<sym>Dot</sym>
<type>store</type>
</wpt>
<wpt lat="49.056158" lon="-122.800605">
<name>COBS Bread</name>
<cmt>food</cmt>
<desc>Bakery / Donuts</desc>
<sym>Dot</sym>
<type>food</type>
</wpt>
<wpt lat="49.133789" lon="-122.840663">
<name>Pizza Hut</name>
<cmt>food</cmt>
<desc>Fast Food / Chain</desc>
<sym>Dot</sym>
<type>food</type>
</wpt>
<wpt lat="49.057146" lon="-122.801753">
<name>Little Caesars</name>
<cmt>food</cmt>
<desc>Fast Food / Chain</desc>
<sym>Dot</sym>
<type>food</type>
</wpt>
<wpt lat="49.056274" lon="-122.800567">
<name>Subway</name>
<cmt>food</cmt>
<desc>Fast Food / Chain</desc>
<sym>Dot</sym>
<type>food</type>
</wpt>
<wpt lat="49.133976" lon="-122.840370">
<name>Sabzi Mandi Supermarket</name>
<cmt>convenience_store</cmt>
<desc>Grocery Store</desc>
<sym>Dot</sym>
<type>store</type>
</wpt>
<wpt lat="49.056783" lon="-122.800745">
<name>Nando's</name>
<cmt>food</cmt>
<desc>Restaurant</desc>
<sym>Dot</sym>
<type>food</type>
</wpt>
<wpt lat="49.057951" lon="-122.802004">
<name>Starbucks</name>
<cmt>food</cmt>
<desc>Fast Food / Chain</desc>
<sym>Dot</sym>
<type>food</type>
</wpt>
<wpt lat="49.058254" lon="-122.802288">
<name>Tim Hortons</name>
<cmt>food</cmt>
<desc>Fast Food / Chain</desc>
<sym>Dot</sym>
<type>food</type>
</wpt>
<wpt lat="49.130370" lon="-122.840141">
<name>Newton Library Branch</name>
<cmt>library</cmt>
<desc>Library</desc>
<sym>Dot</sym>
<type>info</type>
</wpt>
<wpt lat="49.059947" lon="-122.804238">
<name>Banana Leaf Surrey</name>
<cmt>food</cmt>
<desc>Restaurant</desc>
<sym>Dot</sym>
<type>food</type>
</wpt>
<wpt lat="49.046298" lon="-122.801688">
<name>IHOP</name>
<cmt>food</cmt>
<desc>Restaurant</desc>
<sym>Dot</sym>
<type>food</type>
</wpt>
<wpt lat="49.133008" lon="-122.839807">
<name>Chalo FreshCo</name>
<cmt>convenience_store</cmt>
<desc>Grocery Store</desc>
<sym>Dot</sym>
<type>store</type>
</wpt>
<wpt lat="49.060438" lon="-122.804659">
<name>Cactus Club Cafe</name>
<cmt>food</cmt>
<desc>Restaurant</desc>
<sym>Dot</sym>
<type>food</type>
</wpt>
<wpt lat="49.057304" lon="-122.800733">
<name>Showshaa - The Modern Taproom</name>
<cmt>food</cmt>
<desc>Restaurant</desc>
<sym>Dot</sym>
<type>food</type>
</wpt>
<wpt lat="49.058961" lon="-122.802792">
<name>Milestones</name>
<cmt>food</cmt>
<desc>Restaurant</desc>
<sym>Dot</sym>
<type>food</type>
</wpt>
<wpt lat="49.134365" lon="-122.839723">
<name>Fruiticana</name>
<cmt>convenience_store</cmt>
<desc>Grocery Store</desc>
<sym>Dot</sym>
<type>store</type>
</wpt>
<wpt lat="49.057291" lon="-122.800477">
<name>Southpoint Liquor Store</name>
<cmt>convenience_store</cmt>
<desc>Liquor Store</desc>
<sym>Dot</sym>
<type>store</type>
</wpt>
<wpt lat="49.045085" lon="-122.800726">
<name>Pizza Pizza</name>
<cmt>food</cmt>
<desc>Fast Food / Chain</desc>
<sym>Dot</sym>
<type>food</type>
</wpt>
<wpt lat="49.134389" lon="-122.839424">
<name>Canadian 2 for 1 Pizza</name>
<cmt>food</cmt>
<desc>Fast Food / Chain</desc>
<sym>Dot</sym>
<type>food</type>
</wpt>
<wpt lat="49.133766" lon="-122.839317">
<name>Chicken World</name>
<cmt>food</cmt>
<desc>Fast Food / Chain</desc>
<sym>Dot</sym>
<type>food</type>
</wpt>
<wpt lat="49.184563" lon="-122.844601">
<name>Newton Hotpot</name>
<cmt>food</cmt>
<desc>Restaurant</desc>
<sym>Dot</sym>
<type>food</type>
</wpt>
<wpt lat="49.184565" lon="-122.844393">
<name>King George Donair</name>
<cmt>food</cmt>
<desc>Fast Food / Chain</desc>
<sym>Dot</sym>
<type>food</type>
</wpt>
<wpt lat="49.133914" lon="-122.852093">
<name>Domino's</name>
<cmt>food</cmt>
<desc>Fast Food / Chain</desc>
<sym>Dot</sym>
<type>food</type>
</wpt>
<wpt lat="49.184572" lon="-122.843876">
<name>Krave Smoke Vape Shop &amp; Convenience</name>
<cmt>convenience_store</cmt>
<desc>Convenience Store</desc>
<sym>Dot</sym>
<type>store</type>
</wpt>
<wpt lat="49.184623" lon="-122.844217">
<name>Big Bazaar</name>
<cmt>convenience_store</cmt>
<desc>Grocery Store</desc>
<sym>Dot</sym>
<type>store</type>
</wpt>
<wpt lat="49.133942" lon="-122.839023">
<name>Planet India Restaurant</name>
<cmt>food</cmt>
<desc>Restaurant</desc>
<sym>Dot</sym>
<type>food</type>
</wpt>
<wpt lat="49.184568" lon="-122.843761">
<name>A-1Pizza</name>
<cmt>food</cmt>
<desc>Fast Food / Chain</desc>
<sym>Dot</sym>
<type>food</type>
</wpt>
<wpt lat="49.184587" lon="-122.843637">
<name>Ustaad G 76</name>
<cmt>food</cmt>
<desc>Restaurant</desc>
<sym>Dot</sym>
<type>food</type>
</wpt>
<wpt lat="49.132929" lon="-122.838993">
<name>Circle K</name>
<cmt>convenience_store</cmt>
<desc>Convenience Store</desc>
<sym>Dot</sym>
<type>store</type>
</wpt>
<trk><name>King George Boulevard Cycle Route</name>
<trkseg>
<trkpt lat="49.017217" lon="-122.762349"/>
<trkpt lat="49.019864" lon="-122.761976"/>
<trkpt lat="49.021381" lon="-122.763581"/>
<trkpt lat="49.021773" lon="-122.764056"/>
<trkpt lat="49.022115" lon="-122.764470"/>
<trkpt lat="49.022888" lon="-122.765409"/>
<trkpt lat="49.023431" lon="-122.766092"/>
<trkpt lat="49.024195" lon="-122.767061"/>
<trkpt lat="49.026774" lon="-122.770219"/>
<trkpt lat="49.027311" lon="-122.770888"/>
<trkpt lat="49.027378" lon="-122.770984"/>
</trkseg>
<trkseg>
<trkpt lat="49.027378" lon="-122.770984"/>
<trkpt lat="49.027517" lon="-122.771337"/>
</trkseg>
<trkseg>
<trkpt lat="49.027517" lon="-122.771337"/>
<trkpt lat="49.027695" lon="-122.771543"/>
</trkseg>
<trkseg>
<trkpt lat="49.027695" lon="-122.771543"/>
<trkpt lat="49.028353" lon="-122.772212"/>
</trkseg>
<trkseg>
<trkpt lat="49.028353" lon="-122.772212"/>
<trkpt lat="49.029159" lon="-122.773199"/>
<trkpt lat="49.029248" lon="-122.773313"/>
</trkseg>
<trkseg>
<trkpt lat="49.029248" lon="-122.773313"/>
<trkpt lat="49.030047" lon="-122.774394"/>
<trkpt lat="49.031067" lon="-122.775657"/>
<trkpt lat="49.031342" lon="-122.775996"/>
<trkpt lat="49.032019" lon="-122.776832"/>
<trkpt lat="49.032743" lon="-122.777631"/>
</trkseg>
<trkseg>
<trkpt lat="49.032743" lon="-122.777631"/>
<trkpt lat="49.032791" lon="-122.777691"/>
<trkpt lat="49.032809" lon="-122.777713"/>
<trkpt lat="49.032838" lon="-122.777749"/>
<trkpt lat="49.033403" lon="-122.778446"/>
<trkpt lat="49.033658" lon="-122.778761"/>
<trkpt lat="49.034014" lon="-122.779202"/>
<trkpt lat="49.034334" lon="-122.779598"/>
<trkpt lat="49.037695" lon="-122.783778"/>
<trkpt lat="49.038329" lon="-122.784575"/>
<trkpt lat="49.038899" lon="-122.785269"/>
<trkpt lat="49.041342" lon="-122.788305"/>
</trkseg>
<trkseg>
<trkpt lat="49.041342" lon="-122.788305"/>
<trkpt lat="49.041359" lon="-122.788322"/>
<trkpt lat="49.041448" lon="-122.788415"/>
<trkpt lat="49.042226" lon="-122.789320"/>
<trkpt lat="49.042826" lon="-122.790060"/>
<trkpt lat="49.043113" lon="-122.790416"/>
<trkpt lat="49.043703" lon="-122.791150"/>
<trkpt lat="49.043876" lon="-122.791354"/>
<trkpt lat="49.044834" lon="-122.792543"/>
<trkpt lat="49.045294" lon="-122.793121"/>
<trkpt lat="49.045552" lon="-122.793447"/>
<trkpt lat="49.045642" lon="-122.793553"/>
<trkpt lat="49.046511" lon="-122.794626"/>
<trkpt lat="49.046552" lon="-122.794677"/>
<trkpt lat="49.047033" lon="-122.795277"/>
<trkpt lat="49.047231" lon="-122.795523"/>
<trkpt lat="49.048521" lon="-122.797124"/>
<trkpt lat="49.049111" lon="-122.797853"/>
<trkpt lat="49.049895" lon="-122.798825"/>
<trkpt lat="49.049963" lon="-122.798915"/>
<trkpt lat="49.050988" lon="-122.800185"/>
<trkpt lat="49.051232" lon="-122.800487"/>
<trkpt lat="49.051796" lon="-122.801176"/>
<trkpt lat="49.051910" lon="-122.801319"/>
<trkpt lat="49.052253" lon="-122.801752"/>
<trkpt lat="49.053422" lon="-122.803184"/>
<trkpt lat="49.054048" lon="-122.803933"/>
<trkpt lat="49.055626" lon="-122.805903"/>
<trkpt lat="49.055668" lon="-122.805954"/>
<trkpt lat="49.056996" lon="-122.807604"/>
<trkpt lat="49.058040" lon="-122.808901"/>
<trkpt lat="49.058557" lon="-122.809531"/>
<trkpt lat="49.058827" lon="-122.809868"/>
<trkpt lat="49.058872" lon="-122.809926"/>
<trkpt lat="49.060650" lon="-122.812146"/>
<trkpt lat="49.061324" lon="-122.812979"/>
<trkpt lat="49.063384" lon="-122.815540"/>
<trkpt lat="49.063497" lon="-122.815678"/>
<trkpt lat="49.064156" lon="-122.816511"/>
<trkpt lat="49.064778" lon="-122.817284"/>
<trkpt lat="49.066074" lon="-122.818882"/>
<trkpt lat="49.066872" lon="-122.819850"/>
<trkpt lat="49.067490" lon="-122.820603"/>
<trkpt lat="49.068623" lon="-122.821955"/>
<trkpt lat="49.068684" lon="-122.822028"/>
</trkseg>
<trkseg>
<trkpt lat="49.068684" lon="-122.822028"/>
<trkpt lat="49.068885" lon="-122.822237"/>
<trkpt lat="49.069527" lon="-122.822885"/>
<trkpt lat="49.069679" lon="-122.823044"/>
</trkseg>
<trkseg>
<trkpt lat="49.069679" lon="-122.823044"/>
<trkpt lat="49.070250" lon="-122.823424"/>
<trkpt lat="49.070580" lon="-122.823532"/>
<trkpt lat="49.072133" lon="-122.823471"/>
<trkpt lat="49.072448" lon="-122.823379"/>
<trkpt lat="49.072724" lon="-122.823294"/>
<trkpt lat="49.073796" lon="-122.822952"/>
<trkpt lat="49.074604" lon="-122.822706"/>
<trkpt lat="49.075137" lon="-122.822471"/>
<trkpt lat="49.075371" lon="-122.822294"/>
<trkpt lat="49.075409" lon="-122.822397"/>
<trkpt lat="49.076204" lon="-122.822156"/>
<trkpt lat="49.076279" lon="-122.822135"/>
<trkpt lat="49.076518" lon="-122.822010"/>
<trkpt lat="49.076533" lon="-122.821953"/>
<trkpt lat="49.077154" lon="-122.821910"/>
<trkpt lat="49.077806" lon="-122.821719"/>
<trkpt lat="49.077906" lon="-122.821682"/>
<trkpt lat="49.078455" lon="-122.821517"/>
<trkpt lat="49.078954" lon="-122.821364"/>
<trkpt lat="49.080168" lon="-122.820986"/>
<trkpt lat="49.080748" lon="-122.820806"/>
<trkpt lat="49.081145" lon="-122.820682"/>
<trkpt lat="49.081959" lon="-122.820428"/>
<trkpt lat="49.084796" lon="-122.819454"/>
<trkpt lat="49.085189" lon="-122.819288"/>
<trkpt lat="49.086050" lon="-122.818891"/>
<trkpt lat="49.086433" lon="-122.818704"/>
<trkpt lat="49.086980" lon="-122.818456"/>
<trkpt lat="49.089625" lon="-122.817466"/>
<trkpt lat="49.091807" lon="-122.817532"/>
<trkpt lat="49.093875" lon="-122.817747"/>
</trkseg>
<trkseg>
<trkpt lat="49.093875" lon="-122.817747"/>
<trkpt lat="49.095379" lon="-122.817917"/>
<trkpt lat="49.098837" lon="-122.818530"/>
<trkpt lat="49.100614" lon="-122.820070"/>
<trkpt lat="49.101220" lon="-122.821117"/>
<trkpt lat="49.101299" lon="-122.821280"/>
<trkpt lat="49.101868" lon="-122.823073"/>
<trkpt lat="49.102150" lon="-122.824956"/>
<trkpt lat="49.102216" lon="-122.825590"/>
<trkpt lat="49.102310" lon="-122.826340"/>
<trkpt lat="49.103149" lon="-122.829094"/>
<trkpt lat="49.103650" lon="-122.829943"/>
<trkpt lat="49.104144" lon="-122.830625"/>
<trkpt lat="49.104526" lon="-122.831105"/>
<trkpt lat="49.105221" lon="-122.831947"/>
<trkpt lat="49.105794" lon="-122.832697"/>
<trkpt lat="49.107742" lon="-122.835157"/>
<trkpt lat="49.108391" lon="-122.835932"/>
<trkpt lat="49.111861" lon="-122.840197"/>
<trkpt lat="49.113803" lon="-122.842594"/>
<trkpt lat="49.114780" lon="-122.843732"/>
<trkpt lat="49.115448" lon="-122.844340"/>
<trkpt lat="49.116747" lon="-122.845089"/>
<trkpt lat="49.118232" lon="-122.845409"/>
<trkpt lat="49.118721" lon="-122.845405"/>
<trkpt lat="49.118996" lon="-122.845399"/>
<trkpt lat="49.119097" lon="-122.845404"/>
<trkpt lat="49.119743" lon="-122.845424"/>
<trkpt lat="49.120861" lon="-122.845433"/>
<trkpt lat="49.121242" lon="-122.845519"/>
</trkseg>
<trkseg>
<trkpt lat="49.121242" lon="-122.845519"/>
<trkpt lat="49.123041" lon="-122.845516"/>
</trkseg>
<trkseg>
<trkpt lat="49.123041" lon="-122.845516"/>
<trkpt lat="49.123426" lon="-122.845526"/>
</trkseg>
<trkseg>
<trkpt lat="49.123426" lon="-122.845526"/>
<trkpt lat="49.124985" lon="-122.845527"/>
</trkseg>
<trkseg>
<trkpt lat="49.124985" lon="-122.845527"/>
<trkpt lat="49.125733" lon="-122.845605"/>
<trkpt lat="49.126238" lon="-122.845610"/>
<trkpt lat="49.126580" lon="-122.845618"/>
<trkpt lat="49.127129" lon="-122.845642"/>
<trkpt lat="49.127550" lon="-122.845582"/>
</trkseg>
<trkseg>
<trkpt lat="49.127550" lon="-122.845582"/>
<trkpt lat="49.129352" lon="-122.845603"/>
</trkseg>
<trkseg>
<trkpt lat="49.129352" lon="-122.845603"/>
<trkpt lat="49.129814" lon="-122.845667"/>
<trkpt lat="49.129858" lon="-122.845777"/>
<trkpt lat="49.129941" lon="-122.845780"/>
<trkpt lat="49.129975" lon="-122.845858"/>
<trkpt lat="49.130017" lon="-122.845856"/>
<trkpt lat="49.130119" lon="-122.845856"/>
<trkpt lat="49.130178" lon="-122.845761"/>
<trkpt lat="49.130251" lon="-122.845761"/>
<trkpt lat="49.130317" lon="-122.845671"/>
<trkpt lat="49.130457" lon="-122.845673"/>
<trkpt lat="49.131231" lon="-122.845682"/>
<trkpt lat="49.132901" lon="-122.845712"/>
<trkpt lat="49.133241" lon="-122.845716"/>
<trkpt lat="49.133349" lon="-122.845804"/>
<trkpt lat="49.133419" lon="-122.845819"/>
<trkpt lat="49.133428" lon="-122.845802"/>
<trkpt lat="49.133635" lon="-122.845800"/>
<trkpt lat="49.133666" lon="-122.845833"/>
<trkpt lat="49.133697" lon="-122.845904"/>
<trkpt lat="49.134173" lon="-122.845826"/>
<trkpt lat="49.134327" lon="-122.845722"/>
<trkpt lat="49.134524" lon="-122.845695"/>
<trkpt lat="49.134825" lon="-122.845699"/>
<trkpt lat="49.134983" lon="-122.845785"/>
<trkpt lat="49.135049" lon="-122.845810"/>
<trkpt lat="49.135153" lon="-122.845810"/>
<trkpt lat="49.135210" lon="-122.845786"/>
<trkpt lat="49.135384" lon="-122.845705"/>
<trkpt lat="49.135769" lon="-122.845708"/>
<trkpt lat="49.136365" lon="-122.845713"/>
<trkpt lat="49.136529" lon="-122.845713"/>
<trkpt lat="49.137157" lon="-122.845720"/>
<trkpt lat="49.137216" lon="-122.845721"/>
<trkpt lat="49.138122" lon="-122.845725"/>
<trkpt lat="49.139145" lon="-122.845730"/>
<trkpt lat="49.139895" lon="-122.845719"/>
<trkpt lat="49.140419" lon="-122.845719"/>
<trkpt lat="49.140792" lon="-122.845719"/>
<trkpt lat="49.140879" lon="-122.845719"/>
<trkpt lat="49.141741" lon="-122.845734"/>
<trkpt lat="49.142128" lon="-122.845741"/>
<trkpt lat="49.142690" lon="-122.845746"/>
<trkpt lat="49.143506" lon="-122.845756"/>
<trkpt lat="49.144312" lon="-122.845775"/>
<trkpt lat="49.144502" lon="-122.845766"/>
<trkpt lat="49.144726" lon="-122.845771"/>
<trkpt lat="49.145055" lon="-122.845773"/>
<trkpt lat="49.145733" lon="-122.845777"/>
<trkpt lat="49.147975" lon="-122.845794"/>
<trkpt lat="49.148153" lon="-122.845794"/>
<trkpt lat="49.148368" lon="-122.845796"/>
<trkpt lat="49.148747" lon="-122.845798"/>
<trkpt lat="49.150039" lon="-122.845804"/>
<trkpt lat="49.150483" lon="-122.845803"/>
<trkpt lat="49.150892" lon="-122.845723"/>
</trkseg>
<trkseg>
<trkpt lat="49.150892" lon="-122.845723"/>
<trkpt lat="49.151103" lon="-122.845723"/>
</trkseg>
<trkseg>
<trkpt lat="49.151103" lon="-122.845723"/>
<trkpt lat="49.151187" lon="-122.845800"/>
<trkpt lat="49.155022" lon="-122.845831"/>
<trkpt lat="49.155098" lon="-122.845943"/>
<trkpt lat="49.155155" lon="-122.845969"/>
<trkpt lat="49.155163" lon="-122.845973"/>
<trkpt lat="49.155347" lon="-122.845954"/>
<trkpt lat="49.155387" lon="-122.845980"/>
<trkpt lat="49.155395" lon="-122.845980"/>
<trkpt lat="49.155455" lon="-122.845979"/>
<trkpt lat="49.155532" lon="-122.845978"/>
</trkseg>
<trkseg>
<trkpt lat="49.155540" lon="-122.845978"/>
<trkpt lat="49.156193" lon="-122.846055"/>
<trkpt lat="49.156229" lon="-122.845842"/>
<trkpt lat="49.160652" lon="-122.845873"/>
<trkpt lat="49.160979" lon="-122.845873"/>
<trkpt lat="49.161626" lon="-122.845878"/>
<trkpt lat="49.162496" lon="-122.845884"/>
<trkpt lat="49.162716" lon="-122.845885"/>
<trkpt lat="49.162817" lon="-122.845886"/>
<trkpt lat="49.163818" lon="-122.845894"/>
<trkpt lat="49.164431" lon="-122.845808"/>
</trkseg>
<trkseg>
<trkpt lat="49.164431" lon="-122.845808"/>
<trkpt lat="49.167387" lon="-122.845813"/>
<trkpt lat="49.167639" lon="-122.845817"/>
<trkpt lat="49.168220" lon="-122.845825"/>
<trkpt lat="49.168588" lon="-122.845830"/>
<trkpt lat="49.168733" lon="-122.845833"/>
</trkseg>
<trkseg>
<trkpt lat="49.168733" lon="-122.845833"/>
<trkpt lat="49.169449" lon="-122.845738"/>
<trkpt lat="49.169805" lon="-122.845739"/>
<trkpt lat="49.170054" lon="-122.845740"/>
<trkpt lat="49.170316" lon="-122.845744"/>
<trkpt lat="49.170751" lon="-122.845752"/>
<trkpt lat="49.170985" lon="-122.845755"/>
<trkpt lat="49.175260" lon="-122.845722"/>
<trkpt lat="49.175747" lon="-122.845705"/>
<trkpt lat="49.176103" lon="-122.845687"/>
<trkpt lat="49.176484" lon="-122.845668"/>
<trkpt lat="49.176780" lon="-122.845654"/>
<trkpt lat="49.176986" lon="-122.845640"/>
<trkpt lat="49.177085" lon="-122.845635"/>
<trkpt lat="49.177320" lon="-122.845624"/>
<trkpt lat="49.179764" lon="-122.845476"/>
<trkpt lat="49.180476" lon="-122.845427"/>
<trkpt lat="49.180567" lon="-122.845418"/>
</trkseg>
<trkseg>
<trkpt lat="49.180541" lon="-122.845686"/>
<trkpt lat="49.178087" lon="-122.845812"/>
<trkpt lat="49.177282" lon="-122.845851"/>
<trkpt lat="49.177087" lon="-122.845859"/>
<trkpt lat="49.176992" lon="-122.845865"/>
<trkpt lat="49.176778" lon="-122.845886"/>
<trkpt lat="49.176255" lon="-122.845888"/>
<trkpt lat="49.175213" lon="-122.845917"/>
<trkpt lat="49.174681" lon="-122.845928"/>
<trkpt lat="49.171027" lon="-122.845928"/>
<trkpt lat="49.170601" lon="-122.845922"/>
<trkpt lat="49.170323" lon="-122.845919"/>
<trkpt lat="49.170056" lon="-122.845917"/>
<trkpt lat="49.169213" lon="-122.845922"/>
<trkpt lat="49.168733" lon="-122.845833"/>
</trkseg>
<trkseg>
<trkpt lat="49.164431" lon="-122.845808"/>
<trkpt lat="49.164097" lon="-122.845748"/>
<trkpt lat="49.163087" lon="-122.845743"/>
<trkpt lat="49.162817" lon="-122.845742"/>
<trkpt lat="49.162717" lon="-122.845741"/>
<trkpt lat="49.162493" lon="-122.845739"/>
<trkpt lat="49.162168" lon="-122.845741"/>
<trkpt lat="49.161837" lon="-122.845738"/>
<trkpt lat="49.160979" lon="-122.845745"/>
<trkpt lat="49.160653" lon="-122.845744"/>
<trkpt lat="49.155948" lon="-122.845687"/>
<trkpt lat="49.155456" lon="-122.845676"/>
<trkpt lat="49.154849" lon="-122.845673"/>
<trkpt lat="49.154664" lon="-122.845672"/>
<trkpt lat="49.151103" lon="-122.845723"/>
</trkseg>
<trkseg>
<trkpt lat="49.150892" lon="-122.845723"/>
<trkpt lat="49.150026" lon="-122.845637"/>
<trkpt lat="49.149517" lon="-122.845633"/>
<trkpt lat="49.148153" lon="-122.845625"/>
<trkpt lat="49.147687" lon="-122.845620"/>
<trkpt lat="49.147447" lon="-122.845618"/>
<trkpt lat="49.147266" lon="-122.845617"/>
<trkpt lat="49.146236" lon="-122.845617"/>
<trkpt lat="49.145798" lon="-122.845609"/>
<trkpt lat="49.144548" lon="-122.845603"/>
<trkpt lat="49.144449" lon="-122.845602"/>
<trkpt lat="49.143957" lon="-122.845600"/>
<trkpt lat="49.143868" lon="-122.845599"/>
<trkpt lat="49.143572" lon="-122.845597"/>
<trkpt lat="49.142508" lon="-122.845595"/>
<trkpt lat="49.142173" lon="-122.845592"/>
<trkpt lat="49.141204" lon="-122.845586"/>
<trkpt lat="49.140878" lon="-122.845586"/>
<trkpt lat="49.140794" lon="-122.845585"/>
<trkpt lat="49.140561" lon="-122.845581"/>
<trkpt lat="49.140107" lon="-122.845578"/>
<trkpt lat="49.139707" lon="-122.845577"/>
<trkpt lat="49.139211" lon="-122.845573"/>
<trkpt lat="49.139109" lon="-122.845572"/>
<trkpt lat="49.138828" lon="-122.845568"/>
<trkpt lat="49.138532" lon="-122.845564"/>
<trkpt lat="49.137917" lon="-122.845563"/>
<trkpt lat="49.137446" lon="-122.845559"/>
<trkpt lat="49.137278" lon="-122.845378"/>
<trkpt lat="49.137246" lon="-122.845378"/>
<trkpt lat="49.137139" lon="-122.845376"/>
<trkpt lat="49.137111" lon="-122.845377"/>
<trkpt lat="49.136898" lon="-122.845546"/>
<trkpt lat="49.136705" lon="-122.845546"/>
<trkpt lat="49.136528" lon="-122.845544"/>
<trkpt lat="49.136103" lon="-122.845543"/>
<trkpt lat="49.135974" lon="-122.845540"/>
<trkpt lat="49.135384" lon="-122.845538"/>
<trkpt lat="49.135210" lon="-122.845437"/>
<trkpt lat="49.135114" lon="-122.845391"/>
<trkpt lat="49.135010" lon="-122.845388"/>
<trkpt lat="49.134980" lon="-122.845424"/>
<trkpt lat="49.134825" lon="-122.845530"/>
<trkpt lat="49.134680" lon="-122.845530"/>
<trkpt lat="49.134471" lon="-122.845536"/>
<trkpt lat="49.134305" lon="-122.845528"/>
<trkpt lat="49.134227" lon="-122.845425"/>
<trkpt lat="49.133705" lon="-122.845311"/>
<trkpt lat="49.133668" lon="-122.845380"/>
<trkpt lat="49.133630" lon="-122.845418"/>
<trkpt lat="49.133455" lon="-122.845416"/>
<trkpt lat="49.133419" lon="-122.845404"/>
<trkpt lat="49.133372" lon="-122.845344"/>
<trkpt lat="49.132689" lon="-122.845417"/>
<trkpt lat="49.132620" lon="-122.845517"/>
<trkpt lat="49.131082" lon="-122.845509"/>
<trkpt lat="49.130858" lon="-122.845503"/>
<trkpt lat="49.130564" lon="-122.845499"/>
<trkpt lat="49.130055" lon="-122.845495"/>
<trkpt lat="49.129626" lon="-122.845493"/>
<trkpt lat="49.129352" lon="-122.845603"/>
</trkseg>
<trkseg>
<trkpt lat="49.127550" lon="-122.845582"/>
<trkpt lat="49.126232" lon="-122.845464"/>
<trkpt lat="49.125991" lon="-122.845468"/>
<trkpt lat="49.125313" lon="-122.845468"/>
<trkpt lat="49.124985" lon="-122.845527"/>
</trkseg>
<trkseg>
<trkpt lat="49.123426" lon="-122.845526"/>
<trkpt lat="49.123041" lon="-122.845516"/>
</trkseg>
<trkseg>
<trkpt lat="49.121242" lon="-122.845519"/>
<trkpt lat="49.120651" lon="-122.845600"/>
<trkpt lat="49.119925" lon="-122.845606"/>
<trkpt lat="49.119324" lon="-122.845603"/>
<trkpt lat="49.119099" lon="-122.845599"/>
<trkpt lat="49.118993" lon="-122.845596"/>
<trkpt lat="49.117711" lon="-122.845538"/>
<trkpt lat="49.116137" lon="-122.844940"/>
<trkpt lat="49.115447" lon="-122.844492"/>
<trkpt lat="49.113750" lon="-122.842693"/>
<trkpt lat="49.112686" lon="-122.841390"/>
<trkpt lat="49.111860" lon="-122.840373"/>
<trkpt lat="49.106501" lon="-122.833944"/>
<trkpt lat="49.105733" lon="-122.833012"/>
<trkpt lat="49.105223" lon="-122.832396"/>
<trkpt lat="49.104526" lon="-122.831533"/>
<trkpt lat="49.104130" lon="-122.831003"/>
<trkpt lat="49.103682" lon="-122.830346"/>
<trkpt lat="49.103084" lon="-122.829236"/>
<trkpt lat="49.102445" lon="-122.827480"/>
<trkpt lat="49.101762" lon="-122.823040"/>
<trkpt lat="49.101231" lon="-122.821405"/>
<trkpt lat="49.100254" lon="-122.819760"/>
<trkpt lat="49.098810" lon="-122.818653"/>
<trkpt lat="49.095374" lon="-122.818072"/>
<trkpt lat="49.093320" lon="-122.817822"/>
</trkseg>
<trkseg>
<trkpt lat="49.093320" lon="-122.817822"/>
<trkpt lat="49.093628" lon="-122.818260"/>
</trkseg>
<trkseg>
<trkpt lat="49.093628" lon="-122.818260"/>
<trkpt lat="49.093780" lon="-122.818413"/>
<trkpt lat="49.097217" lon="-122.819015"/>
</trkseg>
<trkseg>
<trkpt lat="49.097280" lon="-122.817658"/>
<trkpt lat="49.093970" lon="-122.817259"/>
</trkseg>
<trkseg>
<trkpt lat="49.093970" lon="-122.817259"/>
<trkpt lat="49.093694" lon="-122.817394"/>
<trkpt lat="49.093875" lon="-122.817747"/>
</trkseg>
<trkseg>
<trkpt lat="49.093970" lon="-122.817259"/>
<trkpt lat="49.092761" lon="-122.817618"/>
</trkseg>
<trkseg>
<trkpt lat="49.093320" lon="-122.817822"/>
<trkpt lat="49.092896" lon="-122.817801"/>
<trkpt lat="49.092365" lon="-122.817737"/>
<trkpt lat="49.091029" lon="-122.817582"/>
<trkpt lat="49.090367" lon="-122.817566"/>
<trkpt lat="49.089874" lon="-122.817600"/>
<trkpt lat="49.087015" lon="-122.818571"/>
<trkpt lat="49.086466" lon="-122.818821"/>
<trkpt lat="49.082641" lon="-122.820387"/>
<trkpt lat="49.081961" lon="-122.820598"/>
<trkpt lat="49.078600" lon="-122.821625"/>
<trkpt lat="49.077938" lon="-122.821831"/>
<trkpt lat="49.077836" lon="-122.821865"/>
<trkpt lat="49.077770" lon="-122.821885"/>
<trkpt lat="49.076428" lon="-122.822245"/>
<trkpt lat="49.075895" lon="-122.822582"/>
<trkpt lat="49.075794" lon="-122.822456"/>
<trkpt lat="49.074687" lon="-122.822814"/>
<trkpt lat="49.073870" lon="-122.823064"/>
<trkpt lat="49.073348" lon="-122.823217"/>
<trkpt lat="49.072461" lon="-122.823476"/>
<trkpt lat="49.070591" lon="-122.823657"/>
<trkpt lat="49.069481" lon="-122.823000"/>
<trkpt lat="49.068838" lon="-122.822339"/>
<trkpt lat="49.068015" lon="-122.821447"/>
<trkpt lat="49.067423" lon="-122.820736"/>
<trkpt lat="49.066675" lon="-122.819795"/>
<trkpt lat="49.066025" lon="-122.818971"/>
<trkpt lat="49.065929" lon="-122.818852"/>
<trkpt lat="49.065387" lon="-122.818183"/>
<trkpt lat="49.064760" lon="-122.817410"/>
<trkpt lat="49.064705" lon="-122.817343"/>
<trkpt lat="49.063401" lon="-122.815707"/>
<trkpt lat="49.063259" lon="-122.815538"/>
<trkpt lat="49.062040" lon="-122.814070"/>
<trkpt lat="49.061289" lon="-122.813150"/>
<trkpt lat="49.061210" lon="-122.813049"/>
<trkpt lat="49.060222" lon="-122.811828"/>
<trkpt lat="49.059831" lon="-122.811346"/>
<trkpt lat="49.059045" lon="-122.810359"/>
<trkpt lat="49.058804" lon="-122.810055"/>
<trkpt lat="49.058761" lon="-122.810002"/>
<trkpt lat="49.056925" lon="-122.807728"/>
<trkpt lat="49.054684" lon="-122.804936"/>
<trkpt lat="49.053979" lon="-122.804062"/>
<trkpt lat="49.052422" lon="-122.802175"/>
<trkpt lat="49.051726" lon="-122.801317"/>
<trkpt lat="49.051614" lon="-122.801178"/>
<trkpt lat="49.051302" lon="-122.800788"/>
<trkpt lat="49.049557" lon="-122.798620"/>
<trkpt lat="49.049036" lon="-122.797982"/>
<trkpt lat="49.046469" lon="-122.794794"/>
<trkpt lat="49.045930" lon="-122.794104"/>
<trkpt lat="49.045643" lon="-122.793747"/>
<trkpt lat="49.045553" lon="-122.793638"/>
<trkpt lat="49.043935" lon="-122.791650"/>
<trkpt lat="49.043223" lon="-122.790769"/>
<trkpt lat="49.042718" lon="-122.790129"/>
<trkpt lat="49.042398" lon="-122.789750"/>
<trkpt lat="49.041992" lon="-122.789218"/>
<trkpt lat="49.041342" lon="-122.788305"/>
</trkseg>
<trkseg>
<trkpt lat="49.032743" lon="-122.777631"/>
<trkpt lat="49.032080" lon="-122.776728"/>
<trkpt lat="49.031396" lon="-122.775878"/>
<trkpt lat="49.031068" lon="-122.775469"/>
<trkpt lat="49.030799" lon="-122.775141"/>
<trkpt lat="49.030110" lon="-122.774287"/>
<trkpt lat="49.029248" lon="-122.773313"/>
</trkseg>
<trkseg>
<trkpt lat="49.028353" lon="-122.772212"/>
<trkpt lat="49.027855" lon="-122.771516"/>
<trkpt lat="49.027788" lon="-122.771322"/>
</trkseg>
<trkseg>
<trkpt lat="49.027788" lon="-122.771322"/>
<trkpt lat="49.027695" lon="-122.771543"/>
</trkseg>
<trkseg>
<trkpt lat="49.027788" lon="-122.771322"/>
<trkpt lat="49.027621" lon="-122.771145"/>
</trkseg>
<trkseg>
<trkpt lat="49.027621" lon="-122.771145"/>
<trkpt lat="49.027517" lon="-122.771337"/>
</trkseg>
<trkseg>
<trkpt lat="49.027621" lon="-122.771145"/>
<trkpt lat="49.027378" lon="-122.770984"/>
</trkseg>
<trkseg>
<trkpt lat="49.017217" lon="-122.762349"/>
<trkpt lat="49.017041" lon="-122.762381"/>
<trkpt lat="49.016837" lon="-122.762448"/>
<trkpt lat="49.016648" lon="-122.762761"/>
<trkpt lat="49.016499" lon="-122.762760"/>
<trkpt lat="49.016314" lon="-122.762460"/>
<trkpt lat="49.016336" lon="-122.762309"/>
<trkpt lat="49.016531" lon="-122.761929"/>
<trkpt lat="49.016635" lon="-122.761961"/>
<trkpt lat="49.016676" lon="-122.761965"/>
<trkpt lat="49.016843" lon="-122.762240"/>
<trkpt lat="49.017036" lon="-122.762305"/>
<trkpt lat="49.017217" lon="-122.762349"/>
</trkseg>
<trkseg>
<trkpt lat="49.068684" lon="-122.822028"/>
<trkpt lat="49.068822" lon="-122.822094"/>
<trkpt lat="49.068909" lon="-122.822184"/>
<trkpt lat="49.069550" lon="-122.822825"/>
<trkpt lat="49.069604" lon="-122.822885"/>
<trkpt lat="49.069679" lon="-122.823044"/>
</trkseg>
<trkseg>
<trkpt lat="49.075509" lon="-122.822438"/>
<trkpt lat="49.076248" lon="-122.822214"/>
<trkpt lat="49.076383" lon="-122.822168"/>
</trkseg>
<trkseg>
<trkpt lat="49.093628" lon="-122.818260"/>
<trkpt lat="49.093754" lon="-122.817978"/>
<trkpt lat="49.094469" lon="-122.817960"/>
</trkseg>
<trkseg>
<trkpt lat="49.180215" lon="-122.845449"/>
<trkpt lat="49.180476" lon="-122.845022"/>
</trkseg>
</trk>
</gpx>