<?xml version="1.0" encoding="UTF-8"?>
<gpx version="1.1" creator="BC Bike Stops (bccycletourism.ca)" xmlns="http://www.topografix.com/GPX/1/1">
<metadata>
<name>Pitt River Regional Greenway</name>
<link href="https://bccycletourism.ca/trail/pitt-river-regional-greenway/"><text>BC Bike Stops</text></link>
</metadata>
<wpt lat="49.207484" lon="-122.700427">
<name>Harris Landing Park</name>
<cmt>park</cmt>
<desc>Park / Nature</desc>
<sym>Dot</sym>
<type>rest_area</type>
</wpt>
<trk><name>Pitt River Regional Greenway</name>
<trkseg>
<trkpt lat="49.218925" lon="-122.748864"/>
<trkpt lat="49.219489" lon="-122.750842"/>
<trkpt lat="49.222352" lon="-122.754087"/>
<trkpt lat="49.222501" lon="-122.753961"/>
</trkseg>
<trkseg>
<trkpt lat="49.222501" lon="-122.753961"/>
<trkpt lat="49.225688" lon="-122.757518"/>
<trkpt lat="49.227444" lon="-122.760986"/>
<trkpt lat="49.228325" lon="-122.761439"/>
<trkpt lat="49.229752" lon="-122.761198"/>
<trkpt lat="49.231833" lon="-122.759658"/>
<trkpt lat="49.233183" lon="-122.757061"/>
<trkpt lat="49.237292" lon="-122.745509"/>
<trkpt lat="49.239054" lon="-122.738007"/>
<trkpt lat="49.240843" lon="-122.734448"/>
<trkpt lat="49.243560" lon="-122.730480"/>
<trkpt lat="49.243970" lon="-122.730707"/>
<trkpt lat="49.243873" lon="-122.730094"/>
<trkpt lat="49.245441" lon="-122.728318"/>
<trkpt lat="49.246294" lon="-122.727168"/>
</trkseg>
<trkseg>
<trkpt lat="49.222501" lon="-122.753961"/>
<trkpt lat="49.219455" lon="-122.750495"/>
<trkpt lat="49.217957" lon="-122.744805"/>
<trkpt lat="49.215677" lon="-122.733842"/>
</trkseg>
<trkseg>
<trkpt lat="49.213323" lon="-122.722691"/>
<trkpt lat="49.212438" lon="-122.718519"/>
<trkpt lat="49.211690" lon="-122.713256"/>
<trkpt lat="49.211264" lon="-122.711758"/>
<trkpt lat="49.210613" lon="-122.709025"/>
<trkpt lat="49.210527" lon="-122.708745"/>
<trkpt lat="49.210113" lon="-122.707975"/>
<trkpt lat="49.209754" lon="-122.706785"/>
</trkseg>
<trkseg>
<trkpt lat="49.209340" lon="-122.705402"/>
<trkpt lat="49.207930" lon="-122.700780"/>
<trkpt lat="49.206840" lon="-122.697163"/>
<trkpt lat="49.205287" lon="-122.693533"/>
<trkpt lat="49.204223" lon="-122.689659"/>
</trkseg>
</trk>
</gpx>