<?xml version="1.0" encoding="UTF-8"?>
<gpx version="1.1" creator="We Welcome Cyclists (bccycletourism.ca)" xmlns="http://www.topografix.com/GPX/1/1">
<metadata>
<name>Kettle Valley Rail Trail - Scenic Penticton Detour</name>
<link href="https://bccycletourism.ca/trail/kettle-valley-rail-trail-scenic-penticton-detour/"><text>We Welcome Cyclists</text></link>
</metadata>
<wpt lat="49.501385" lon="-119.611476">
<name>Rose Gardens Park</name>
<cmt>park</cmt>
<desc>Park / Nature</desc>
<sym>Dot</sym>
<type>rest_area</type>
</wpt>
<wpt lat="49.501725" lon="-119.611429">
<name>SS Sicamous</name>
<cmt>monument</cmt>
<desc>Museum / Gallery</desc>
<sym>Dot</sym>
<type>info</type>
</wpt>
<wpt lat="49.502034" lon="-119.611535">
<name>SS Naramata</name>
<cmt>viewpoint</cmt>
<desc>Activity / Experience</desc>
<sym>Dot</sym>
<type>overlook</type>
</wpt>
<wpt lat="49.496744" lon="-119.615580">
<name>Booster Juice</name>
<cmt>food</cmt>
<desc>Fast Food / Chain</desc>
<sym>Dot</sym>
<type>food</type>
</wpt>
<wpt lat="49.496712" lon="-119.615377">
<name>Domino's</name>
<cmt>food</cmt>
<desc>Fast Food / Chain</desc>
<sym>Dot</sym>
<type>food</type>
</wpt>
<wpt lat="49.496506" lon="-119.615419">
<name>Angry Otter Liquor @ Riverside</name>
<cmt>convenience_store</cmt>
<desc>Liquor Store</desc>
<sym>Dot</sym>
<type>store</type>
</wpt>
<wpt lat="49.495770" lon="-119.615338">
<name>Starbucks</name>
<cmt>food</cmt>
<desc>Fast Food / Chain</desc>
<sym>Dot</sym>
<type>food</type>
</wpt>
<wpt lat="49.479759" lon="-119.596853">
<name>Tim Hortons</name>
<cmt>food</cmt>
<desc>Fast Food / Chain</desc>
<sym>Dot</sym>
<type>food</type>
</wpt>
<wpt lat="49.500019" lon="-119.610973">
<name>Bowmont Motel</name>
<cmt>lodging</cmt>
<desc>Hotel / Motel</desc>
<sym>Dot</sym>
<type>shelter</type>
</wpt>
<wpt lat="49.501290" lon="-119.609328">
<name>Salty's Beach House</name>
<cmt>food</cmt>
<desc>Restaurant</desc>
<sym>Dot</sym>
<type>food</type>
</wpt>
<wpt lat="49.453489" lon="-119.596095">
<name>Edgewater Motel</name>
<cmt>lodging</cmt>
<desc>Hotel / Motel</desc>
<sym>Dot</sym>
<type>shelter</type>
</wpt>
<wpt lat="49.501332" lon="-119.609157">
<name>Elma</name>
<cmt>food</cmt>
<desc>Restaurant</desc>
<sym>Dot</sym>
<type>food</type>
</wpt>
<wpt lat="49.499482" lon="-119.611659">
<name>Riverside Motel</name>
<cmt>lodging</cmt>
<desc>Hotel / Motel</desc>
<sym>Dot</sym>
<type>shelter</type>
</wpt>
<wpt lat="49.495999" lon="-119.614502">
<name>A&amp;W</name>
<cmt>food</cmt>
<desc>Fast Food / Chain</desc>
<sym>Dot</sym>
<type>food</type>
</wpt>
<wpt lat="49.501279" lon="-119.608643">
<name>Okanagan Lakefront Resort</name>
<cmt>lodging</cmt>
<desc>Hotel / Motel</desc>
<sym>Dot</sym>
<type>shelter</type>
</wpt>
<wpt lat="49.498365" lon="-119.612987">
<name>Days Inn by Wyndham Penticton Conference Centre</name>
<cmt>lodging</cmt>
<desc>Hotel / Motel</desc>
<sym>Dot</sym>
<type>shelter</type>
</wpt>
<wpt lat="49.501256" lon="-119.608307">
<name>Crown Resort Motel</name>
<cmt>lodging</cmt>
<desc>Hotel / Motel</desc>
<sym>Dot</sym>
<type>shelter</type>
</wpt>
<wpt lat="49.496141" lon="-119.614122">
<name>Cob's Bakery</name>
<cmt>food</cmt>
<desc>Bakery / Donuts</desc>
<sym>Dot</sym>
<type>food</type>
</wpt>
<wpt lat="49.496393" lon="-119.614018">
<name>Quality Greens</name>
<cmt>convenience_store</cmt>
<desc>Grocery Store</desc>
<sym>Dot</sym>
<type>store</type>
</wpt>
<wpt lat="49.501233" lon="-119.607779">
<name>Shoreline Condo Resort</name>
<cmt>lodging</cmt>
<desc>Hotel / Motel</desc>
<sym>Dot</sym>
<type>shelter</type>
</wpt>
<wpt lat="49.496383" lon="-119.613435">
<name>Tim Hortons</name>
<cmt>food</cmt>
<desc>Fast Food / Chain</desc>
<sym>Dot</sym>
<type>food</type>
</wpt>
<wpt lat="49.501154" lon="-119.607463">
<name>Cambo Beach</name>
<cmt>food</cmt>
<desc>Restaurant</desc>
<sym>Dot</sym>
<type>food</type>
</wpt>
<wpt lat="49.495356" lon="-119.613288">
<name>Quiznos</name>
<cmt>food</cmt>
<desc>Fast Food / Chain</desc>
<sym>Dot</sym>
<type>food</type>
</wpt>
<wpt lat="49.495553" lon="-119.613226">
<name>24 Seven</name>
<cmt>convenience_store</cmt>
<desc>Convenience Store</desc>
<sym>Dot</sym>
<type>store</type>
</wpt>
<wpt lat="49.453319" lon="-119.594052">
<name>Oxbow RV Resort</name>
<cmt>camping</cmt>
<desc>Private Campground</desc>
<sym>Dot</sym>
<type>campsite</type>
</wpt>
<wpt lat="49.501233" lon="-119.607313">
<name>Tiki Shores Motel</name>
<cmt>lodging</cmt>
<desc>Hotel / Motel</desc>
<sym>Dot</sym>
<type>shelter</type>
</wpt>
<wpt lat="49.501244" lon="-119.606789">
<name>The Spanish Villa Motel</name>
<cmt>lodging</cmt>
<desc>Hotel / Motel</desc>
<sym>Dot</sym>
<type>shelter</type>
</wpt>
<wpt lat="49.494570" lon="-119.612453">
<name>Ramada Inn &amp; Suites</name>
<cmt>lodging</cmt>
<desc>Hotel / Motel</desc>
<sym>Dot</sym>
<type>shelter</type>
</wpt>
<wpt lat="49.464290" lon="-119.590154">
<name>Walmart</name>
<cmt>convenience_store</cmt>
<desc>Grocery Store</desc>
<sym>Dot</sym>
<type>store</type>
</wpt>
<wpt lat="49.464715" lon="-119.589879">
<name>McDonald's</name>
<cmt>food</cmt>
<desc>Fast Food / Chain</desc>
<sym>Dot</sym>
<type>food</type>
</wpt>
<wpt lat="49.454827" lon="-119.591767">
<name>South Beach Gardens Campground</name>
<cmt>camping</cmt>
<desc>Private Campground</desc>
<sym>Dot</sym>
<type>campsite</type>
</wpt>
<wpt lat="49.498002" lon="-119.608671">
<name>Sandman Hotel</name>
<cmt>lodging</cmt>
<desc>Hotel / Motel</desc>
<sym>Dot</sym>
<type>shelter</type>
</wpt>
<wpt lat="49.501202" lon="-119.605584">
<name>Patio Burger &amp; ice cream co.</name>
<cmt>food</cmt>
<desc>Ice Cream</desc>
<sym>Dot</sym>
<type>food</type>
</wpt>
<wpt lat="49.497749" lon="-119.608950">
<name>Denny's</name>
<cmt>food</cmt>
<desc>Restaurant</desc>
<sym>Dot</sym>
<type>food</type>
</wpt>
<wpt lat="49.497710" lon="-119.608576">
<name>bar one</name>
<cmt>bar</cmt>
<desc>Brewery / Pub</desc>
<sym>Dot</sym>
<type>food</type>
</wpt>
<wpt lat="49.482969" lon="-119.594472">
<name>Tin Whistle Brewing Co</name>
<cmt>bar</cmt>
<desc>Brewery / Pub</desc>
<sym>Dot</sym>
<type>food</type>
</wpt>
<wpt lat="49.462990" lon="-119.589122">
<name>7-Eleven</name>
<cmt>convenience_store</cmt>
<desc>Convenience Store</desc>
<sym>Dot</sym>
<type>store</type>
</wpt>
<wpt lat="49.498089" lon="-119.615444">
<name>Coyote Cruises - Channel Float</name>
<cmt>viewpoint</cmt>
<desc>Activity / Experience</desc>
<sym>Dot</sym>
<type>overlook</type>
</wpt>
<trk><name>Kettle Valley Rail Trail - Scenic Penticton Detour</name>
<trkseg>
<trkpt lat="49.452819" lon="-119.598219"/>
<trkpt lat="49.454331" lon="-119.597893"/>
<trkpt lat="49.454313" lon="-119.597688"/>
<trkpt lat="49.462342" lon="-119.595769"/>
</trkseg>
<trkseg>
<trkpt lat="49.463355" lon="-119.595529"/>
<trkpt lat="49.465858" lon="-119.595011"/>
<trkpt lat="49.467754" lon="-119.595225"/>
<trkpt lat="49.478042" lon="-119.598152"/>
<trkpt lat="49.478670" lon="-119.598084"/>
<trkpt lat="49.479092" lon="-119.598413"/>
<trkpt lat="49.479411" lon="-119.598664"/>
<trkpt lat="49.479490" lon="-119.598627"/>
<trkpt lat="49.481459" lon="-119.600418"/>
<trkpt lat="49.484398" lon="-119.605362"/>
<trkpt lat="49.489420" lon="-119.613807"/>
<trkpt lat="49.490758" lon="-119.615567"/>
<trkpt lat="49.493497" lon="-119.617065"/>
<trkpt lat="49.495367" lon="-119.617329"/>
<trkpt lat="49.495982" lon="-119.617186"/>
<trkpt lat="49.497579" lon="-119.616654"/>
<trkpt lat="49.499208" lon="-119.615527"/>
<trkpt lat="49.501342" lon="-119.613923"/>
<trkpt lat="49.501299" lon="-119.613768"/>
<trkpt lat="49.501124" lon="-119.613253"/>
<trkpt lat="49.500970" lon="-119.612891"/>
<trkpt lat="49.501091" lon="-119.612066"/>
<trkpt lat="49.501115" lon="-119.611731"/>
<trkpt lat="49.501371" lon="-119.611475"/>
<trkpt lat="49.501354" lon="-119.611261"/>
</trkseg>
</trk>
</gpx>