<?xml version="1.0" encoding="UTF-8"?>
<gpx version="1.1" creator="BC Bike Stops (bccycletourism.ca)" xmlns="http://www.topografix.com/GPX/1/1">
<metadata>
<name>8 Rivers Overnighter — cycling stops</name>
<link href="https://bccycletourism.ca/route/8-rivers-overnighter/"><text>BC Bike Stops</text></link>
</metadata>
<wpt lat="50.158515" lon="-115.428665">
<name>White River Campground</name>
<cmt>camping</cmt>
<desc>Public Campground</desc>
<sym>Dot</sym>
<type>campsite</type>
</wpt>
<wpt lat="50.615539" lon="-115.793678">
<name>Nipika Mountain Resort</name>
<cmt>lodging</cmt>
<desc>Hotel / Motel</desc>
<sym>Dot</sym>
<type>shelter</type>
</wpt>
<wpt lat="50.620525" lon="-115.786107">
<name>Cross River Wilderness Centre</name>
<cmt>lodging</cmt>
<desc>Hotel / Motel</desc>
<sym>Dot</sym>
<type>shelter</type>
</wpt>
</gpx>