<?xml version="1.0" encoding="UTF-8"?>
<gpx version="1.1" creator="We Welcome Cyclists (bccycletourism.ca)" xmlns="http://www.topografix.com/GPX/1/1">
<metadata>
<name>Vedder Rotary Trail South</name>
<link href="https://bccycletourism.ca/trail/vedder-rotary-trail-south/"><text>We Welcome Cyclists</text></link>
</metadata>
<wpt lat="49.096561" lon="-121.964564">
<name>Sidekick Brewing</name>
<cmt>bar</cmt>
<desc>Brewery / Pub</desc>
<sym>Dot</sym>
<type>food</type>
</wpt>
<wpt lat="49.096398" lon="-121.964508">
<name>Land</name>
<cmt>coffee</cmt>
<desc>Café / Coffee</desc>
<sym>Dot</sym>
<type>food</type>
</wpt>
<wpt lat="49.098817" lon="-122.025183">
<name>Peach Creek Spawning Channels</name>
<cmt>park</cmt>
<desc>Park / Nature</desc>
<sym>Dot</sym>
<type>rest_area</type>
</wpt>
<wpt lat="49.096319" lon="-121.964469">
<name>Banter</name>
<cmt>food</cmt>
<desc>Ice Cream</desc>
<sym>Dot</sym>
<type>food</type>
</wpt>
<wpt lat="49.087945" lon="-122.045684">
<name>Browne Creek Wetlands</name>
<cmt>park</cmt>
<desc>Park / Nature</desc>
<sym>Dot</sym>
<type>rest_area</type>
</wpt>
<wpt lat="49.097212" lon="-122.016635">
<name>Vedder River Campground</name>
<cmt>camping</cmt>
<desc>Private Campground</desc>
<sym>Dot</sym>
<type>campsite</type>
</wpt>
<trk><name>Vedder Rotary Trail South</name>
<trkseg>
<trkpt lat="49.089163" lon="-122.045617"/>
<trkpt lat="49.089528" lon="-122.044866"/>
<trkpt lat="49.089572" lon="-122.042853"/>
<trkpt lat="49.090101" lon="-122.042316"/>
<trkpt lat="49.090640" lon="-122.039223"/>
<trkpt lat="49.091101" lon="-122.038244"/>
<trkpt lat="49.090980" lon="-122.036233"/>
</trkseg>
<trkseg>
<trkpt lat="49.091004" lon="-122.036235"/>
<trkpt lat="49.091157" lon="-122.036246"/>
<trkpt lat="49.093302" lon="-122.033283"/>
<trkpt lat="49.095204" lon="-122.031948"/>
<trkpt lat="49.096011" lon="-122.030831"/>
<trkpt lat="49.097074" lon="-122.028397"/>
<trkpt lat="49.098248" lon="-122.024241"/>
<trkpt lat="49.098599" lon="-122.019232"/>
<trkpt lat="49.098171" lon="-122.013346"/>
<trkpt lat="49.097736" lon="-122.010782"/>
<trkpt lat="49.097072" lon="-122.009885"/>
<trkpt lat="49.097178" lon="-122.005445"/>
<trkpt lat="49.096413" lon="-122.004442"/>
<trkpt lat="49.096491" lon="-122.003944"/>
<trkpt lat="49.096575" lon="-122.003964"/>
<trkpt lat="49.096755" lon="-122.003944"/>
<trkpt lat="49.096804" lon="-122.003940"/>
<trkpt lat="49.096829" lon="-122.003224"/>
<trkpt lat="49.096542" lon="-122.002795"/>
<trkpt lat="49.095627" lon="-122.002561"/>
<trkpt lat="49.095110" lon="-121.998835"/>
<trkpt lat="49.095179" lon="-121.997449"/>
<trkpt lat="49.095641" lon="-121.996423"/>
<trkpt lat="49.094843" lon="-121.994390"/>
<trkpt lat="49.094693" lon="-121.993424"/>
<trkpt lat="49.095252" lon="-121.992047"/>
<trkpt lat="49.094909" lon="-121.991097"/>
<trkpt lat="49.094892" lon="-121.989791"/>
<trkpt lat="49.095167" lon="-121.988390"/>
<trkpt lat="49.094972" lon="-121.987249"/>
<trkpt lat="49.095205" lon="-121.986788"/>
<trkpt lat="49.094977" lon="-121.985502"/>
<trkpt lat="49.095761" lon="-121.982060"/>
<trkpt lat="49.095633" lon="-121.980897"/>
<trkpt lat="49.095864" lon="-121.980057"/>
<trkpt lat="49.096003" lon="-121.977478"/>
<trkpt lat="49.095670" lon="-121.976741"/>
<trkpt lat="49.095354" lon="-121.976625"/>
<trkpt lat="49.095121" lon="-121.976399"/>
<trkpt lat="49.095064" lon="-121.976339"/>
<trkpt lat="49.094804" lon="-121.975709"/>
<trkpt lat="49.095890" lon="-121.970416"/>
<trkpt lat="49.096559" lon="-121.968682"/>
<trkpt lat="49.096793" lon="-121.967915"/>
<trkpt lat="49.096737" lon="-121.965675"/>
<trkpt lat="49.097112" lon="-121.964982"/>
<trkpt lat="49.097711" lon="-121.964388"/>
</trkseg>
</trk>
</gpx>