<?xml version="1.0" encoding="UTF-8"?>
<gpx version="1.1" creator="We Welcome Cyclists (bccycletourism.ca)" xmlns="http://www.topografix.com/GPX/1/1">
<metadata>
<name>Chief Isadore Trail</name>
<link href="https://bccycletourism.ca/trail/chief-isadore-trail/"><text>We Welcome Cyclists</text></link>
</metadata>
<wpt lat="49.534067" lon="-115.741600">
<name>Super 8</name>
<cmt>lodging</cmt>
<desc>Hotel / Motel</desc>
<sym>Dot</sym>
<type>shelter</type>
</wpt>
<wpt lat="49.531850" lon="-115.749850">
<name>Walmart</name>
<cmt>convenience_store</cmt>
<desc>Grocery Store</desc>
<sym>Dot</sym>
<type>store</type>
</wpt>
<wpt lat="49.531336" lon="-115.748762">
<name>Booster Juice</name>
<cmt>food</cmt>
<desc>Fast Food / Chain</desc>
<sym>Dot</sym>
<type>food</type>
</wpt>
<wpt lat="49.530825" lon="-115.751144">
<name>Great Canadian Liquor Warehouse</name>
<cmt>convenience_store</cmt>
<desc>Liquor Store</desc>
<sym>Dot</sym>
<type>store</type>
</wpt>
<wpt lat="49.530606" lon="-115.745540">
<name>Travellers Motel</name>
<cmt>lodging</cmt>
<desc>Hotel / Motel</desc>
<sym>Dot</sym>
<type>shelter</type>
</wpt>
<wpt lat="49.530422" lon="-115.747770">
<name>Tim Hortons</name>
<cmt>food</cmt>
<desc>Fast Food / Chain</desc>
<sym>Dot</sym>
<type>food</type>
</wpt>
<wpt lat="49.529421" lon="-115.753441">
<name>Real Canadian Superstore</name>
<cmt>convenience_store</cmt>
<desc>Grocery Store</desc>
<sym>Dot</sym>
<type>store</type>
</wpt>
<wpt lat="49.529458" lon="-115.748453">
<name>Wendy's</name>
<cmt>food</cmt>
<desc>Fast Food / Chain</desc>
<sym>Dot</sym>
<type>food</type>
</wpt>
<trk><name>Chief Isadore Trail</name>
<trkseg>
<trkpt lat="49.533583" lon="-115.754584"/>
<trkpt lat="49.533518" lon="-115.753502"/>
<trkpt lat="49.533459" lon="-115.753113"/>
<trkpt lat="49.533305" lon="-115.753167"/>
<trkpt lat="49.533029" lon="-115.750868"/>
<trkpt lat="49.533051" lon="-115.750720"/>
<trkpt lat="49.533540" lon="-115.749636"/>
<trkpt lat="49.533692" lon="-115.749489"/>
<trkpt lat="49.534575" lon="-115.748975"/>
<trkpt lat="49.534852" lon="-115.748172"/>
<trkpt lat="49.533978" lon="-115.745150"/>
<trkpt lat="49.534025" lon="-115.745124"/>
</trkseg>
<trkseg>
<trkpt lat="49.534025" lon="-115.745124"/>
<trkpt lat="49.534120" lon="-115.743751"/>
<trkpt lat="49.533444" lon="-115.743630"/>
<trkpt lat="49.533246" lon="-115.743073"/>
<trkpt lat="49.532388" lon="-115.742426"/>
<trkpt lat="49.530596" lon="-115.739999"/>
</trkseg>
<trkseg>
<trkpt lat="49.530596" lon="-115.739999"/>
<trkpt lat="49.532388" lon="-115.742426"/>
<trkpt lat="49.533246" lon="-115.743073"/>
<trkpt lat="49.533444" lon="-115.743630"/>
<trkpt lat="49.534120" lon="-115.743751"/>
<trkpt lat="49.534025" lon="-115.745124"/>
</trkseg>
<trkseg>
<trkpt lat="49.530596" lon="-115.739999"/>
<trkpt lat="49.530566" lon="-115.739219"/>
<trkpt lat="49.531695" lon="-115.739202"/>
<trkpt lat="49.532772" lon="-115.739106"/>
<trkpt lat="49.536259" lon="-115.739047"/>
<trkpt lat="49.537289" lon="-115.737714"/>
<trkpt lat="49.538313" lon="-115.737154"/>
<trkpt lat="49.539288" lon="-115.737271"/>
<trkpt lat="49.540273" lon="-115.737218"/>
<trkpt lat="49.543356" lon="-115.735134"/>
<trkpt lat="49.546328" lon="-115.732591"/>
<trkpt lat="49.547900" lon="-115.730331"/>
<trkpt lat="49.550687" lon="-115.722978"/>
<trkpt lat="49.554490" lon="-115.716927"/>
<trkpt lat="49.556712" lon="-115.712613"/>
<trkpt lat="49.557867" lon="-115.709646"/>
<trkpt lat="49.558503" lon="-115.706234"/>
<trkpt lat="49.558773" lon="-115.702836"/>
<trkpt lat="49.559633" lon="-115.698487"/>
<trkpt lat="49.560147" lon="-115.696751"/>
<trkpt lat="49.561749" lon="-115.693956"/>
<trkpt lat="49.561871" lon="-115.693055"/>
<trkpt lat="49.561695" lon="-115.691604"/>
<trkpt lat="49.561210" lon="-115.690651"/>
<trkpt lat="49.558850" lon="-115.689486"/>
<trkpt lat="49.558121" lon="-115.687997"/>
<trkpt lat="49.558294" lon="-115.686171"/>
<trkpt lat="49.559264" lon="-115.683049"/>
<trkpt lat="49.559272" lon="-115.681972"/>
<trkpt lat="49.558769" lon="-115.679840"/>
<trkpt lat="49.558694" lon="-115.677667"/>
<trkpt lat="49.557403" lon="-115.674016"/>
<trkpt lat="49.556456" lon="-115.673131"/>
<trkpt lat="49.553940" lon="-115.672033"/>
<trkpt lat="49.551726" lon="-115.666385"/>
<trkpt lat="49.550462" lon="-115.664605"/>
<trkpt lat="49.546584" lon="-115.663098"/>
<trkpt lat="49.543712" lon="-115.663259"/>
<trkpt lat="49.541220" lon="-115.661225"/>
<trkpt lat="49.540228" lon="-115.659981"/>
<trkpt lat="49.539422" lon="-115.656934"/>
<trkpt lat="49.539189" lon="-115.652096"/>
<trkpt lat="49.538613" lon="-115.649781"/>
<trkpt lat="49.538325" lon="-115.646755"/>
<trkpt lat="49.537680" lon="-115.645531"/>
<trkpt lat="49.536044" lon="-115.644276"/>
<trkpt lat="49.535317" lon="-115.643126"/>
<trkpt lat="49.535058" lon="-115.641706"/>
<trkpt lat="49.535168" lon="-115.638726"/>
<trkpt lat="49.534877" lon="-115.637319"/>
<trkpt lat="49.529706" lon="-115.625000"/>
<trkpt lat="49.517991" lon="-115.602493"/>
<trkpt lat="49.516781" lon="-115.600733"/>
<trkpt lat="49.515593" lon="-115.599836"/>
<trkpt lat="49.514754" lon="-115.600392"/>
<trkpt lat="49.513920" lon="-115.600328"/>
<trkpt lat="49.512506" lon="-115.601939"/>
<trkpt lat="49.513371" lon="-115.603336"/>
<trkpt lat="49.514004" lon="-115.605076"/>
<trkpt lat="49.514585" lon="-115.605808"/>
<trkpt lat="49.515092" lon="-115.607629"/>
<trkpt lat="49.514004" lon="-115.610475"/>
<trkpt lat="49.514036" lon="-115.612898"/>
<trkpt lat="49.513656" lon="-115.613256"/>
<trkpt lat="49.512463" lon="-115.611890"/>
<trkpt lat="49.511671" lon="-115.612247"/>
<trkpt lat="49.510266" lon="-115.614118"/>
<trkpt lat="49.510382" lon="-115.616280"/>
<trkpt lat="49.510182" lon="-115.616638"/>
<trkpt lat="49.509612" lon="-115.616101"/>
<trkpt lat="49.508302" lon="-115.616345"/>
<trkpt lat="49.507077" lon="-115.613483"/>
<trkpt lat="49.507447" lon="-115.615841"/>
<trkpt lat="49.508334" lon="-115.617907"/>
<trkpt lat="49.508873" lon="-115.620931"/>
<trkpt lat="49.509063" lon="-115.623484"/>
<trkpt lat="49.507690" lon="-115.621387"/>
<trkpt lat="49.505705" lon="-115.621143"/>
<trkpt lat="49.504701" lon="-115.620232"/>
<trkpt lat="49.503392" lon="-115.618004"/>
<trkpt lat="49.502473" lon="-115.617988"/>
<trkpt lat="49.502959" lon="-115.617435"/>
<trkpt lat="49.502251" lon="-115.616232"/>
<trkpt lat="49.502378" lon="-115.614313"/>
<trkpt lat="49.501180" lon="-115.611580"/>
<trkpt lat="49.500699" lon="-115.609272"/>
<trkpt lat="49.499051" lon="-115.606832"/>
<trkpt lat="49.496960" lon="-115.605710"/>
<trkpt lat="49.494243" lon="-115.605135"/>
<trkpt lat="49.493748" lon="-115.604764"/>
<trkpt lat="49.493398" lon="-115.605171"/>
<trkpt lat="49.492376" lon="-115.604035"/>
<trkpt lat="49.490190" lon="-115.602697"/>
<trkpt lat="49.489183" lon="-115.601728"/>
<trkpt lat="49.489070" lon="-115.602002"/>
<trkpt lat="49.489353" lon="-115.602182"/>
<trkpt lat="49.489212" lon="-115.602244"/>
<trkpt lat="49.488013" lon="-115.600848"/>
<trkpt lat="49.485330" lon="-115.598669"/>
<trkpt lat="49.485087" lon="-115.597303"/>
<trkpt lat="49.484675" lon="-115.597173"/>
<trkpt lat="49.484464" lon="-115.596652"/>
<trkpt lat="49.484633" lon="-115.596701"/>
<trkpt lat="49.484575" lon="-115.595895"/>
<trkpt lat="49.483866" lon="-115.595461"/>
<trkpt lat="49.483608" lon="-115.594668"/>
<trkpt lat="49.483682" lon="-115.593872"/>
<trkpt lat="49.481601" lon="-115.589204"/>
<trkpt lat="49.480671" lon="-115.589042"/>
<trkpt lat="49.479857" lon="-115.587611"/>
<trkpt lat="49.475652" lon="-115.583448"/>
<trkpt lat="49.475145" lon="-115.582187"/>
<trkpt lat="49.475208" lon="-115.581431"/>
<trkpt lat="49.474817" lon="-115.580033"/>
<trkpt lat="49.473761" lon="-115.578374"/>
<trkpt lat="49.473475" lon="-115.577024"/>
<trkpt lat="49.472567" lon="-115.576081"/>
<trkpt lat="49.472514" lon="-115.575170"/>
<trkpt lat="49.473021" lon="-115.575008"/>
<trkpt lat="49.472873" lon="-115.573626"/>
<trkpt lat="49.472524" lon="-115.573626"/>
<trkpt lat="49.471478" lon="-115.571511"/>
<trkpt lat="49.470273" lon="-115.568031"/>
<trkpt lat="49.469196" lon="-115.567446"/>
<trkpt lat="49.470210" lon="-115.567625"/>
<trkpt lat="49.470326" lon="-115.567088"/>
<trkpt lat="49.468751" lon="-115.564910"/>
<trkpt lat="49.467050" lon="-115.563868"/>
<trkpt lat="49.466913" lon="-115.562974"/>
<trkpt lat="49.466342" lon="-115.562128"/>
<trkpt lat="49.466184" lon="-115.560518"/>
<trkpt lat="49.466490" lon="-115.560030"/>
<trkpt lat="49.464958" lon="-115.557087"/>
<trkpt lat="49.465106" lon="-115.556729"/>
<trkpt lat="49.465697" lon="-115.556794"/>
<trkpt lat="49.465550" lon="-115.556437"/>
<trkpt lat="49.464746" lon="-115.556323"/>
<trkpt lat="49.464693" lon="-115.555916"/>
<trkpt lat="49.465708" lon="-115.555998"/>
<trkpt lat="49.465708" lon="-115.555184"/>
<trkpt lat="49.465021" lon="-115.553542"/>
<trkpt lat="49.465116" lon="-115.553054"/>
<trkpt lat="49.465465" lon="-115.552875"/>
<trkpt lat="49.464926" lon="-115.552404"/>
<trkpt lat="49.465528" lon="-115.552371"/>
<trkpt lat="49.465042" lon="-115.551818"/>
<trkpt lat="49.465264" lon="-115.551542"/>
<trkpt lat="49.464112" lon="-115.549558"/>
<trkpt lat="49.466384" lon="-115.548956"/>
<trkpt lat="49.468075" lon="-115.549200"/>
<trkpt lat="49.469819" lon="-115.548452"/>
<trkpt lat="49.469840" lon="-115.547834"/>
<trkpt lat="49.471954" lon="-115.547834"/>
<trkpt lat="49.472112" lon="-115.546956"/>
<trkpt lat="49.473063" lon="-115.546338"/>
<trkpt lat="49.473032" lon="-115.545541"/>
<trkpt lat="49.473423" lon="-115.544029"/>
<trkpt lat="49.472736" lon="-115.542338"/>
<trkpt lat="49.473317" lon="-115.542386"/>
<trkpt lat="49.472672" lon="-115.540159"/>
<trkpt lat="49.472313" lon="-115.537020"/>
<trkpt lat="49.472789" lon="-115.535573"/>
<trkpt lat="49.472704" lon="-115.531036"/>
<trkpt lat="49.473053" lon="-115.530922"/>
<trkpt lat="49.472643" lon="-115.528027"/>
<trkpt lat="49.472737" lon="-115.525640"/>
<trkpt lat="49.473086" lon="-115.525313"/>
<trkpt lat="49.473134" lon="-115.523055"/>
<trkpt lat="49.473305" lon="-115.523843"/>
<trkpt lat="49.473607" lon="-115.523330"/>
<trkpt lat="49.473399" lon="-115.522170"/>
<trkpt lat="49.472552" lon="-115.517827"/>
<trkpt lat="49.472540" lon="-115.510146"/>
<trkpt lat="49.472169" lon="-115.508503"/>
<trkpt lat="49.471506" lon="-115.506946"/>
<trkpt lat="49.469966" lon="-115.504558"/>
<trkpt lat="49.468280" lon="-115.498884"/>
<trkpt lat="49.468077" lon="-115.494508"/>
<trkpt lat="49.467538" lon="-115.489716"/>
<trkpt lat="49.467909" lon="-115.482658"/>
<trkpt lat="49.467657" lon="-115.482887"/>
<trkpt lat="49.467322" lon="-115.481185"/>
<trkpt lat="49.467336" lon="-115.478194"/>
<trkpt lat="49.467602" lon="-115.476157"/>
<trkpt lat="49.466962" lon="-115.473361"/>
<trkpt lat="49.467059" lon="-115.470804"/>
<trkpt lat="49.465330" lon="-115.468888"/>
<trkpt lat="49.465395" lon="-115.467704"/>
<trkpt lat="49.448128" lon="-115.442300"/>
<trkpt lat="49.447007" lon="-115.441028"/>
<trkpt lat="49.434778" lon="-115.432057"/>
<trkpt lat="49.428886" lon="-115.427864"/>
<trkpt lat="49.425689" lon="-115.425941"/>
<trkpt lat="49.420588" lon="-115.424563"/>
<trkpt lat="49.419939" lon="-115.423817"/>
<trkpt lat="49.419744" lon="-115.422854"/>
<trkpt lat="49.419618" lon="-115.422294"/>
<trkpt lat="49.419049" lon="-115.421913"/>
<trkpt lat="49.414052" lon="-115.422090"/>
</trkseg>
</trk>
</gpx>