<?xml version="1.0" encoding="UTF-8"?>
<gpx version="1.1" creator="BC Bike Stops (bccycletourism.ca)" xmlns="http://www.topografix.com/GPX/1/1">
<metadata>
<name>Canyon To Coast Trail</name>
<link href="https://bccycletourism.ca/trail/canyon-to-coast-trail/"><text>BC Bike Stops</text></link>
</metadata>
<wpt lat="49.197651" lon="-122.644221">
<name>Derby Reach Regional Park</name>
<cmt>park</cmt>
<desc>Park / Nature</desc>
<sym>Dot</sym>
<type>rest_area</type>
</wpt>
<trk><name>Canyon To Coast Trail</name>
<trkseg>
<trkpt lat="49.189128" lon="-122.664065"/>
<trkpt lat="49.189168" lon="-122.660494"/>
<trkpt lat="49.189166" lon="-122.659843"/>
<trkpt lat="49.189164" lon="-122.659333"/>
<trkpt lat="49.189161" lon="-122.659057"/>
<trkpt lat="49.189063" lon="-122.650072"/>
<trkpt lat="49.189172" lon="-122.645234"/>
<trkpt lat="49.191174" lon="-122.644732"/>
</trkseg>
<trkseg>
<trkpt lat="49.191174" lon="-122.644732"/>
<trkpt lat="49.192767" lon="-122.644550"/>
</trkseg>
<trkseg>
<trkpt lat="49.192767" lon="-122.644550"/>
<trkpt lat="49.192766" lon="-122.644474"/>
<trkpt lat="49.191174" lon="-122.644649"/>
<trkpt lat="49.191174" lon="-122.644732"/>
</trkseg>
<trkseg>
<trkpt lat="49.192767" lon="-122.644550"/>
<trkpt lat="49.192862" lon="-122.644665"/>
<trkpt lat="49.197467" lon="-122.644514"/>
</trkseg>
<trkseg>
<trkpt lat="49.197950" lon="-122.644370"/>
<trkpt lat="49.197996" lon="-122.644081"/>
<trkpt lat="49.198360" lon="-122.644004"/>
<trkpt lat="49.199236" lon="-122.641453"/>
<trkpt lat="49.200561" lon="-122.639863"/>
<trkpt lat="49.201094" lon="-122.637317"/>
<trkpt lat="49.201990" lon="-122.637275"/>
<trkpt lat="49.202976" lon="-122.635241"/>
<trkpt lat="49.204021" lon="-122.635100"/>
<trkpt lat="49.204587" lon="-122.633797"/>
<trkpt lat="49.203679" lon="-122.633618"/>
<trkpt lat="49.203391" lon="-122.632495"/>
<trkpt lat="49.202175" lon="-122.631612"/>
<trkpt lat="49.201862" lon="-122.630826"/>
</trkseg>
<trkseg>
<trkpt lat="49.193035" lon="-121.952584"/>
<trkpt lat="49.195603" lon="-121.952512"/>
<trkpt lat="49.196674" lon="-121.951551"/>
<trkpt lat="49.198386" lon="-121.948296"/>
<trkpt lat="49.198390" lon="-121.945835"/>
<trkpt lat="49.198665" lon="-121.944521"/>
<trkpt lat="49.198401" lon="-121.943140"/>
<trkpt lat="49.198407" lon="-121.938132"/>
<trkpt lat="49.202596" lon="-121.939560"/>
<trkpt lat="49.202686" lon="-121.939483"/>
<trkpt lat="49.202754" lon="-121.939077"/>
<trkpt lat="49.203059" lon="-121.937543"/>
<trkpt lat="49.205467" lon="-121.931075"/>
<trkpt lat="49.206441" lon="-121.928599"/>
<trkpt lat="49.207670" lon="-121.927662"/>
<trkpt lat="49.209255" lon="-121.926460"/>
<trkpt lat="49.210468" lon="-121.922463"/>
<trkpt lat="49.210586" lon="-121.922176"/>
<trkpt lat="49.210852" lon="-121.921169"/>
<trkpt lat="49.212408" lon="-121.915413"/>
<trkpt lat="49.214931" lon="-121.904287"/>
<trkpt lat="49.215372" lon="-121.899110"/>
<trkpt lat="49.215305" lon="-121.898836"/>
<trkpt lat="49.214888" lon="-121.896817"/>
<trkpt lat="49.214774" lon="-121.894912"/>
<trkpt lat="49.213942" lon="-121.881947"/>
<trkpt lat="49.213293" lon="-121.880218"/>
<trkpt lat="49.212516" lon="-121.878939"/>
<trkpt lat="49.207570" lon="-121.874850"/>
<trkpt lat="49.206758" lon="-121.873794"/>
<trkpt lat="49.205613" lon="-121.861201"/>
<trkpt lat="49.204933" lon="-121.856876"/>
<trkpt lat="49.206327" lon="-121.850719"/>
<trkpt lat="49.210942" lon="-121.837299"/>
<trkpt lat="49.211044" lon="-121.835846"/>
<trkpt lat="49.210354" lon="-121.820823"/>
<trkpt lat="49.210718" lon="-121.819583"/>
<trkpt lat="49.212703" lon="-121.816003"/>
<trkpt lat="49.212894" lon="-121.814782"/>
<trkpt lat="49.207949" lon="-121.801655"/>
<trkpt lat="49.205787" lon="-121.799014"/>
<trkpt lat="49.204483" lon="-121.798500"/>
<trkpt lat="49.203340" lon="-121.798146"/>
<trkpt lat="49.201881" lon="-121.797100"/>
<trkpt lat="49.201910" lon="-121.794660"/>
<trkpt lat="49.199905" lon="-121.789385"/>
<trkpt lat="49.200229" lon="-121.788442"/>
<trkpt lat="49.201858" lon="-121.786787"/>
<trkpt lat="49.202686" lon="-121.784793"/>
<trkpt lat="49.203340" lon="-121.779946"/>
<trkpt lat="49.203333" lon="-121.777255"/>
<trkpt lat="49.199372" lon="-121.777822"/>
<trkpt lat="49.199383" lon="-121.778171"/>
</trkseg>
</trk>
</gpx>