<?xml version="1.0" encoding="UTF-8"?>
<gpx version="1.1" creator="We Welcome Cyclists (bccycletourism.ca)" xmlns="http://www.topografix.com/GPX/1/1">
<metadata>
<name>Colquitz River Trail</name>
<link href="https://bccycletourism.ca/trail/colquitz-river-trail/"><text>We Welcome Cyclists</text></link>
</metadata>
<wpt lat="48.455847" lon="-123.395658">
<name>Montana's</name>
<cmt>food</cmt>
<desc>Restaurant</desc>
<sym>Dot</sym>
<type>food</type>
</wpt>
<wpt lat="48.454724" lon="-123.395649">
<name>Starbucks</name>
<cmt>food</cmt>
<desc>Fast Food / Chain</desc>
<sym>Dot</sym>
<type>food</type>
</wpt>
<wpt lat="48.455139" lon="-123.395187">
<name>London Drugs</name>
<cmt>convenience_store</cmt>
<desc>General merchandise</desc>
<sym>Dot</sym>
<type>store</type>
</wpt>
<wpt lat="48.454490" lon="-123.396101">
<name>Winners</name>
<cmt>convenience_store</cmt>
<desc>Grocery Store</desc>
<sym>Dot</sym>
<type>store</type>
</wpt>
<wpt lat="48.456288" lon="-123.393528">
<name>Des Panjaab</name>
<cmt>food</cmt>
<desc>Restaurant</desc>
<sym>Dot</sym>
<type>food</type>
</wpt>
<wpt lat="48.454028" lon="-123.395611">
<name>Liquor Co 1977</name>
<cmt>convenience_store</cmt>
<desc>Liquor Store</desc>
<sym>Dot</sym>
<type>store</type>
</wpt>
<wpt lat="48.454450" lon="-123.394770">
<name>Save-On-Foods</name>
<cmt>convenience_store</cmt>
<desc>Grocery Store</desc>
<sym>Dot</sym>
<type>store</type>
</wpt>
<wpt lat="48.456277" lon="-123.392839">
<name>Mr. Tubbs Ice Cream</name>
<cmt>food</cmt>
<desc>Ice Cream</desc>
<sym>Dot</sym>
<type>food</type>
</wpt>
<wpt lat="48.453874" lon="-123.398811">
<name>Saanich Centennial Library Branch</name>
<cmt>library</cmt>
<desc>Library</desc>
<sym>Dot</sym>
<type>info</type>
</wpt>
<wpt lat="48.456272" lon="-123.392700">
<name>Cosmos Pizza &amp; Pasta</name>
<cmt>food</cmt>
<desc>Restaurant</desc>
<sym>Dot</sym>
<type>food</type>
</wpt>
<wpt lat="48.479462" lon="-123.410559">
<name>Mac’s</name>
<cmt>convenience_store</cmt>
<desc>Convenience Store</desc>
<sym>Dot</sym>
<type>store</type>
</wpt>
<wpt lat="48.479468" lon="-123.410766">
<name>Pizazz Pizza</name>
<cmt>food</cmt>
<desc>Fast Food / Chain</desc>
<sym>Dot</sym>
<type>food</type>
</wpt>
<wpt lat="48.479487" lon="-123.410855">
<name>Subway</name>
<cmt>food</cmt>
<desc>Fast Food / Chain</desc>
<sym>Dot</sym>
<type>food</type>
</wpt>
<wpt lat="48.479570" lon="-123.411001">
<name>Jack's Chinese Restaurant</name>
<cmt>food</cmt>
<desc>Restaurant</desc>
<sym>Dot</sym>
<type>food</type>
</wpt>
<wpt lat="48.460846" lon="-123.400116">
<name>Trini to D Bone</name>
<cmt>food</cmt>
<desc>Restaurant</desc>
<sym>Dot</sym>
<type>food</type>
</wpt>
<wpt lat="48.479647" lon="-123.411355">
<name>Cherries Street Food</name>
<cmt>food</cmt>
<desc>Restaurant</desc>
<sym>Dot</sym>
<type>food</type>
</wpt>
<wpt lat="48.491841" lon="-123.389537">
<name>Country Grocer</name>
<cmt>convenience_store</cmt>
<desc>Grocery Store</desc>
<sym>Dot</sym>
<type>store</type>
</wpt>
<wpt lat="48.454311" lon="-123.400215">
<name>Pearkes Recreation Centre</name>
<cmt>rest_stop</cmt>
<desc>Community Centre</desc>
<sym>Dot</sym>
<type>rest_area</type>
</wpt>
<trk><name>Colquitz River Trail</name>
<trkseg>
<trkpt lat="48.450342" lon="-123.409735"/>
<trkpt lat="48.450389" lon="-123.409718"/>
<trkpt lat="48.453556" lon="-123.406399"/>
<trkpt lat="48.454047" lon="-123.405904"/>
<trkpt lat="48.454772" lon="-123.405159"/>
<trkpt lat="48.454806" lon="-123.405124"/>
<trkpt lat="48.455255" lon="-123.404667"/>
<trkpt lat="48.455535" lon="-123.404382"/>
<trkpt lat="48.455802" lon="-123.404191"/>
<trkpt lat="48.455815" lon="-123.404140"/>
<trkpt lat="48.456075" lon="-123.403822"/>
<trkpt lat="48.456231" lon="-123.403441"/>
<trkpt lat="48.456724" lon="-123.402367"/>
<trkpt lat="48.456618" lon="-123.402045"/>
<trkpt lat="48.456482" lon="-123.401775"/>
<trkpt lat="48.456370" lon="-123.401295"/>
<trkpt lat="48.456446" lon="-123.400907"/>
<trkpt lat="48.456787" lon="-123.400521"/>
<trkpt lat="48.456923" lon="-123.399764"/>
<trkpt lat="48.456088" lon="-123.398264"/>
<trkpt lat="48.455491" lon="-123.397973"/>
<trkpt lat="48.455253" lon="-123.397498"/>
<trkpt lat="48.455561" lon="-123.397178"/>
<trkpt lat="48.455341" lon="-123.396440"/>
<trkpt lat="48.457020" lon="-123.394971"/>
<trkpt lat="48.457449" lon="-123.395027"/>
<trkpt lat="48.458620" lon="-123.395012"/>
<trkpt lat="48.458959" lon="-123.394933"/>
<trkpt lat="48.459344" lon="-123.394816"/>
<trkpt lat="48.459772" lon="-123.394551"/>
<trkpt lat="48.460818" lon="-123.394775"/>
<trkpt lat="48.461063" lon="-123.394804"/>
<trkpt lat="48.462480" lon="-123.396218"/>
<trkpt lat="48.462948" lon="-123.396326"/>
<trkpt lat="48.462941" lon="-123.396653"/>
<trkpt lat="48.463803" lon="-123.397271"/>
<trkpt lat="48.464835" lon="-123.399487"/>
<trkpt lat="48.465464" lon="-123.400061"/>
<trkpt lat="48.466538" lon="-123.401098"/>
<trkpt lat="48.466862" lon="-123.400797"/>
<trkpt lat="48.467260" lon="-123.400937"/>
<trkpt lat="48.467304" lon="-123.400898"/>
<trkpt lat="48.467351" lon="-123.400853"/>
<trkpt lat="48.467515" lon="-123.400759"/>
<trkpt lat="48.469308" lon="-123.402924"/>
<trkpt lat="48.470943" lon="-123.404205"/>
<trkpt lat="48.474016" lon="-123.404354"/>
<trkpt lat="48.475800" lon="-123.405815"/>
<trkpt lat="48.476657" lon="-123.405561"/>
<trkpt lat="48.477544" lon="-123.405751"/>
<trkpt lat="48.478082" lon="-123.406819"/>
<trkpt lat="48.479226" lon="-123.406158"/>
<trkpt lat="48.481012" lon="-123.405266"/>
<trkpt lat="48.482179" lon="-123.404232"/>
<trkpt lat="48.483070" lon="-123.403242"/>
<trkpt lat="48.483045" lon="-123.403148"/>
<trkpt lat="48.483917" lon="-123.402448"/>
<trkpt lat="48.483972" lon="-123.402501"/>
<trkpt lat="48.484117" lon="-123.402473"/>
<trkpt lat="48.484325" lon="-123.402272"/>
<trkpt lat="48.484055" lon="-123.401437"/>
<trkpt lat="48.484124" lon="-123.400937"/>
<trkpt lat="48.484684" lon="-123.400273"/>
<trkpt lat="48.485097" lon="-123.398457"/>
<trkpt lat="48.485092" lon="-123.395818"/>
<trkpt lat="48.485112" lon="-123.395661"/>
<trkpt lat="48.485141" lon="-123.395483"/>
<trkpt lat="48.485843" lon="-123.395063"/>
<trkpt lat="48.486619" lon="-123.395825"/>
<trkpt lat="48.487717" lon="-123.396180"/>
<trkpt lat="48.488256" lon="-123.395843"/>
<trkpt lat="48.488594" lon="-123.396030"/>
<trkpt lat="48.489228" lon="-123.395633"/>
<trkpt lat="48.489280" lon="-123.395533"/>
<trkpt lat="48.489620" lon="-123.395367"/>
<trkpt lat="48.489684" lon="-123.395349"/>
<trkpt lat="48.490409" lon="-123.394761"/>
</trkseg>
<trkseg>
<trkpt lat="48.490409" lon="-123.394761"/>
<trkpt lat="48.491692" lon="-123.399720"/>
<trkpt lat="48.491598" lon="-123.399835"/>
<trkpt lat="48.491558" lon="-123.399925"/>
<trkpt lat="48.491295" lon="-123.399860"/>
<trkpt lat="48.491492" lon="-123.400430"/>
</trkseg>
<trkseg>
<trkpt lat="48.490409" lon="-123.394761"/>
<trkpt lat="48.490544" lon="-123.394560"/>
</trkseg>
</trk>
</gpx>