<?xml version="1.0" encoding="UTF-8"?>
<gpx version="1.1" creator="BC Bike Stops (bccycletourism.ca)" xmlns="http://www.topografix.com/GPX/1/1">
<metadata>
<name>Neaves / Rannie</name>
<link href="https://bccycletourism.ca/trail/neaves-rannie/"><text>BC Bike Stops</text></link>
</metadata>
<wpt lat="49.349018" lon="-122.615472">
<name>Canoe Rentals by Xwum</name>
<cmt>viewpoint</cmt>
<desc>Activity / Experience</desc>
<sym>Dot</sym>
<type>overlook</type>
</wpt>
<trk><name>Neaves / Rannie</name>
<trkseg>
<trkpt lat="49.242276" lon="-122.644738"/>
<trkpt lat="49.248710" lon="-122.644755"/>
<trkpt lat="49.249466" lon="-122.644740"/>
<trkpt lat="49.250469" lon="-122.644714"/>
<trkpt lat="49.264024" lon="-122.644345"/>
<trkpt lat="49.269996" lon="-122.644616"/>
<trkpt lat="49.270960" lon="-122.644509"/>
<trkpt lat="49.271720" lon="-122.644235"/>
<trkpt lat="49.278656" lon="-122.644190"/>
<trkpt lat="49.293264" lon="-122.644479"/>
<trkpt lat="49.294716" lon="-122.644504"/>
<trkpt lat="49.295588" lon="-122.644523"/>
<trkpt lat="49.304707" lon="-122.644360"/>
<trkpt lat="49.306407" lon="-122.644334"/>
<trkpt lat="49.306690" lon="-122.644331"/>
<trkpt lat="49.315074" lon="-122.644308"/>
<trkpt lat="49.332174" lon="-122.644268"/>
<trkpt lat="49.332452" lon="-122.643973"/>
<trkpt lat="49.333411" lon="-122.640597"/>
<trkpt lat="49.334796" lon="-122.636148"/>
<trkpt lat="49.343362" lon="-122.623963"/>
<trkpt lat="49.348592" lon="-122.616542"/>
<trkpt lat="49.348979" lon="-122.615642"/>
<trkpt lat="49.349107" lon="-122.615253"/>
</trkseg>
</trk>
</gpx>