<?xml version="1.0" encoding="UTF-8"?>
<gpx version="1.1" creator="BC Bike Stops (bccycletourism.ca)" xmlns="http://www.topografix.com/GPX/1/1">
<metadata>
<name>Sardis</name>
<link href="https://bccycletourism.ca/trail/sardis/"><text>BC Bike Stops</text></link>
</metadata>
<wpt lat="49.142654" lon="-121.973382">
<name>Mr Mikes</name>
<cmt>food</cmt>
<desc>Restaurant</desc>
<sym>Dot</sym>
<type>food</type>
</wpt>
<wpt lat="49.142324" lon="-121.971889">
<name>Hana Sushi</name>
<cmt>food</cmt>
<desc>Restaurant</desc>
<sym>Dot</sym>
<type>food</type>
</wpt>
<wpt lat="49.142399" lon="-121.972160">
<name>Subway</name>
<cmt>food</cmt>
<desc>Fast Food / Chain</desc>
<sym>Dot</sym>
<type>food</type>
</wpt>
<wpt lat="49.104926" lon="-121.964151">
<name>Garrison Wine &amp; Liquor Merchants</name>
<cmt>convenience_store</cmt>
<desc>Liquor Store</desc>
<sym>Dot</sym>
<type>store</type>
</wpt>
<wpt lat="49.106773" lon="-121.965882">
<name>Cheam Leisure Centre</name>
<cmt>rest_stop</cmt>
<desc>Community Centre</desc>
<sym>Dot</sym>
<type>rest_area</type>
</wpt>
<wpt lat="49.143155" lon="-121.973010">
<name>McDonald's</name>
<cmt>food</cmt>
<desc>Fast Food / Chain</desc>
<sym>Dot</sym>
<type>food</type>
</wpt>
<wpt lat="49.142889" lon="-121.971858">
<name>Mandarin Garden Buffet</name>
<cmt>food</cmt>
<desc>Restaurant</desc>
<sym>Dot</sym>
<type>food</type>
</wpt>
<wpt lat="49.142809" lon="-121.971282">
<name>Boston Pizza</name>
<cmt>food</cmt>
<desc>Fast Food / Chain</desc>
<sym>Dot</sym>
<type>food</type>
</wpt>
<wpt lat="49.142196" lon="-121.969724">
<name>Tim Hortons</name>
<cmt>food</cmt>
<desc>Fast Food / Chain</desc>
<sym>Dot</sym>
<type>food</type>
</wpt>
<wpt lat="49.141010" lon="-121.967916">
<name>Alicia's Flavours</name>
<cmt>food</cmt>
<desc>Restaurant</desc>
<sym>Dot</sym>
<type>food</type>
</wpt>
<wpt lat="49.104600" lon="-121.963300">
<name>Waves Coffee House</name>
<cmt>coffee</cmt>
<desc>Café / Coffee</desc>
<sym>Dot</sym>
<type>food</type>
</wpt>
<wpt lat="49.104165" lon="-121.963181">
<name>Subway</name>
<cmt>food</cmt>
<desc>Fast Food / Chain</desc>
<sym>Dot</sym>
<type>food</type>
</wpt>
<wpt lat="49.102479" lon="-121.962965">
<name>Amble Coffee</name>
<cmt>coffee</cmt>
<desc>Café / Coffee</desc>
<sym>Dot</sym>
<type>food</type>
</wpt>
<wpt lat="49.105504" lon="-121.963253">
<name>Save-On-Foods</name>
<cmt>convenience_store</cmt>
<desc>Grocery Store</desc>
<sym>Dot</sym>
<type>store</type>
</wpt>
<wpt lat="49.104372" lon="-121.962905">
<name>Freshslice Pizza</name>
<cmt>food</cmt>
<desc>Fast Food / Chain</desc>
<sym>Dot</sym>
<type>food</type>
</wpt>
<wpt lat="49.104264" lon="-121.962906">
<name>Woodman Chinese Food</name>
<cmt>food</cmt>
<desc>Restaurant</desc>
<sym>Dot</sym>
<type>food</type>
</wpt>
<wpt lat="49.102178" lon="-121.962840">
<name>Church's Chicken</name>
<cmt>food</cmt>
<desc>Fast Food / Chain</desc>
<sym>Dot</sym>
<type>food</type>
</wpt>
<wpt lat="49.142866" lon="-121.969786">
<name>C-Lovers Fish &amp; Chips</name>
<cmt>food</cmt>
<desc>Restaurant</desc>
<sym>Dot</sym>
<type>food</type>
</wpt>
<wpt lat="49.144837" lon="-121.978638">
<name>Triple O's</name>
<cmt>food</cmt>
<desc>Fast Food / Chain</desc>
<sym>Dot</sym>
<type>food</type>
</wpt>
<wpt lat="49.142812" lon="-121.969414">
<name>KFC / Taco Bell</name>
<cmt>food</cmt>
<desc>Fast Food / Chain</desc>
<sym>Dot</sym>
<type>food</type>
</wpt>
<wpt lat="49.142814" lon="-121.969366">
<name>Taco Bell</name>
<cmt>food</cmt>
<desc>Fast Food / Chain</desc>
<sym>Dot</sym>
<type>food</type>
</wpt>
<wpt lat="49.142919" lon="-121.969353">
<name>KFC</name>
<cmt>food</cmt>
<desc>Fast Food / Chain</desc>
<sym>Dot</sym>
<type>food</type>
</wpt>
<wpt lat="49.142818" lon="-121.968959">
<name>White Spot</name>
<cmt>food</cmt>
<desc>Fast Food / Chain</desc>
<sym>Dot</sym>
<type>food</type>
</wpt>
<wpt lat="49.120799" lon="-121.968296">
<name>Chilliwack Track Complex</name>
<cmt>rest_stop</cmt>
<desc>Community Centre</desc>
<sym>Dot</sym>
<type>rest_area</type>
</wpt>
<wpt lat="49.103498" lon="-121.962163">
<name>Starbucks</name>
<cmt>food</cmt>
<desc>Fast Food / Chain</desc>
<sym>Dot</sym>
<type>food</type>
</wpt>
<wpt lat="49.105174" lon="-121.961994">
<name>Mt. Waddington's Outdoors</name>
<cmt>convenience_store</cmt>
<desc>Outdoor Gear</desc>
<sym>Dot</sym>
<type>store</type>
</wpt>
<wpt lat="49.096561" lon="-121.964564">
<name>Sidekick Brewing</name>
<cmt>bar</cmt>
<desc>Brewery / Pub</desc>
<sym>Dot</sym>
<type>food</type>
</wpt>
<wpt lat="49.124152" lon="-121.959773">
<name>Tim Hortons</name>
<cmt>food</cmt>
<desc>Fast Food / Chain</desc>
<sym>Dot</sym>
<type>food</type>
</wpt>
<wpt lat="49.131940" lon="-121.960237">
<name>Hugo's Mexican Kitchen</name>
<cmt>food</cmt>
<desc>Restaurant</desc>
<sym>Dot</sym>
<type>food</type>
</wpt>
<wpt lat="49.142731" lon="-121.967774">
<name>Ricky's All Day Grill</name>
<cmt>food</cmt>
<desc>Restaurant</desc>
<sym>Dot</sym>
<type>food</type>
</wpt>
<wpt lat="49.135206" lon="-121.962430">
<name>Stó:lō Gift Shop</name>
<cmt>viewpoint</cmt>
<desc>Activity / Experience</desc>
<sym>Dot</sym>
<type>overlook</type>
</wpt>
<wpt lat="49.096398" lon="-121.964508">
<name>Land</name>
<cmt>coffee</cmt>
<desc>Café / Coffee</desc>
<sym>Dot</sym>
<type>food</type>
</wpt>
<wpt lat="49.096319" lon="-121.964469">
<name>Banter</name>
<cmt>food</cmt>
<desc>Ice Cream</desc>
<sym>Dot</sym>
<type>food</type>
</wpt>
<wpt lat="49.124619" lon="-121.959400">
<name>Royal Zayka Cuisine of India</name>
<cmt>food</cmt>
<desc>Restaurant</desc>
<sym>Dot</sym>
<type>food</type>
</wpt>
<wpt lat="49.124602" lon="-121.959289">
<name>Thai Taste - Restaurant -</name>
<cmt>food</cmt>
<desc>Restaurant</desc>
<sym>Dot</sym>
<type>food</type>
</wpt>
<wpt lat="49.106118" lon="-121.961591">
<name>Tulip Donair</name>
<cmt>food</cmt>
<desc>Restaurant</desc>
<sym>Dot</sym>
<type>food</type>
</wpt>
<wpt lat="49.107113" lon="-121.961951">
<name>Big Box Outlet Store</name>
<cmt>convenience_store</cmt>
<desc>Grocery Store</desc>
<sym>Dot</sym>
<type>store</type>
</wpt>
<wpt lat="49.124581" lon="-121.959187">
<name>The Other Liquor Store</name>
<cmt>convenience_store</cmt>
<desc>Liquor Store</desc>
<sym>Dot</sym>
<type>store</type>
</wpt>
<wpt lat="49.106662" lon="-121.961988">
<name>Ricardo's Pizza</name>
<cmt>food</cmt>
<desc>Fast Food / Chain</desc>
<sym>Dot</sym>
<type>food</type>
</wpt>
<wpt lat="49.106118" lon="-121.961523">
<name>Hide-A-Way Cafe</name>
<cmt>coffee</cmt>
<desc>Café / Coffee</desc>
<sym>Dot</sym>
<type>food</type>
</wpt>
<wpt lat="49.123134" lon="-121.959067">
<name>Little Beetle</name>
<cmt>food</cmt>
<desc>Restaurant</desc>
<sym>Dot</sym>
<type>food</type>
</wpt>
<wpt lat="49.106667" lon="-121.961845">
<name>Gon Sushi</name>
<cmt>food</cmt>
<desc>Restaurant</desc>
<sym>Dot</sym>
<type>food</type>
</wpt>
<wpt lat="49.106664" lon="-121.961569">
<name>Sangam Indian Cuisine</name>
<cmt>food</cmt>
<desc>Restaurant</desc>
<sym>Dot</sym>
<type>food</type>
</wpt>
<wpt lat="49.109280" lon="-121.959169">
<name>Han Korea</name>
<cmt>food</cmt>
<desc>Restaurant</desc>
<sym>Dot</sym>
<type>food</type>
</wpt>
<wpt lat="49.139394" lon="-121.963433">
<name>Safeway</name>
<cmt>convenience_store</cmt>
<desc>Grocery Store</desc>
<sym>Dot</sym>
<type>store</type>
</wpt>
<wpt lat="49.109007" lon="-121.959267">
<name>Jolly Miller Pub</name>
<cmt>bar</cmt>
<desc>Brewery / Pub</desc>
<sym>Dot</sym>
<type>food</type>
</wpt>
<wpt lat="49.140025" lon="-121.963922">
<name>Starbucks</name>
<cmt>food</cmt>
<desc>Fast Food / Chain</desc>
<sym>Dot</sym>
<type>food</type>
</wpt>
<wpt lat="49.107222" lon="-121.960870">
<name>Valley Sunrise Fresh Foods</name>
<cmt>convenience_store</cmt>
<desc>Grocery Store</desc>
<sym>Dot</sym>
<type>store</type>
</wpt>
<wpt lat="49.143304" lon="-121.966985">
<name>Comfort Inn Chilliwack</name>
<cmt>lodging</cmt>
<desc>Hotel / Motel</desc>
<sym>Dot</sym>
<type>shelter</type>
</wpt>
<wpt lat="49.124067" lon="-121.958525">
<name>Domino's</name>
<cmt>food</cmt>
<desc>Fast Food / Chain</desc>
<sym>Dot</sym>
<type>food</type>
</wpt>
<wpt lat="49.124128" lon="-121.958501">
<name>Golden Dragon Village</name>
<cmt>food</cmt>
<desc>Restaurant</desc>
<sym>Dot</sym>
<type>food</type>
</wpt>
<wpt lat="49.106653" lon="-121.960926">
<name>A&amp;W</name>
<cmt>food</cmt>
<desc>Fast Food / Chain</desc>
<sym>Dot</sym>
<type>food</type>
</wpt>
<wpt lat="49.140384" lon="-121.963734">
<name>Fatburger</name>
<cmt>food</cmt>
<desc>Fast Food / Chain</desc>
<sym>Dot</sym>
<type>food</type>
</wpt>
<wpt lat="49.142453" lon="-121.965452">
<name>Canadian Tire</name>
<cmt>convenience_store</cmt>
<desc>General merchandise</desc>
<sym>Dot</sym>
<type>store</type>
</wpt>
<wpt lat="49.107080" lon="-121.960500">
<name>Dairy Queen</name>
<cmt>food</cmt>
<desc>Ice Cream</desc>
<sym>Dot</sym>
<type>food</type>
</wpt>
<wpt lat="49.107787" lon="-121.959484">
<name>Vedder River Inn</name>
<cmt>lodging</cmt>
<desc>Hotel / Motel</desc>
<sym>Dot</sym>
<type>shelter</type>
</wpt>
<wpt lat="49.141362" lon="-121.963781">
<name>Earls</name>
<cmt>food</cmt>
<desc>Restaurant</desc>
<sym>Dot</sym>
<type>food</type>
</wpt>
<wpt lat="49.107367" lon="-121.959496">
<name>Pizza Hut</name>
<cmt>food</cmt>
<desc>Fast Food / Chain</desc>
<sym>Dot</sym>
<type>food</type>
</wpt>
<wpt lat="49.111939" lon="-121.957146">
<name>Subway</name>
<cmt>food</cmt>
<desc>Fast Food / Chain</desc>
<sym>Dot</sym>
<type>food</type>
</wpt>
<wpt lat="49.107020" lon="-121.959770">
<name>McDonald's</name>
<cmt>food</cmt>
<desc>Fast Food / Chain</desc>
<sym>Dot</sym>
<type>food</type>
</wpt>
<trk><name>Sardis</name>
<trkseg>
<trkpt lat="49.099381" lon="-121.962609"/>
<trkpt lat="49.099385" lon="-121.963282"/>
<trkpt lat="49.099396" lon="-121.964143"/>
<trkpt lat="49.099482" lon="-121.965795"/>
<trkpt lat="49.100000" lon="-121.965790"/>
<trkpt lat="49.100978" lon="-121.965796"/>
<trkpt lat="49.101098" lon="-121.965823"/>
<trkpt lat="49.102731" lon="-121.965933"/>
</trkseg>
<trkseg>
<trkpt lat="49.102731" lon="-121.965933"/>
<trkpt lat="49.103168" lon="-121.965998"/>
<trkpt lat="49.103579" lon="-121.965940"/>
</trkseg>
<trkseg>
<trkpt lat="49.103579" lon="-121.965940"/>
<trkpt lat="49.103831" lon="-121.965953"/>
<trkpt lat="49.103934" lon="-121.965951"/>
<trkpt lat="49.104877" lon="-121.966129"/>
<trkpt lat="49.106055" lon="-121.967718"/>
<trkpt lat="49.108023" lon="-121.967593"/>
<trkpt lat="49.108804" lon="-121.967007"/>
<trkpt lat="49.109593" lon="-121.965128"/>
<trkpt lat="49.109980" lon="-121.964710"/>
<trkpt lat="49.111219" lon="-121.964511"/>
<trkpt lat="49.111227" lon="-121.963642"/>
<trkpt lat="49.114347" lon="-121.964892"/>
<trkpt lat="49.114756" lon="-121.964831"/>
<trkpt lat="49.114896" lon="-121.964439"/>
<trkpt lat="49.117993" lon="-121.964514"/>
<trkpt lat="49.117992" lon="-121.964159"/>
<trkpt lat="49.118390" lon="-121.964176"/>
<trkpt lat="49.121956" lon="-121.964623"/>
<trkpt lat="49.122487" lon="-121.964066"/>
<trkpt lat="49.122799" lon="-121.964061"/>
<trkpt lat="49.122799" lon="-121.964121"/>
<trkpt lat="49.125995" lon="-121.964124"/>
<trkpt lat="49.126846" lon="-121.964788"/>
<trkpt lat="49.131410" lon="-121.964528"/>
<trkpt lat="49.131408" lon="-121.965618"/>
<trkpt lat="49.133187" lon="-121.965665"/>
<trkpt lat="49.134902" lon="-121.971423"/>
<trkpt lat="49.134925" lon="-121.970119"/>
<trkpt lat="49.134931" lon="-121.969346"/>
<trkpt lat="49.135004" lon="-121.969006"/>
<trkpt lat="49.135008" lon="-121.968833"/>
<trkpt lat="49.135092" lon="-121.967524"/>
<trkpt lat="49.135787" lon="-121.967614"/>
<trkpt lat="49.135977" lon="-121.968293"/>
<trkpt lat="49.137727" lon="-121.968327"/>
<trkpt lat="49.137823" lon="-121.968642"/>
<trkpt lat="49.139835" lon="-121.969834"/>
<trkpt lat="49.140989" lon="-121.971358"/>
<trkpt lat="49.141312" lon="-121.971987"/>
<trkpt lat="49.142154" lon="-121.975960"/>
<trkpt lat="49.143470" lon="-121.976088"/>
</trkseg>
<trkseg>
<trkpt lat="49.103579" lon="-121.965940"/>
<trkpt lat="49.103167" lon="-121.965879"/>
<trkpt lat="49.102731" lon="-121.965933"/>
</trkseg>
</trk>
</gpx>