<?xml version="1.0" encoding="UTF-8"?>
<gpx version="1.1" creator="BC Bike Stops (bccycletourism.ca)" xmlns="http://www.topografix.com/GPX/1/1">
<metadata>
<name>Ocean Park - Semiahmoo Neighbourhood Bike Route</name>
<link href="https://bccycletourism.ca/trail/ocean-park-semiahmoo-neighbourhood-bike-route/"><text>BC Bike Stops</text></link>
</metadata>
<wpt lat="49.032662" lon="-122.866271">
<name>Ocean Park Library</name>
<cmt>library</cmt>
<desc>Library</desc>
<sym>Dot</sym>
<type>info</type>
</wpt>
<wpt lat="49.033576" lon="-122.815522">
<name>South Surrey Indoor Pool</name>
<cmt>rest_stop</cmt>
<desc>Community Centre</desc>
<sym>Dot</sym>
<type>rest_area</type>
</wpt>
<wpt lat="49.032356" lon="-122.866914">
<name>Starbucks</name>
<cmt>food</cmt>
<desc>Fast Food / Chain</desc>
<sym>Dot</sym>
<type>food</type>
</wpt>
<wpt lat="49.033119" lon="-122.803447">
<name>Winners</name>
<cmt>convenience_store</cmt>
<desc>Grocery Store</desc>
<sym>Dot</sym>
<type>store</type>
</wpt>
<wpt lat="49.031909" lon="-122.865611">
<name>Cob's</name>
<cmt>food</cmt>
<desc>Bakery / Donuts</desc>
<sym>Dot</sym>
<type>food</type>
</wpt>
<wpt lat="49.031806" lon="-122.865618">
<name>Morrison Cafe</name>
<cmt>coffee</cmt>
<desc>Café / Coffee</desc>
<sym>Dot</sym>
<type>food</type>
</wpt>
<wpt lat="49.032643" lon="-122.803126">
<name>Quesada</name>
<cmt>food</cmt>
<desc>Fast Food / Chain</desc>
<sym>Dot</sym>
<type>food</type>
</wpt>
<wpt lat="49.031748" lon="-122.866439">
<name>Safeway</name>
<cmt>convenience_store</cmt>
<desc>Grocery Store</desc>
<sym>Dot</sym>
<type>store</type>
</wpt>
<wpt lat="49.031759" lon="-122.867845">
<name>Delitalia Fine Foods</name>
<cmt>convenience_store</cmt>
<desc>Specialty / Health Food</desc>
<sym>Dot</sym>
<type>store</type>
</wpt>
<wpt lat="49.032025" lon="-122.803309">
<name>Save-On-Foods</name>
<cmt>convenience_store</cmt>
<desc>Grocery Store</desc>
<sym>Dot</sym>
<type>store</type>
</wpt>
<wpt lat="49.031454" lon="-122.865225">
<name>Islands Cafe</name>
<cmt>coffee</cmt>
<desc>Café / Coffee</desc>
<sym>Dot</sym>
<type>food</type>
</wpt>
<wpt lat="49.031101" lon="-122.865529">
<name>Chan's Ocean Park</name>
<cmt>convenience_store</cmt>
<desc>Grocery Store</desc>
<sym>Dot</sym>
<type>store</type>
</wpt>
<wpt lat="49.033130" lon="-122.802368">
<name>Freshslice Pizza</name>
<cmt>food</cmt>
<desc>Fast Food / Chain</desc>
<sym>Dot</sym>
<type>food</type>
</wpt>
<wpt lat="49.031189" lon="-122.867002">
<name>Ocean Park Pizza &amp; Village Pub</name>
<cmt>food</cmt>
<desc>Restaurant</desc>
<sym>Dot</sym>
<type>food</type>
</wpt>
<wpt lat="49.031099" lon="-122.866204">
<name>Panago</name>
<cmt>food</cmt>
<desc>Fast Food / Chain</desc>
<sym>Dot</sym>
<type>food</type>
</wpt>
<wpt lat="49.034329" lon="-122.803076">
<name>Chevron</name>
<cmt>convenience_store</cmt>
<desc>Convenience Store</desc>
<sym>Dot</sym>
<type>store</type>
</wpt>
<wpt lat="49.032028" lon="-122.802057">
<name>COBS Bread</name>
<cmt>food</cmt>
<desc>Bakery / Donuts</desc>
<sym>Dot</sym>
<type>food</type>
</wpt>
<wpt lat="49.031730" lon="-122.802248">
<name>BC Liquor Store</name>
<cmt>convenience_store</cmt>
<desc>Liquor Store</desc>
<sym>Dot</sym>
<type>store</type>
</wpt>
<wpt lat="49.031886" lon="-122.802122">
<name>Hang Lee Wok</name>
<cmt>food</cmt>
<desc>Fast Food / Chain</desc>
<sym>Dot</sym>
<type>food</type>
</wpt>
<wpt lat="49.030959" lon="-122.867862">
<name>Sakuya Sushi</name>
<cmt>food</cmt>
<desc>Restaurant</desc>
<sym>Dot</sym>
<type>food</type>
</wpt>
<wpt lat="49.032039" lon="-122.801873">
<name>A&amp;W</name>
<cmt>food</cmt>
<desc>Fast Food / Chain</desc>
<sym>Dot</sym>
<type>food</type>
</wpt>
<wpt lat="49.032727" lon="-122.801470">
<name>White Spot</name>
<cmt>food</cmt>
<desc>Fast Food / Chain</desc>
<sym>Dot</sym>
<type>food</type>
</wpt>
<wpt lat="49.033615" lon="-122.801432">
<name>Tim Hortons</name>
<cmt>food</cmt>
<desc>Fast Food / Chain</desc>
<sym>Dot</sym>
<type>food</type>
</wpt>
<wpt lat="49.031518" lon="-122.801652">
<name>Sapporo Kitchen</name>
<cmt>food</cmt>
<desc>Restaurant</desc>
<sym>Dot</sym>
<type>food</type>
</wpt>
<wpt lat="49.033687" lon="-122.801433">
<name>Quiznos</name>
<cmt>food</cmt>
<desc>Fast Food / Chain</desc>
<sym>Dot</sym>
<type>food</type>
</wpt>
<wpt lat="49.033778" lon="-122.801414">
<name>Mary Brown's</name>
<cmt>food</cmt>
<desc>Fast Food / Chain</desc>
<sym>Dot</sym>
<type>food</type>
</wpt>
<wpt lat="49.033869" lon="-122.801446">
<name>Freshii</name>
<cmt>food</cmt>
<desc>Restaurant</desc>
<sym>Dot</sym>
<type>food</type>
</wpt>
<wpt lat="49.034256" lon="-122.801749">
<name>McDonald's</name>
<cmt>food</cmt>
<desc>Fast Food / Chain</desc>
<sym>Dot</sym>
<type>food</type>
</wpt>
<wpt lat="49.031353" lon="-122.801435">
<name>Brown's Socialhouse Semiahmoo</name>
<cmt>food</cmt>
<desc>Restaurant</desc>
<sym>Dot</sym>
<type>food</type>
</wpt>
<wpt lat="49.032556" lon="-122.800872">
<name>Leon's Cafe</name>
<cmt>coffee</cmt>
<desc>Café / Coffee</desc>
<sym>Dot</sym>
<type>food</type>
</wpt>
<wpt lat="49.033282" lon="-122.800891">
<name>House of Dosas</name>
<cmt>food</cmt>
<desc>Restaurant</desc>
<sym>Dot</sym>
<type>food</type>
</wpt>
<wpt lat="49.033342" lon="-122.800887">
<name>Ay Chihuahua</name>
<cmt>food</cmt>
<desc>Restaurant</desc>
<sym>Dot</sym>
<type>food</type>
</wpt>
<wpt lat="49.033442" lon="-122.800879">
<name>Starbucks</name>
<cmt>food</cmt>
<desc>Fast Food / Chain</desc>
<sym>Dot</sym>
<type>food</type>
</wpt>
<wpt lat="49.034345" lon="-122.801453">
<name>Taco Del Mar</name>
<cmt>food</cmt>
<desc>Fast Food / Chain</desc>
<sym>Dot</sym>
<type>food</type>
</wpt>
<wpt lat="49.034390" lon="-122.801453">
<name>Subway</name>
<cmt>food</cmt>
<desc>Fast Food / Chain</desc>
<sym>Dot</sym>
<type>food</type>
</wpt>
<wpt lat="49.033606" lon="-122.800719">
<name>Pizza Hut</name>
<cmt>food</cmt>
<desc>Fast Food / Chain</desc>
<sym>Dot</sym>
<type>food</type>
</wpt>
<wpt lat="49.034084" lon="-122.800945">
<name>Popeyes</name>
<cmt>food</cmt>
<desc>Fast Food / Chain</desc>
<sym>Dot</sym>
<type>food</type>
</wpt>
<wpt lat="49.031489" lon="-122.846246">
<name>Skyline Market</name>
<cmt>convenience_store</cmt>
<desc>Convenience Store</desc>
<sym>Dot</sym>
<type>store</type>
</wpt>
<wpt lat="49.035145" lon="-122.801436">
<name>Semiahmoo Library</name>
<cmt>library</cmt>
<desc>Library</desc>
<sym>Dot</sym>
<type>info</type>
</wpt>
<wpt lat="49.034899" lon="-122.800882">
<name>Fruiticana</name>
<cmt>convenience_store</cmt>
<desc>Grocery Store</desc>
<sym>Dot</sym>
<type>store</type>
</wpt>
<wpt lat="49.030552" lon="-122.802952">
<name>Pelican Rouge</name>
<cmt>coffee</cmt>
<desc>Café / Coffee</desc>
<sym>Dot</sym>
<type>food</type>
</wpt>
<wpt lat="49.030548" lon="-122.802886">
<name>Tag Liquor Store</name>
<cmt>convenience_store</cmt>
<desc>Liquor Store</desc>
<sym>Dot</sym>
<type>store</type>
</wpt>
<wpt lat="49.030558" lon="-122.802693">
<name>Uptown Pizza</name>
<cmt>food</cmt>
<desc>Fast Food / Chain</desc>
<sym>Dot</sym>
<type>food</type>
</wpt>
<wpt lat="49.030013" lon="-122.814791">
<name>Eva Bene Butterfly Garden</name>
<cmt>park</cmt>
<desc>Park / Nature</desc>
<sym>Dot</sym>
<type>rest_area</type>
</wpt>
<wpt lat="49.030553" lon="-122.802040">
<name>Nature's Fare Markets</name>
<cmt>convenience_store</cmt>
<desc>Grocery Store</desc>
<sym>Dot</sym>
<type>store</type>
</wpt>
<wpt lat="49.029916" lon="-122.801838">
<name>Pizza Dough Therapy by Ojas Blend</name>
<cmt>food</cmt>
<desc>Fast Food / Chain</desc>
<sym>Dot</sym>
<type>food</type>
</wpt>
<wpt lat="49.030388" lon="-122.800953">
<name>Mashawee Lebanese Grill</name>
<cmt>food</cmt>
<desc>Fast Food / Chain</desc>
<sym>Dot</sym>
<type>food</type>
</wpt>
<wpt lat="49.030308" lon="-122.800952">
<name>Chez Christophe</name>
<cmt>coffee</cmt>
<desc>Café / Coffee</desc>
<sym>Dot</sym>
<type>food</type>
</wpt>
<wpt lat="49.029249" lon="-122.816709">
<name>Centennial Park Leisure Centre and Arena</name>
<cmt>rest_stop</cmt>
<desc>Community Centre</desc>
<sym>Dot</sym>
<type>rest_area</type>
</wpt>
<wpt lat="49.029446" lon="-122.802175">
<name>The Wooden Spoon Brunch &amp; Bistro</name>
<cmt>food</cmt>
<desc>Restaurant</desc>
<sym>Dot</sym>
<type>food</type>
</wpt>
<wpt lat="49.029594" lon="-122.801643">
<name>The Beer Shack</name>
<cmt>bar</cmt>
<desc>Brewery / Pub</desc>
<sym>Dot</sym>
<type>food</type>
</wpt>
<wpt lat="49.029443" lon="-122.801966">
<name>White Rock Beach Beer Brewery</name>
<cmt>food</cmt>
<desc>Food &amp; Drink</desc>
<sym>Dot</sym>
<type>food</type>
</wpt>
<wpt lat="49.029439" lon="-122.801830">
<name>White Rock Beach Beer</name>
<cmt>bar</cmt>
<desc>Brewery / Pub</desc>
<sym>Dot</sym>
<type>food</type>
</wpt>
<wpt lat="49.030816" lon="-122.834783">
<name>Tim Hortons</name>
<cmt>food</cmt>
<desc>Fast Food / Chain</desc>
<sym>Dot</sym>
<type>food</type>
</wpt>
<wpt lat="49.028796" lon="-122.816730">
<name>Horst and Emmy Werner Centre for Active Living</name>
<cmt>rest_stop</cmt>
<desc>Community Centre</desc>
<sym>Dot</sym>
<type>rest_area</type>
</wpt>
<wpt lat="49.029023" lon="-122.802083">
<name>White Rock Community Centre</name>
<cmt>rest_stop</cmt>
<desc>Community Centre</desc>
<sym>Dot</sym>
<type>rest_area</type>
</wpt>
<wpt lat="49.030776" lon="-122.799352">
<name>Silver Dragon Restaurant</name>
<cmt>food</cmt>
<desc>Restaurant</desc>
<sym>Dot</sym>
<type>food</type>
</wpt>
<trk><name>Ocean Park - Semiahmoo Neighbourhood Bike Route</name>
<trkseg>
<trkpt lat="49.033081" lon="-122.867519"/>
<trkpt lat="49.033072" lon="-122.864585"/>
<trkpt lat="49.032374" lon="-122.863488"/>
<trkpt lat="49.032325" lon="-122.861998"/>
<trkpt lat="49.032229" lon="-122.860853"/>
<trkpt lat="49.032427" lon="-122.860182"/>
<trkpt lat="49.032204" lon="-122.859851"/>
<trkpt lat="49.031983" lon="-122.859405"/>
<trkpt lat="49.031956" lon="-122.859368"/>
<trkpt lat="49.031607" lon="-122.859289"/>
</trkseg>
<trkseg>
<trkpt lat="49.031607" lon="-122.859289"/>
<trkpt lat="49.031850" lon="-122.858549"/>
<trkpt lat="49.031888" lon="-122.858518"/>
<trkpt lat="49.032000" lon="-122.857947"/>
<trkpt lat="49.031806" lon="-122.856463"/>
</trkseg>
<trkseg>
<trkpt lat="49.031806" lon="-122.856463"/>
<trkpt lat="49.032221" lon="-122.856177"/>
</trkseg>
<trkseg>
<trkpt lat="49.032221" lon="-122.856177"/>
<trkpt lat="49.031806" lon="-122.856463"/>
</trkseg>
<trkseg>
<trkpt lat="49.032221" lon="-122.856177"/>
<trkpt lat="49.032277" lon="-122.856103"/>
<trkpt lat="49.033511" lon="-122.854624"/>
<trkpt lat="49.033103" lon="-122.852991"/>
<trkpt lat="49.033208" lon="-122.851652"/>
<trkpt lat="49.033569" lon="-122.850960"/>
<trkpt lat="49.034484" lon="-122.850332"/>
<trkpt lat="49.034869" lon="-122.849571"/>
<trkpt lat="49.034866" lon="-122.845457"/>
<trkpt lat="49.034869" lon="-122.843972"/>
<trkpt lat="49.034860" lon="-122.841917"/>
<trkpt lat="49.034849" lon="-122.837217"/>
<trkpt lat="49.034841" lon="-122.834375"/>
<trkpt lat="49.034809" lon="-122.834375"/>
<trkpt lat="49.034730" lon="-122.832272"/>
<trkpt lat="49.034289" lon="-122.831244"/>
<trkpt lat="49.034490" lon="-122.829594"/>
<trkpt lat="49.035218" lon="-122.829947"/>
<trkpt lat="49.035929" lon="-122.829953"/>
<trkpt lat="49.035904" lon="-122.827935"/>
<trkpt lat="49.035086" lon="-122.826058"/>
<trkpt lat="49.035082" lon="-122.824418"/>
<trkpt lat="49.034800" lon="-122.823309"/>
<trkpt lat="49.034791" lon="-122.820337"/>
<trkpt lat="49.032979" lon="-122.820333"/>
<trkpt lat="49.032977" lon="-122.817588"/>
<trkpt lat="49.032974" lon="-122.815301"/>
<trkpt lat="49.032965" lon="-122.812204"/>
<trkpt lat="49.032966" lon="-122.811372"/>
<trkpt lat="49.033159" lon="-122.810526"/>
<trkpt lat="49.034149" lon="-122.808950"/>
<trkpt lat="49.033103" lon="-122.807221"/>
<trkpt lat="49.032731" lon="-122.805082"/>
</trkseg>
<trkseg>
<trkpt lat="49.031271" lon="-122.859238"/>
<trkpt lat="49.031361" lon="-122.859252"/>
<trkpt lat="49.031607" lon="-122.859289"/>
</trkseg>
</trk>
</gpx>