<?xml version="1.0" encoding="UTF-8"?>
<gpx version="1.1" creator="BC Bike Stops (bccycletourism.ca)" xmlns="http://www.topografix.com/GPX/1/1">
<metadata>
<name>Gabriola Island — cycling stops</name>
<link href="https://bccycletourism.ca/route/isl-25/"><text>BC Bike Stops</text></link>
</metadata>
<wpt lat="49.186235" lon="-123.855010">
<name>Cyqule</name>
<cmt>bike_shop</cmt>
<desc>Rentals</desc>
<sym>Dot</sym>
<type>gear</type>
</wpt>
<wpt lat="49.200398" lon="-123.826945">
<name>Surf Lodge and Pub</name>
<cmt>food</cmt>
<desc>Restaurant</desc>
<sym>Dot</sym>
<type>food</type>
</wpt>
<wpt lat="49.182270" lon="-123.858959">
<name>Descanso Bay Regional Park</name>
<cmt>camping</cmt>
<desc>Public Campground</desc>
<sym>Dot</sym>
<type>campsite</type>
</wpt>
</gpx>