<?xml version="1.0" encoding="UTF-8"?>
<gpx version="1.1" creator="We Welcome Cyclists (bccycletourism.ca)" xmlns="http://www.topografix.com/GPX/1/1">
<metadata>
<name>148 Street</name>
<link href="https://bccycletourism.ca/trail/148-street/"><text>We Welcome Cyclists</text></link>
</metadata>
<wpt lat="49.169641" lon="-122.812621">
<name>Nagoya</name>
<cmt>food</cmt>
<desc>Restaurant</desc>
<sym>Dot</sym>
<type>food</type>
</wpt>
<wpt lat="49.169905" lon="-122.812622">
<name>Gate-Way Pizza</name>
<cmt>food</cmt>
<desc>Fast Food / Chain</desc>
<sym>Dot</sym>
<type>food</type>
</wpt>
<wpt lat="49.169489" lon="-122.812628">
<name>Green Timbers Pub</name>
<cmt>bar</cmt>
<desc>Brewery / Pub</desc>
<sym>Dot</sym>
<type>food</type>
</wpt>
<wpt lat="49.199225" lon="-122.812933">
<name>Tom's Food Market</name>
<cmt>convenience_store</cmt>
<desc>Convenience Store</desc>
<sym>Dot</sym>
<type>store</type>
</wpt>
<wpt lat="49.198074" lon="-122.812044">
<name>Subway</name>
<cmt>food</cmt>
<desc>Fast Food / Chain</desc>
<sym>Dot</sym>
<type>food</type>
</wpt>
<wpt lat="49.199032" lon="-122.812957">
<name>A1 Coffee &amp; Donuts</name>
<cmt>food</cmt>
<desc>Bakery / Donuts</desc>
<sym>Dot</sym>
<type>food</type>
</wpt>
<wpt lat="49.189397" lon="-122.812471">
<name>Hjorth Road Swimming Pool</name>
<cmt>rest_stop</cmt>
<desc>Community Centre</desc>
<sym>Dot</sym>
<type>rest_area</type>
</wpt>
<wpt lat="49.198242" lon="-122.811976">
<name>Donair Affair</name>
<cmt>food</cmt>
<desc>Fast Food / Chain</desc>
<sym>Dot</sym>
<type>food</type>
</wpt>
<wpt lat="49.198426" lon="-122.811972">
<name>Circle K</name>
<cmt>convenience_store</cmt>
<desc>Convenience Store</desc>
<sym>Dot</sym>
<type>store</type>
</wpt>
<wpt lat="49.196008" lon="-122.811927">
<name>Holly Outdoor Pool</name>
<cmt>rest_stop</cmt>
<desc>Community Centre</desc>
<sym>Dot</sym>
<type>rest_area</type>
</wpt>
<wpt lat="49.199061" lon="-122.813449">
<name>Cabizerra Bistro</name>
<cmt>food</cmt>
<desc>Restaurant</desc>
<sym>Dot</sym>
<type>food</type>
</wpt>
<wpt lat="49.198991" lon="-122.811544">
<name>Jolly Mac's</name>
<cmt>bar</cmt>
<desc>Brewery / Pub</desc>
<sym>Dot</sym>
<type>food</type>
</wpt>
<wpt lat="49.199643" lon="-122.811558">
<name>Mauna Sushi</name>
<cmt>food</cmt>
<desc>Restaurant</desc>
<sym>Dot</sym>
<type>food</type>
</wpt>
<wpt lat="49.199042" lon="-122.813600">
<name>Al Baraka Specialty Foods &amp; Bakery LTD</name>
<cmt>convenience_store</cmt>
<desc>Convenience Store</desc>
<sym>Dot</sym>
<type>store</type>
</wpt>
<wpt lat="49.199643" lon="-122.811421">
<name>Panago</name>
<cmt>food</cmt>
<desc>Fast Food / Chain</desc>
<sym>Dot</sym>
<type>food</type>
</wpt>
<wpt lat="49.199432" lon="-122.813706">
<name>UR Restaurant</name>
<cmt>food</cmt>
<desc>Restaurant</desc>
<sym>Dot</sym>
<type>food</type>
</wpt>
<wpt lat="49.198910" lon="-122.813989">
<name>Dairy Queen</name>
<cmt>food</cmt>
<desc>Ice Cream</desc>
<sym>Dot</sym>
<type>food</type>
</wpt>
<wpt lat="49.198982" lon="-122.814281">
<name>Malaysian Hut</name>
<cmt>food</cmt>
<desc>Restaurant</desc>
<sym>Dot</sym>
<type>food</type>
</wpt>
<wpt lat="49.199590" lon="-122.810525">
<name>Buy-Low Foods</name>
<cmt>convenience_store</cmt>
<desc>Grocery Store</desc>
<sym>Dot</sym>
<type>store</type>
</wpt>
<wpt lat="49.198933" lon="-122.810257">
<name>Church's Chicken</name>
<cmt>food</cmt>
<desc>Fast Food / Chain</desc>
<sym>Dot</sym>
<type>food</type>
</wpt>
<wpt lat="49.191345" lon="-122.808944">
<name>Mar Mac Grocery</name>
<cmt>convenience_store</cmt>
<desc>Convenience Store</desc>
<sym>Dot</sym>
<type>store</type>
</wpt>
<wpt lat="49.199041" lon="-122.816089">
<name>Greek Island Pizza</name>
<cmt>food</cmt>
<desc>Fast Food / Chain</desc>
<sym>Dot</sym>
<type>food</type>
</wpt>
<wpt lat="49.191347" lon="-122.808659">
<name>Mek's Delight</name>
<cmt>food</cmt>
<desc>Restaurant</desc>
<sym>Dot</sym>
<type>food</type>
</wpt>
<wpt lat="49.199039" lon="-122.816416">
<name>Sarpanch Sweets &amp; Restaurant</name>
<cmt>food</cmt>
<desc>Restaurant</desc>
<sym>Dot</sym>
<type>food</type>
</wpt>
<wpt lat="49.199138" lon="-122.816616">
<name>Polonia Bakery &amp; Deli</name>
<cmt>food</cmt>
<desc>Bakery / Donuts</desc>
<sym>Dot</sym>
<type>food</type>
</wpt>
<wpt lat="49.191344" lon="-122.808309">
<name>Elvis Pizza</name>
<cmt>food</cmt>
<desc>Fast Food / Chain</desc>
<sym>Dot</sym>
<type>food</type>
</wpt>
<wpt lat="49.190625" lon="-122.816893">
<name>Real Canadian Superstore</name>
<cmt>convenience_store</cmt>
<desc>Grocery Store</desc>
<sym>Dot</sym>
<type>store</type>
</wpt>
<wpt lat="49.191259" lon="-122.807001">
<name>KC Fresh Market</name>
<cmt>convenience_store</cmt>
<desc>Grocery Store</desc>
<sym>Dot</sym>
<type>store</type>
</wpt>
<wpt lat="49.157927" lon="-122.818001">
<name>Price Creek Park</name>
<cmt>park</cmt>
<desc>Park / Nature</desc>
<sym>Dot</sym>
<type>rest_area</type>
</wpt>
<wpt lat="49.191151" lon="-122.806678">
<name>Sabai Thai Restaurant</name>
<cmt>food</cmt>
<desc>Restaurant</desc>
<sym>Dot</sym>
<type>food</type>
</wpt>
<wpt lat="49.188750" lon="-122.806166">
<name>Walmart Supercentre</name>
<cmt>convenience_store</cmt>
<desc>Grocery Store</desc>
<sym>Dot</sym>
<type>store</type>
</wpt>
<trk><name>148 Street</name>
<trkseg>
<trkpt lat="49.155534" lon="-122.812461"/>
<trkpt lat="49.155987" lon="-122.812459"/>
<trkpt lat="49.156047" lon="-122.812459"/>
<trkpt lat="49.157617" lon="-122.812449"/>
<trkpt lat="49.157755" lon="-122.812448"/>
<trkpt lat="49.158047" lon="-122.812448"/>
<trkpt lat="49.158224" lon="-122.812447"/>
<trkpt lat="49.160937" lon="-122.812425"/>
<trkpt lat="49.161281" lon="-122.812419"/>
<trkpt lat="49.162448" lon="-122.812389"/>
<trkpt lat="49.162770" lon="-122.812385"/>
<trkpt lat="49.162870" lon="-122.812383"/>
<trkpt lat="49.163210" lon="-122.812375"/>
<trkpt lat="49.169682" lon="-122.812325"/>
<trkpt lat="49.169941" lon="-122.812323"/>
<trkpt lat="49.169993" lon="-122.812322"/>
<trkpt lat="49.170181" lon="-122.812324"/>
<trkpt lat="49.170243" lon="-122.812324"/>
<trkpt lat="49.170359" lon="-122.812318"/>
<trkpt lat="49.170451" lon="-122.812317"/>
<trkpt lat="49.170659" lon="-122.812315"/>
<trkpt lat="49.170929" lon="-122.812311"/>
<trkpt lat="49.175420" lon="-122.812278"/>
</trkseg>
<trkseg>
<trkpt lat="49.175420" lon="-122.812278"/>
<trkpt lat="49.176010" lon="-122.812264"/>
</trkseg>
<trkseg>
<trkpt lat="49.176010" lon="-122.812264"/>
<trkpt lat="49.176392" lon="-122.812254"/>
<trkpt lat="49.176841" lon="-122.812245"/>
<trkpt lat="49.176937" lon="-122.812244"/>
<trkpt lat="49.177455" lon="-122.812231"/>
<trkpt lat="49.183418" lon="-122.812077"/>
<trkpt lat="49.183512" lon="-122.812073"/>
<trkpt lat="49.183944" lon="-122.812060"/>
<trkpt lat="49.184159" lon="-122.812053"/>
<trkpt lat="49.184996" lon="-122.812051"/>
<trkpt lat="49.186097" lon="-122.812033"/>
<trkpt lat="49.189831" lon="-122.811989"/>
<trkpt lat="49.190821" lon="-122.812391"/>
<trkpt lat="49.191451" lon="-122.812445"/>
<trkpt lat="49.191551" lon="-122.812444"/>
<trkpt lat="49.192092" lon="-122.812439"/>
<trkpt lat="49.192215" lon="-122.812438"/>
<trkpt lat="49.192425" lon="-122.812437"/>
<trkpt lat="49.192741" lon="-122.812433"/>
<trkpt lat="49.196498" lon="-122.812476"/>
<trkpt lat="49.198007" lon="-122.812489"/>
<trkpt lat="49.198241" lon="-122.812486"/>
<trkpt lat="49.198688" lon="-122.812495"/>
<trkpt lat="49.198771" lon="-122.812500"/>
<trkpt lat="49.199009" lon="-122.812512"/>
<trkpt lat="49.199281" lon="-122.812516"/>
<trkpt lat="49.200144" lon="-122.812559"/>
<trkpt lat="49.201957" lon="-122.812598"/>
<trkpt lat="49.202183" lon="-122.812602"/>
<trkpt lat="49.202433" lon="-122.812607"/>
<trkpt lat="49.205241" lon="-122.812774"/>
</trkseg>
<trkseg>
<trkpt lat="49.176010" lon="-122.812264"/>
<trkpt lat="49.175420" lon="-122.812278"/>
</trkseg>
</trk>
</gpx>