<?xml version="1.0" encoding="UTF-8"?>
<gpx version="1.1" creator="BC Bike Stops (bccycletourism.ca)" xmlns="http://www.topografix.com/GPX/1/1">
<metadata>
<name>Colebrook Road</name>
<link href="https://bccycletourism.ca/trail/colebrook-road/"><text>BC Bike Stops</text></link>
</metadata>
<wpt lat="49.093315" lon="-122.818887">
<name>Surrey Farms</name>
<cmt>convenience_store</cmt>
<desc>Farmers' Market</desc>
<sym>Dot</sym>
<type>store</type>
</wpt>
<wpt lat="49.096215" lon="-122.800020">
<name>Surrey Farms</name>
<cmt>convenience_store</cmt>
<desc>Farmers' Market</desc>
<sym>Dot</sym>
<type>store</type>
</wpt>
</gpx>