<?xml version="1.0" encoding="UTF-8"?>
<gpx version="1.1" creator="We Welcome Cyclists (bccycletourism.ca)" xmlns="http://www.topografix.com/GPX/1/1">
<metadata>
<name>Kettle Valley Rail Trail (Midway-Penticton)</name>
<link href="https://bccycletourism.ca/trail/kettle-valley-rail-trail-midway-penticton/"><text>We Welcome Cyclists</text></link>
</metadata>
<wpt lat="49.778290" lon="-119.308278">
<name>Kettle Valley Rail Trail</name>
<cmt>park</cmt>
<desc>Park / Nature</desc>
<sym>Dot</sym>
<type>rest_area</type>
</wpt>
<wpt lat="49.802547" lon="-119.312339">
<name>Myra Canyon Bicycle Rental and Tours Inc.</name>
<cmt>viewpoint</cmt>
<desc>Activity / Experience</desc>
<sym>Dot</sym>
<type>overlook</type>
</wpt>
<wpt lat="49.251316" lon="-119.008574">
<name>Little Dipper Hideaway B&amp;B &amp; Campground</name>
<cmt>camping</cmt>
<desc>Public Campground</desc>
<sym>Dot</sym>
<type>campsite</type>
</wpt>
<wpt lat="49.691108" lon="-119.535101">
<name>Chute Lake Lodge</name>
<cmt>camping</cmt>
<desc>Private Campground</desc>
<sym>Dot</sym>
<type>campsite</type>
</wpt>
<wpt lat="49.691292" lon="-119.535773">
<name>Chute Lake Lodge</name>
<cmt>lodging</cmt>
<desc>Hotel / Motel</desc>
<sym>Dot</sym>
<type>shelter</type>
</wpt>
<wpt lat="49.527540" lon="-119.562747">
<name>Abandoned Rail Brewing Co.</name>
<cmt>bar</cmt>
<desc>Brewery / Pub</desc>
<sym>Dot</sym>
<type>food</type>
</wpt>
<wpt lat="49.537291" lon="-119.562890">
<name>Hillside Winery Bistro</name>
<cmt>food</cmt>
<desc>Restaurant</desc>
<sym>Dot</sym>
<type>food</type>
</wpt>
<wpt lat="49.542266" lon="-119.565184">
<name>Laughing Stock Vineyards</name>
<cmt>winery</cmt>
<desc>Winery / Cidery</desc>
<sym>Dot</sym>
<type>food</type>
</wpt>
<wpt lat="49.537162" lon="-119.563057">
<name>Hillside Winery</name>
<cmt>winery</cmt>
<desc>Winery / Cidery</desc>
<sym>Dot</sym>
<type>food</type>
</wpt>
<wpt lat="49.505002" lon="-119.578083">
<name>Blackwood Lane Winery</name>
<cmt>winery</cmt>
<desc>Winery / Cidery</desc>
<sym>Dot</sym>
<type>food</type>
</wpt>
<wpt lat="49.539413" lon="-119.564678">
<name>Wesbert Winery</name>
<cmt>winery</cmt>
<desc>Winery / Cidery</desc>
<sym>Dot</sym>
<type>food</type>
</wpt>
<wpt lat="49.549948" lon="-119.563352">
<name>Terravista Vineyards</name>
<cmt>winery</cmt>
<desc>Winery / Cidery</desc>
<sym>Dot</sym>
<type>food</type>
</wpt>
<wpt lat="49.514864" lon="-119.575543">
<name>Munson Mountain Park</name>
<cmt>park</cmt>
<desc>Park / Nature</desc>
<sym>Dot</sym>
<type>rest_area</type>
</wpt>
<wpt lat="49.505076" lon="-119.585356">
<name>Rusty's</name>
<cmt>food</cmt>
<desc>Restaurant</desc>
<sym>Dot</sym>
<type>food</type>
</wpt>
<wpt lat="49.509751" lon="-119.573979">
<name>Monster Vinyards</name>
<cmt>convenience_store</cmt>
<desc>Liquor Store</desc>
<sym>Dot</sym>
<type>store</type>
</wpt>
<wpt lat="49.512641" lon="-119.573987">
<name>Poplar Grove Winery</name>
<cmt>winery</cmt>
<desc>Winery / Cidery</desc>
<sym>Dot</sym>
<type>food</type>
</wpt>
<wpt lat="49.523660" lon="-119.558818">
<name>Red Rooster</name>
<cmt>convenience_store</cmt>
<desc>Liquor Store</desc>
<sym>Dot</sym>
<type>store</type>
</wpt>
<wpt lat="49.522483" lon="-119.559106">
<name>Little Engine Wines</name>
<cmt>winery</cmt>
<desc>Winery / Cidery</desc>
<sym>Dot</sym>
<type>food</type>
</wpt>
<wpt lat="49.011501" lon="-118.785859">
<name>Kettle River Museum</name>
<cmt>monument</cmt>
<desc>Museum / Gallery</desc>
<sym>Dot</sym>
<type>info</type>
</wpt>
<wpt lat="49.605231" lon="-119.086514">
<name>Arlington Lake Campground</name>
<cmt>camping</cmt>
<desc>Public Campground</desc>
<sym>Dot</sym>
<type>campsite</type>
</wpt>
<wpt lat="49.115448" lon="-118.989354">
<name>Kettle Creek Campground</name>
<cmt>camping</cmt>
<desc>Public Campground</desc>
<sym>Dot</sym>
<type>campsite</type>
</wpt>
<wpt lat="49.065837" lon="-119.001385">
<name>Rock Creek Riverside Campground</name>
<cmt>camping</cmt>
<desc>Private Campground</desc>
<sym>Dot</sym>
<type>campsite</type>
</wpt>
<wpt lat="49.776447" lon="-119.172303">
<name>Hydraulic Lake Campground</name>
<cmt>camping</cmt>
<desc>Public Campground</desc>
<sym>Dot</sym>
<type>campsite</type>
</wpt>
<wpt lat="49.577297" lon="-119.576644">
<name>Lang Vineyards</name>
<cmt>winery</cmt>
<desc>Winery / Cidery</desc>
<sym>Dot</sym>
<type>food</type>
</wpt>
<wpt lat="49.597789" lon="-119.577206">
<name>Nichol Vineyard &amp; Estate Winery</name>
<cmt>winery</cmt>
<desc>Winery / Cidery</desc>
<sym>Dot</sym>
<type>food</type>
</wpt>
<wpt lat="49.594955" lon="-119.575360">
<name>Daydreamer Wines</name>
<cmt>winery</cmt>
<desc>Winery / Cidery</desc>
<sym>Dot</sym>
<type>food</type>
</wpt>
<trk><name>Kettle Valley Rail Trail (Midway-Penticton)</name>
<trkseg>
<trkpt lat="49.504966" lon="-119.579942"/>
<trkpt lat="49.507708" lon="-119.578933"/>
<trkpt lat="49.509764" lon="-119.579664"/>
<trkpt lat="49.512070" lon="-119.579902"/>
<trkpt lat="49.513894" lon="-119.579619"/>
<trkpt lat="49.520636" lon="-119.575832"/>
<trkpt lat="49.521904" lon="-119.574778"/>
<trkpt lat="49.523003" lon="-119.572467"/>
<trkpt lat="49.523234" lon="-119.570925"/>
<trkpt lat="49.522571" lon="-119.568596"/>
<trkpt lat="49.522529" lon="-119.566984"/>
<trkpt lat="49.522930" lon="-119.565963"/>
<trkpt lat="49.523868" lon="-119.564832"/>
<trkpt lat="49.526890" lon="-119.563702"/>
<trkpt lat="49.529029" lon="-119.561788"/>
<trkpt lat="49.532285" lon="-119.562347"/>
<trkpt lat="49.533374" lon="-119.562093"/>
<trkpt lat="49.533642" lon="-119.562022"/>
<trkpt lat="49.534976" lon="-119.561717"/>
<trkpt lat="49.537843" lon="-119.562567"/>
<trkpt lat="49.540749" lon="-119.562562"/>
<trkpt lat="49.542804" lon="-119.565066"/>
<trkpt lat="49.545025" lon="-119.566035"/>
<trkpt lat="49.547464" lon="-119.565875"/>
<trkpt lat="49.553476" lon="-119.567243"/>
<trkpt lat="49.555918" lon="-119.567112"/>
<trkpt lat="49.556690" lon="-119.567498"/>
<trkpt lat="49.558663" lon="-119.569367"/>
<trkpt lat="49.561352" lon="-119.568967"/>
<trkpt lat="49.571552" lon="-119.574091"/>
<trkpt lat="49.575886" lon="-119.573341"/>
<trkpt lat="49.579295" lon="-119.573718"/>
<trkpt lat="49.584401" lon="-119.570848"/>
<trkpt lat="49.585102" lon="-119.570197"/>
</trkseg>
<trkseg>
<trkpt lat="49.585948" lon="-119.569910"/>
<trkpt lat="49.588667" lon="-119.567864"/>
<trkpt lat="49.591848" lon="-119.567504"/>
<trkpt lat="49.593677" lon="-119.565490"/>
<trkpt lat="49.594414" lon="-119.565450"/>
<trkpt lat="49.595214" lon="-119.566272"/>
<trkpt lat="49.596885" lon="-119.570012"/>
<trkpt lat="49.599786" lon="-119.571687"/>
<trkpt lat="49.600282" lon="-119.572795"/>
<trkpt lat="49.600469" lon="-119.574945"/>
<trkpt lat="49.601138" lon="-119.575909"/>
<trkpt lat="49.606014" lon="-119.577110"/>
<trkpt lat="49.608582" lon="-119.578260"/>
<trkpt lat="49.611206" lon="-119.578133"/>
<trkpt lat="49.615753" lon="-119.579252"/>
<trkpt lat="49.617623" lon="-119.581051"/>
<trkpt lat="49.618587" lon="-119.583187"/>
<trkpt lat="49.619960" lon="-119.584294"/>
<trkpt lat="49.622096" lon="-119.589803"/>
<trkpt lat="49.624477" lon="-119.592140"/>
<trkpt lat="49.626174" lon="-119.595629"/>
<trkpt lat="49.626828" lon="-119.598602"/>
<trkpt lat="49.627123" lon="-119.599335"/>
<trkpt lat="49.628350" lon="-119.599969"/>
<trkpt lat="49.629315" lon="-119.599652"/>
<trkpt lat="49.629838" lon="-119.599576"/>
<trkpt lat="49.632363" lon="-119.599890"/>
<trkpt lat="49.635822" lon="-119.599178"/>
<trkpt lat="49.639954" lon="-119.601981"/>
<trkpt lat="49.640814" lon="-119.602285"/>
<trkpt lat="49.641626" lon="-119.601940"/>
<trkpt lat="49.643029" lon="-119.600099"/>
<trkpt lat="49.643798" lon="-119.599955"/>
<trkpt lat="49.645510" lon="-119.600969"/>
<trkpt lat="49.647128" lon="-119.601408"/>
<trkpt lat="49.649674" lon="-119.603299"/>
<trkpt lat="49.650753" lon="-119.603767"/>
<trkpt lat="49.654055" lon="-119.602982"/>
<trkpt lat="49.657925" lon="-119.602809"/>
<trkpt lat="49.659255" lon="-119.603420"/>
<trkpt lat="49.661816" lon="-119.605873"/>
<trkpt lat="49.662999" lon="-119.605798"/>
<trkpt lat="49.663595" lon="-119.605041"/>
<trkpt lat="49.663935" lon="-119.603796"/>
<trkpt lat="49.663801" lon="-119.602566"/>
<trkpt lat="49.663280" lon="-119.601619"/>
<trkpt lat="49.662628" lon="-119.601205"/>
<trkpt lat="49.655746" lon="-119.601284"/>
<trkpt lat="49.647158" lon="-119.598214"/>
<trkpt lat="49.643526" lon="-119.596272"/>
<trkpt lat="49.642081" lon="-119.594244"/>
<trkpt lat="49.637401" lon="-119.590406"/>
<trkpt lat="49.636699" lon="-119.587547"/>
<trkpt lat="49.634653" lon="-119.584109"/>
<trkpt lat="49.634711" lon="-119.580753"/>
<trkpt lat="49.634361" lon="-119.579375"/>
<trkpt lat="49.630165" lon="-119.575189"/>
<trkpt lat="49.626884" lon="-119.570748"/>
<trkpt lat="49.625807" lon="-119.566938"/>
<trkpt lat="49.624876" lon="-119.565161"/>
<trkpt lat="49.623325" lon="-119.563950"/>
<trkpt lat="49.617370" lon="-119.563044"/>
<trkpt lat="49.616219" lon="-119.562612"/>
<trkpt lat="49.608152" lon="-119.555040"/>
<trkpt lat="49.606875" lon="-119.553627"/>
<trkpt lat="49.606638" lon="-119.552904"/>
<trkpt lat="49.606660" lon="-119.551357"/>
<trkpt lat="49.607349" lon="-119.550135"/>
<trkpt lat="49.608585" lon="-119.550078"/>
<trkpt lat="49.609669" lon="-119.551531"/>
<trkpt lat="49.609888" lon="-119.553898"/>
<trkpt lat="49.610076" lon="-119.555572"/>
<trkpt lat="49.614276" lon="-119.558377"/>
<trkpt lat="49.616916" lon="-119.558463"/>
<trkpt lat="49.620914" lon="-119.559477"/>
<trkpt lat="49.626395" lon="-119.558729"/>
<trkpt lat="49.628013" lon="-119.558995"/>
<trkpt lat="49.629041" lon="-119.559982"/>
<trkpt lat="49.631774" lon="-119.564546"/>
<trkpt lat="49.633855" lon="-119.565856"/>
<trkpt lat="49.634488" lon="-119.566589"/>
<trkpt lat="49.635912" lon="-119.569696"/>
<trkpt lat="49.636819" lon="-119.570430"/>
<trkpt lat="49.640264" lon="-119.571631"/>
<trkpt lat="49.641039" lon="-119.572296"/>
<trkpt lat="49.644167" lon="-119.579120"/>
<trkpt lat="49.645632" lon="-119.581169"/>
<trkpt lat="49.647475" lon="-119.582365"/>
<trkpt lat="49.654885" lon="-119.584375"/>
<trkpt lat="49.660436" lon="-119.583771"/>
<trkpt lat="49.663487" lon="-119.582384"/>
<trkpt lat="49.666242" lon="-119.579944"/>
<trkpt lat="49.673279" lon="-119.571101"/>
<trkpt lat="49.675431" lon="-119.566464"/>
<trkpt lat="49.678078" lon="-119.562393"/>
<trkpt lat="49.678582" lon="-119.560329"/>
<trkpt lat="49.679730" lon="-119.551356"/>
<trkpt lat="49.681818" lon="-119.547605"/>
<trkpt lat="49.682922" lon="-119.544078"/>
<trkpt lat="49.684525" lon="-119.542060"/>
<trkpt lat="49.684974" lon="-119.540784"/>
<trkpt lat="49.685029" lon="-119.540587"/>
<trkpt lat="49.685826" lon="-119.538534"/>
<trkpt lat="49.685886" lon="-119.538438"/>
<trkpt lat="49.686344" lon="-119.537664"/>
<trkpt lat="49.686408" lon="-119.537582"/>
<trkpt lat="49.686949" lon="-119.536908"/>
<trkpt lat="49.686994" lon="-119.536862"/>
<trkpt lat="49.688472" lon="-119.535788"/>
<trkpt lat="49.689649" lon="-119.535326"/>
<trkpt lat="49.689792" lon="-119.535291"/>
<trkpt lat="49.691219" lon="-119.534743"/>
<trkpt lat="49.695197" lon="-119.533376"/>
<trkpt lat="49.712916" lon="-119.530825"/>
<trkpt lat="49.722808" lon="-119.525653"/>
<trkpt lat="49.734097" lon="-119.524293"/>
<trkpt lat="49.734870" lon="-119.523899"/>
<trkpt lat="49.736437" lon="-119.522374"/>
<trkpt lat="49.738664" lon="-119.519840"/>
<trkpt lat="49.739007" lon="-119.519103"/>
<trkpt lat="49.740131" lon="-119.513862"/>
<trkpt lat="49.739931" lon="-119.510634"/>
<trkpt lat="49.741248" lon="-119.507635"/>
<trkpt lat="49.741291" lon="-119.505559"/>
<trkpt lat="49.741752" lon="-119.504304"/>
<trkpt lat="49.742322" lon="-119.503870"/>
<trkpt lat="49.745615" lon="-119.504056"/>
<trkpt lat="49.747117" lon="-119.501991"/>
<trkpt lat="49.747963" lon="-119.501472"/>
<trkpt lat="49.751291" lon="-119.497069"/>
<trkpt lat="49.751971" lon="-119.496683"/>
<trkpt lat="49.755150" lon="-119.496432"/>
<trkpt lat="49.757986" lon="-119.493338"/>
<trkpt lat="49.758307" lon="-119.492452"/>
<trkpt lat="49.758758" lon="-119.488772"/>
<trkpt lat="49.759953" lon="-119.487126"/>
<trkpt lat="49.760309" lon="-119.486055"/>
<trkpt lat="49.760941" lon="-119.474005"/>
<trkpt lat="49.760777" lon="-119.471167"/>
<trkpt lat="49.758803" lon="-119.459273"/>
<trkpt lat="49.757450" lon="-119.455951"/>
<trkpt lat="49.756384" lon="-119.451291"/>
<trkpt lat="49.755568" lon="-119.449380"/>
<trkpt lat="49.754508" lon="-119.447690"/>
<trkpt lat="49.751867" lon="-119.445822"/>
<trkpt lat="49.751376" lon="-119.444498"/>
<trkpt lat="49.751537" lon="-119.443073"/>
<trkpt lat="49.752174" lon="-119.442307"/>
<trkpt lat="49.755951" lon="-119.442059"/>
<trkpt lat="49.756856" lon="-119.440911"/>
<trkpt lat="49.756935" lon="-119.439902"/>
<trkpt lat="49.756133" lon="-119.436058"/>
<trkpt lat="49.755391" lon="-119.428427"/>
<trkpt lat="49.754938" lon="-119.426594"/>
<trkpt lat="49.751623" lon="-119.419973"/>
<trkpt lat="49.749497" lon="-119.417761"/>
<trkpt lat="49.748345" lon="-119.417345"/>
<trkpt lat="49.746383" lon="-119.417224"/>
<trkpt lat="49.745309" lon="-119.416594"/>
<trkpt lat="49.743440" lon="-119.414058"/>
<trkpt lat="49.741433" lon="-119.412291"/>
<trkpt lat="49.741221" lon="-119.411359"/>
<trkpt lat="49.741428" lon="-119.409743"/>
<trkpt lat="49.742160" lon="-119.408987"/>
<trkpt lat="49.743349" lon="-119.409255"/>
<trkpt lat="49.746972" lon="-119.411037"/>
<trkpt lat="49.748539" lon="-119.411152"/>
<trkpt lat="49.750515" lon="-119.412497"/>
<trkpt lat="49.757998" lon="-119.414207"/>
<trkpt lat="49.761969" lon="-119.415744"/>
<trkpt lat="49.764777" lon="-119.417213"/>
<trkpt lat="49.765636" lon="-119.417255"/>
<trkpt lat="49.770000" lon="-119.415618"/>
<trkpt lat="49.771446" lon="-119.413220"/>
<trkpt lat="49.772828" lon="-119.411839"/>
<trkpt lat="49.773394" lon="-119.410880"/>
<trkpt lat="49.774417" lon="-119.407859"/>
<trkpt lat="49.775611" lon="-119.405546"/>
<trkpt lat="49.776672" lon="-119.402293"/>
<trkpt lat="49.778798" lon="-119.397560"/>
<trkpt lat="49.780194" lon="-119.392470"/>
<trkpt lat="49.782395" lon="-119.387059"/>
<trkpt lat="49.784036" lon="-119.380439"/>
<trkpt lat="49.784142" lon="-119.378139"/>
<trkpt lat="49.784435" lon="-119.376899"/>
<trkpt lat="49.785330" lon="-119.375745"/>
<trkpt lat="49.789186" lon="-119.372479"/>
<trkpt lat="49.791217" lon="-119.369400"/>
<trkpt lat="49.793786" lon="-119.361929"/>
<trkpt lat="49.794684" lon="-119.358228"/>
<trkpt lat="49.795309" lon="-119.355287"/>
<trkpt lat="49.795601" lon="-119.351214"/>
<trkpt lat="49.795325" lon="-119.349213"/>
<trkpt lat="49.794383" lon="-119.345536"/>
<trkpt lat="49.793759" lon="-119.344330"/>
<trkpt lat="49.793256" lon="-119.343553"/>
<trkpt lat="49.791864" lon="-119.340546"/>
<trkpt lat="49.791831" lon="-119.339304"/>
<trkpt lat="49.792712" lon="-119.337616"/>
<trkpt lat="49.795162" lon="-119.334680"/>
<trkpt lat="49.795434" lon="-119.333324"/>
<trkpt lat="49.795086" lon="-119.332066"/>
<trkpt lat="49.794343" lon="-119.330943"/>
<trkpt lat="49.793677" lon="-119.329276"/>
<trkpt lat="49.793092" lon="-119.328633"/>
<trkpt lat="49.792164" lon="-119.327747"/>
<trkpt lat="49.791068" lon="-119.326843"/>
<trkpt lat="49.788998" lon="-119.327644"/>
<trkpt lat="49.788477" lon="-119.327492"/>
<trkpt lat="49.787887" lon="-119.326890"/>
<trkpt lat="49.786840" lon="-119.324989"/>
<trkpt lat="49.784998" lon="-119.323293"/>
<trkpt lat="49.784290" lon="-119.323021"/>
<trkpt lat="49.783027" lon="-119.323287"/>
<trkpt lat="49.780295" lon="-119.325007"/>
<trkpt lat="49.779570" lon="-119.325153"/>
<trkpt lat="49.778973" lon="-119.325469"/>
<trkpt lat="49.778254" lon="-119.326516"/>
<trkpt lat="49.776944" lon="-119.327171"/>
<trkpt lat="49.774422" lon="-119.328752"/>
<trkpt lat="49.774240" lon="-119.328892"/>
<trkpt lat="49.774049" lon="-119.329000"/>
<trkpt lat="49.773154" lon="-119.328877"/>
<trkpt lat="49.772482" lon="-119.327695"/>
<trkpt lat="49.772392" lon="-119.325646"/>
<trkpt lat="49.772724" lon="-119.324690"/>
<trkpt lat="49.775540" lon="-119.322080"/>
<trkpt lat="49.776024" lon="-119.321061"/>
<trkpt lat="49.777937" lon="-119.319522"/>
<trkpt lat="49.778383" lon="-119.318225"/>
<trkpt lat="49.778368" lon="-119.316918"/>
<trkpt lat="49.777693" lon="-119.315642"/>
<trkpt lat="49.776293" lon="-119.314907"/>
<trkpt lat="49.775230" lon="-119.313793"/>
<trkpt lat="49.774682" lon="-119.312751"/>
<trkpt lat="49.773814" lon="-119.309773"/>
<trkpt lat="49.773798" lon="-119.308256"/>
<trkpt lat="49.774143" lon="-119.307451"/>
<trkpt lat="49.774315" lon="-119.307245"/>
<trkpt lat="49.775355" lon="-119.306979"/>
<trkpt lat="49.776606" lon="-119.308319"/>
<trkpt lat="49.777167" lon="-119.308596"/>
<trkpt lat="49.777444" lon="-119.308613"/>
<trkpt lat="49.778290" lon="-119.308278"/>
<trkpt lat="49.779289" lon="-119.306759"/>
<trkpt lat="49.779655" lon="-119.304705"/>
<trkpt lat="49.779974" lon="-119.304034"/>
<trkpt lat="49.780588" lon="-119.303547"/>
<trkpt lat="49.781483" lon="-119.303764"/>
<trkpt lat="49.782145" lon="-119.305171"/>
<trkpt lat="49.782160" lon="-119.307029"/>
<trkpt lat="49.782581" lon="-119.307722"/>
<trkpt lat="49.783607" lon="-119.308306"/>
<trkpt lat="49.784039" lon="-119.308114"/>
<trkpt lat="49.784254" lon="-119.307985"/>
<trkpt lat="49.784943" lon="-119.307576"/>
<trkpt lat="49.786379" lon="-119.307816"/>
<trkpt lat="49.787151" lon="-119.308034"/>
<trkpt lat="49.787619" lon="-119.308361"/>
<trkpt lat="49.788053" lon="-119.309106"/>
<trkpt lat="49.788154" lon="-119.309510"/>
<trkpt lat="49.788286" lon="-119.310091"/>
<trkpt lat="49.788376" lon="-119.310423"/>
<trkpt lat="49.788486" lon="-119.310785"/>
<trkpt lat="49.788657" lon="-119.311168"/>
<trkpt lat="49.788804" lon="-119.311435"/>
<trkpt lat="49.789377" lon="-119.312054"/>
<trkpt lat="49.790642" lon="-119.312500"/>
<trkpt lat="49.791675" lon="-119.311907"/>
<trkpt lat="49.792097" lon="-119.311555"/>
<trkpt lat="49.793115" lon="-119.310774"/>
<trkpt lat="49.794108" lon="-119.310760"/>
<trkpt lat="49.794825" lon="-119.311851"/>
<trkpt lat="49.795319" lon="-119.313395"/>
<trkpt lat="49.796110" lon="-119.314085"/>
<trkpt lat="49.797940" lon="-119.313792"/>
<trkpt lat="49.799300" lon="-119.312579"/>
<trkpt lat="49.800097" lon="-119.312173"/>
<trkpt lat="49.800314" lon="-119.312464"/>
</trkseg>
<trkseg>
<trkpt lat="49.800314" lon="-119.312464"/>
<trkpt lat="49.801216" lon="-119.313125"/>
<trkpt lat="49.801626" lon="-119.312627"/>
</trkseg>
<trkseg>
<trkpt lat="49.801626" lon="-119.312627"/>
<trkpt lat="49.803869" lon="-119.311891"/>
<trkpt lat="49.805804" lon="-119.311103"/>
<trkpt lat="49.807126" lon="-119.309773"/>
<trkpt lat="49.807667" lon="-119.308410"/>
<trkpt lat="49.807594" lon="-119.307041"/>
<trkpt lat="49.806881" lon="-119.304471"/>
<trkpt lat="49.807569" lon="-119.300721"/>
<trkpt lat="49.807634" lon="-119.297285"/>
<trkpt lat="49.806764" lon="-119.292226"/>
<trkpt lat="49.806014" lon="-119.290837"/>
<trkpt lat="49.805682" lon="-119.289609"/>
<trkpt lat="49.805756" lon="-119.288541"/>
<trkpt lat="49.807057" lon="-119.286275"/>
<trkpt lat="49.807298" lon="-119.284893"/>
<trkpt lat="49.804813" lon="-119.275963"/>
<trkpt lat="49.804418" lon="-119.267808"/>
<trkpt lat="49.803767" lon="-119.263955"/>
<trkpt lat="49.804530" lon="-119.260658"/>
<trkpt lat="49.804586" lon="-119.259233"/>
<trkpt lat="49.804286" lon="-119.258143"/>
<trkpt lat="49.803073" lon="-119.255957"/>
<trkpt lat="49.802561" lon="-119.252953"/>
<trkpt lat="49.801939" lon="-119.251330"/>
<trkpt lat="49.801759" lon="-119.250068"/>
<trkpt lat="49.801968" lon="-119.248935"/>
<trkpt lat="49.802583" lon="-119.247989"/>
<trkpt lat="49.809279" lon="-119.244867"/>
<trkpt lat="49.810028" lon="-119.243958"/>
<trkpt lat="49.810250" lon="-119.241957"/>
<trkpt lat="49.808803" lon="-119.238165"/>
<trkpt lat="49.808957" lon="-119.236896"/>
<trkpt lat="49.810457" lon="-119.233196"/>
<trkpt lat="49.810411" lon="-119.231621"/>
<trkpt lat="49.809959" lon="-119.230701"/>
<trkpt lat="49.808130" lon="-119.228583"/>
<trkpt lat="49.807298" lon="-119.224557"/>
<trkpt lat="49.805661" lon="-119.221552"/>
<trkpt lat="49.804952" lon="-119.220953"/>
<trkpt lat="49.803526" lon="-119.220712"/>
<trkpt lat="49.802554" lon="-119.220002"/>
<trkpt lat="49.799920" lon="-119.215853"/>
<trkpt lat="49.798258" lon="-119.210973"/>
<trkpt lat="49.796113" lon="-119.206134"/>
<trkpt lat="49.794680" lon="-119.193853"/>
<trkpt lat="49.794101" lon="-119.192119"/>
<trkpt lat="49.792860" lon="-119.190445"/>
<trkpt lat="49.789138" lon="-119.188793"/>
<trkpt lat="49.787282" lon="-119.186022"/>
<trkpt lat="49.784954" lon="-119.185216"/>
<trkpt lat="49.783880" lon="-119.183922"/>
<trkpt lat="49.781814" lon="-119.177671"/>
<trkpt lat="49.780542" lon="-119.173557"/>
<trkpt lat="49.779921" lon="-119.172411"/>
<trkpt lat="49.776914" lon="-119.170557"/>
<trkpt lat="49.773500" lon="-119.166770"/>
<trkpt lat="49.770064" lon="-119.160307"/>
<trkpt lat="49.766658" lon="-119.150346"/>
<trkpt lat="49.761877" lon="-119.141470"/>
<trkpt lat="49.759274" lon="-119.138817"/>
<trkpt lat="49.758880" lon="-119.137369"/>
<trkpt lat="49.758550" lon="-119.130936"/>
<trkpt lat="49.758244" lon="-119.130059"/>
<trkpt lat="49.757439" lon="-119.129145"/>
<trkpt lat="49.756710" lon="-119.128994"/>
<trkpt lat="49.751437" lon="-119.130919"/>
<trkpt lat="49.749339" lon="-119.131374"/>
<trkpt lat="49.743710" lon="-119.131798"/>
<trkpt lat="49.741385" lon="-119.133348"/>
<trkpt lat="49.739184" lon="-119.132654"/>
<trkpt lat="49.737415" lon="-119.133085"/>
<trkpt lat="49.735390" lon="-119.132471"/>
<trkpt lat="49.734674" lon="-119.133078"/>
<trkpt lat="49.734367" lon="-119.133838"/>
<trkpt lat="49.734542" lon="-119.136338"/>
<trkpt lat="49.734294" lon="-119.137676"/>
<trkpt lat="49.733840" lon="-119.138327"/>
<trkpt lat="49.731727" lon="-119.139657"/>
<trkpt lat="49.730938" lon="-119.139380"/>
<trkpt lat="49.728777" lon="-119.137646"/>
<trkpt lat="49.726591" lon="-119.137186"/>
<trkpt lat="49.723713" lon="-119.132971"/>
<trkpt lat="49.722621" lon="-119.129780"/>
<trkpt lat="49.720197" lon="-119.125127"/>
<trkpt lat="49.718593" lon="-119.120875"/>
<trkpt lat="49.716627" lon="-119.119274"/>
<trkpt lat="49.714938" lon="-119.116306"/>
<trkpt lat="49.714382" lon="-119.115794"/>
<trkpt lat="49.712050" lon="-119.115729"/>
<trkpt lat="49.710216" lon="-119.113441"/>
<trkpt lat="49.708519" lon="-119.113075"/>
<trkpt lat="49.706560" lon="-119.111576"/>
<trkpt lat="49.705134" lon="-119.111532"/>
<trkpt lat="49.703168" lon="-119.110253"/>
<trkpt lat="49.699154" lon="-119.108820"/>
<trkpt lat="49.697810" lon="-119.108035"/>
<trkpt lat="49.695652" lon="-119.108637"/>
<trkpt lat="49.693291" lon="-119.107329"/>
<trkpt lat="49.692355" lon="-119.107650"/>
<trkpt lat="49.690622" lon="-119.108922"/>
<trkpt lat="49.690119" lon="-119.108020"/>
<trkpt lat="49.689424" lon="-119.107636"/>
<trkpt lat="49.687252" lon="-119.108089"/>
<trkpt lat="49.685188" lon="-119.105965"/>
<trkpt lat="49.682025" lon="-119.104477"/>
<trkpt lat="49.679861" lon="-119.104485"/>
<trkpt lat="49.677251" lon="-119.103213"/>
<trkpt lat="49.674013" lon="-119.103403"/>
<trkpt lat="49.671600" lon="-119.102811"/>
<trkpt lat="49.669956" lon="-119.102903"/>
<trkpt lat="49.666526" lon="-119.101363"/>
<trkpt lat="49.663068" lon="-119.097260"/>
<trkpt lat="49.659830" lon="-119.095112"/>
<trkpt lat="49.659132" lon="-119.094335"/>
<trkpt lat="49.658548" lon="-119.092633"/>
<trkpt lat="49.657426" lon="-119.085956"/>
<trkpt lat="49.654222" lon="-119.079723"/>
<trkpt lat="49.652424" lon="-119.078130"/>
<trkpt lat="49.651028" lon="-119.075812"/>
<trkpt lat="49.647358" lon="-119.073517"/>
<trkpt lat="49.646195" lon="-119.072486"/>
<trkpt lat="49.644609" lon="-119.072610"/>
<trkpt lat="49.642832" lon="-119.073575"/>
<trkpt lat="49.641399" lon="-119.074723"/>
<trkpt lat="49.638973" lon="-119.077440"/>
<trkpt lat="49.637481" lon="-119.077187"/>
<trkpt lat="49.636801" lon="-119.077457"/>
<trkpt lat="49.635412" lon="-119.079058"/>
<trkpt lat="49.632824" lon="-119.080740"/>
<trkpt lat="49.631508" lon="-119.082830"/>
<trkpt lat="49.630572" lon="-119.083569"/>
<trkpt lat="49.617304" lon="-119.085177"/>
<trkpt lat="49.614957" lon="-119.086222"/>
<trkpt lat="49.614175" lon="-119.086259"/>
<trkpt lat="49.612099" lon="-119.085089"/>
<trkpt lat="49.611233" lon="-119.084944"/>
<trkpt lat="49.608279" lon="-119.086919"/>
<trkpt lat="49.607395" lon="-119.087254"/>
<trkpt lat="49.604237" lon="-119.086743"/>
<trkpt lat="49.599614" lon="-119.086259"/>
<trkpt lat="49.599490" lon="-119.086259"/>
<trkpt lat="49.598427" lon="-119.086551"/>
<trkpt lat="49.596699" lon="-119.088083"/>
<trkpt lat="49.594316" lon="-119.088390"/>
<trkpt lat="49.592693" lon="-119.090137"/>
<trkpt lat="49.590711" lon="-119.090759"/>
<trkpt lat="49.588094" lon="-119.091073"/>
<trkpt lat="49.586939" lon="-119.091606"/>
<trkpt lat="49.585133" lon="-119.091212"/>
<trkpt lat="49.581317" lon="-119.091789"/>
<trkpt lat="49.578868" lon="-119.092659"/>
<trkpt lat="49.575944" lon="-119.090700"/>
<trkpt lat="49.574942" lon="-119.090525"/>
<trkpt lat="49.574219" lon="-119.090992"/>
<trkpt lat="49.572632" lon="-119.092842"/>
<trkpt lat="49.571353" lon="-119.093339"/>
<trkpt lat="49.567083" lon="-119.092031"/>
<trkpt lat="49.562353" lon="-119.089867"/>
<trkpt lat="49.561410" lon="-119.090196"/>
<trkpt lat="49.559963" lon="-119.092418"/>
<trkpt lat="49.558179" lon="-119.093149"/>
<trkpt lat="49.554889" lon="-119.091928"/>
<trkpt lat="49.552619" lon="-119.092504"/>
<trkpt lat="49.547911" lon="-119.092460"/>
<trkpt lat="49.544489" lon="-119.092826"/>
<trkpt lat="49.540805" lon="-119.090852"/>
<trkpt lat="49.538979" lon="-119.090254"/>
<trkpt lat="49.537486" lon="-119.087796"/>
<trkpt lat="49.536535" lon="-119.086904"/>
<trkpt lat="49.535731" lon="-119.086627"/>
<trkpt lat="49.529283" lon="-119.088951"/>
<trkpt lat="49.525971" lon="-119.092504"/>
<trkpt lat="49.523712" lon="-119.095480"/>
<trkpt lat="49.522462" lon="-119.098280"/>
<trkpt lat="49.521322" lon="-119.099896"/>
<trkpt lat="49.520393" lon="-119.103938"/>
<trkpt lat="49.518612" lon="-119.107269"/>
<trkpt lat="49.517440" lon="-119.110832"/>
<trkpt lat="49.516343" lon="-119.112536"/>
<trkpt lat="49.514749" lon="-119.116271"/>
<trkpt lat="49.514091" lon="-119.119035"/>
<trkpt lat="49.514091" lon="-119.120599"/>
<trkpt lat="49.514508" lon="-119.121740"/>
<trkpt lat="49.517462" lon="-119.126587"/>
<trkpt lat="49.517600" lon="-119.127932"/>
<trkpt lat="49.517096" lon="-119.130937"/>
<trkpt lat="49.517033" lon="-119.134823"/>
<trkpt lat="49.517791" lon="-119.137129"/>
<trkpt lat="49.518295" lon="-119.140711"/>
<trkpt lat="49.518847" lon="-119.141554"/>
<trkpt lat="49.520890" lon="-119.142758"/>
<trkpt lat="49.522214" lon="-119.145302"/>
<trkpt lat="49.525116" lon="-119.149009"/>
<trkpt lat="49.527492" lon="-119.149974"/>
<trkpt lat="49.528216" lon="-119.151144"/>
<trkpt lat="49.528296" lon="-119.152628"/>
<trkpt lat="49.527426" lon="-119.156656"/>
<trkpt lat="49.527441" lon="-119.157548"/>
<trkpt lat="49.530504" lon="-119.164829"/>
<trkpt lat="49.530701" lon="-119.166196"/>
<trkpt lat="49.530614" lon="-119.169333"/>
<trkpt lat="49.530891" lon="-119.171021"/>
<trkpt lat="49.534076" lon="-119.176530"/>
<trkpt lat="49.534345" lon="-119.177357"/>
<trkpt lat="49.534233" lon="-119.178716"/>
<trkpt lat="49.534124" lon="-119.178967"/>
<trkpt lat="49.533335" lon="-119.179747"/>
<trkpt lat="49.532714" lon="-119.179676"/>
<trkpt lat="49.531025" lon="-119.177062"/>
<trkpt lat="49.530235" lon="-119.175141"/>
<trkpt lat="49.528334" lon="-119.168232"/>
<trkpt lat="49.527596" lon="-119.164606"/>
<trkpt lat="49.522683" lon="-119.158319"/>
<trkpt lat="49.520819" lon="-119.156652"/>
<trkpt lat="49.516973" lon="-119.151557"/>
<trkpt lat="49.514824" lon="-119.145547"/>
<trkpt lat="49.510613" lon="-119.135736"/>
<trkpt lat="49.509402" lon="-119.134429"/>
<trkpt lat="49.501102" lon="-119.127738"/>
<trkpt lat="49.495213" lon="-119.125736"/>
<trkpt lat="49.491430" lon="-119.124322"/>
<trkpt lat="49.487607" lon="-119.118685"/>
<trkpt lat="49.484002" lon="-119.114591"/>
<trkpt lat="49.482379" lon="-119.111696"/>
<trkpt lat="49.480230" lon="-119.109605"/>
<trkpt lat="49.477211" lon="-119.109211"/>
<trkpt lat="49.473867" lon="-119.107442"/>
<trkpt lat="49.471248" lon="-119.105407"/>
<trkpt lat="49.466569" lon="-119.103456"/>
<trkpt lat="49.446809" lon="-119.096810"/>
<trkpt lat="49.443791" lon="-119.096619"/>
<trkpt lat="49.443296" lon="-119.095952"/>
<trkpt lat="49.442844" lon="-119.094283"/>
<trkpt lat="49.442130" lon="-119.094167"/>
<trkpt lat="49.438635" lon="-119.095032"/>
<trkpt lat="49.438158" lon="-119.094971"/>
<trkpt lat="49.438536" lon="-119.095261"/>
<trkpt lat="49.438849" lon="-119.096208"/>
<trkpt lat="49.438874" lon="-119.098025"/>
<trkpt lat="49.438703" lon="-119.098934"/>
<trkpt lat="49.438215" lon="-119.099493"/>
<trkpt lat="49.435105" lon="-119.101600"/>
<trkpt lat="49.428368" lon="-119.106134"/>
<trkpt lat="49.423404" lon="-119.106305"/>
<trkpt lat="49.404888" lon="-119.106306"/>
<trkpt lat="49.403233" lon="-119.106892"/>
<trkpt lat="49.396174" lon="-119.110626"/>
<trkpt lat="49.394143" lon="-119.111205"/>
<trkpt lat="49.392705" lon="-119.110816"/>
<trkpt lat="49.391745" lon="-119.110190"/>
<trkpt lat="49.382815" lon="-119.100965"/>
<trkpt lat="49.382657" lon="-119.100877"/>
<trkpt lat="49.379790" lon="-119.100342"/>
<trkpt lat="49.357702" lon="-119.098042"/>
<trkpt lat="49.354933" lon="-119.096397"/>
<trkpt lat="49.351050" lon="-119.091729"/>
<trkpt lat="49.350963" lon="-119.091625"/>
<trkpt lat="49.348647" lon="-119.089058"/>
<trkpt lat="49.347720" lon="-119.088878"/>
<trkpt lat="49.344711" lon="-119.089465"/>
<trkpt lat="49.343220" lon="-119.088697"/>
<trkpt lat="49.342293" lon="-119.087407"/>
<trkpt lat="49.336946" lon="-119.071354"/>
<trkpt lat="49.336782" lon="-119.070210"/>
<trkpt lat="49.336902" lon="-119.068051"/>
<trkpt lat="49.337785" lon="-119.064312"/>
<trkpt lat="49.337671" lon="-119.062251"/>
<trkpt lat="49.335666" lon="-119.057749"/>
<trkpt lat="49.335556" lon="-119.056827"/>
<trkpt lat="49.335817" lon="-119.054631"/>
<trkpt lat="49.335627" lon="-119.053507"/>
<trkpt lat="49.333757" lon="-119.049430"/>
<trkpt lat="49.333174" lon="-119.048645"/>
<trkpt lat="49.329020" lon="-119.046508"/>
<trkpt lat="49.327826" lon="-119.045271"/>
<trkpt lat="49.326284" lon="-119.042965"/>
<trkpt lat="49.325264" lon="-119.042273"/>
<trkpt lat="49.323171" lon="-119.042546"/>
<trkpt lat="49.320924" lon="-119.041759"/>
<trkpt lat="49.317263" lon="-119.041437"/>
<trkpt lat="49.312125" lon="-119.043079"/>
<trkpt lat="49.311144" lon="-119.043120"/>
<trkpt lat="49.300085" lon="-119.040285"/>
<trkpt lat="49.299145" lon="-119.038698"/>
<trkpt lat="49.298749" lon="-119.035788"/>
<trkpt lat="49.298259" lon="-119.034998"/>
<trkpt lat="49.297523" lon="-119.034582"/>
<trkpt lat="49.293943" lon="-119.033958"/>
<trkpt lat="49.289807" lon="-119.036390"/>
<trkpt lat="49.287490" lon="-119.036019"/>
<trkpt lat="49.286843" lon="-119.035293"/>
<trkpt lat="49.286706" lon="-119.034871"/>
<trkpt lat="49.286590" lon="-119.034251"/>
<trkpt lat="49.286781" lon="-119.032608"/>
<trkpt lat="49.286335" lon="-119.031096"/>
<trkpt lat="49.284699" lon="-119.030578"/>
<trkpt lat="49.282659" lon="-119.029026"/>
<trkpt lat="49.280971" lon="-119.029354"/>
<trkpt lat="49.280003" lon="-119.029041"/>
<trkpt lat="49.278890" lon="-119.026987"/>
<trkpt lat="49.276924" lon="-119.024951"/>
<trkpt lat="49.275300" lon="-119.021243"/>
<trkpt lat="49.273090" lon="-119.020196"/>
<trkpt lat="49.270168" lon="-119.020897"/>
<trkpt lat="49.268622" lon="-119.019717"/>
<trkpt lat="49.265183" lon="-119.018192"/>
<trkpt lat="49.263741" lon="-119.016826"/>
<trkpt lat="49.262045" lon="-119.015665"/>
<trkpt lat="49.259839" lon="-119.012664"/>
<trkpt lat="49.257336" lon="-119.010492"/>
<trkpt lat="49.256640" lon="-119.010705"/>
<trkpt lat="49.256413" lon="-119.011103"/>
<trkpt lat="49.255941" lon="-119.011203"/>
<trkpt lat="49.253806" lon="-119.009170"/>
<trkpt lat="49.251090" lon="-119.008909"/>
<trkpt lat="49.247719" lon="-119.010602"/>
<trkpt lat="49.244628" lon="-119.012932"/>
<trkpt lat="49.227411" lon="-119.018302"/>
<trkpt lat="49.210383" lon="-119.015167"/>
<trkpt lat="49.208215" lon="-119.013620"/>
<trkpt lat="49.205422" lon="-119.010264"/>
<trkpt lat="49.205145" lon="-119.010226"/>
<trkpt lat="49.202099" lon="-119.006833"/>
<trkpt lat="49.201561" lon="-119.005559"/>
<trkpt lat="49.201159" lon="-119.003072"/>
<trkpt lat="49.199033" lon="-118.999283"/>
<trkpt lat="49.197861" lon="-118.998220"/>
<trkpt lat="49.194638" lon="-118.996401"/>
<trkpt lat="49.191593" lon="-118.992183"/>
<trkpt lat="49.187804" lon="-118.988347"/>
<trkpt lat="49.185944" lon="-118.986044"/>
<trkpt lat="49.181222" lon="-118.982931"/>
<trkpt lat="49.180388" lon="-118.982827"/>
<trkpt lat="49.179069" lon="-118.983247"/>
<trkpt lat="49.177096" lon="-118.982152"/>
<trkpt lat="49.173941" lon="-118.981881"/>
<trkpt lat="49.173025" lon="-118.981276"/>
<trkpt lat="49.171925" lon="-118.979215"/>
<trkpt lat="49.170977" lon="-118.977648"/>
<trkpt lat="49.169708" lon="-118.976209"/>
<trkpt lat="49.169250" lon="-118.975625"/>
<trkpt lat="49.168380" lon="-118.975124"/>
<trkpt lat="49.167203" lon="-118.975385"/>
<trkpt lat="49.162215" lon="-118.980766"/>
<trkpt lat="49.161349" lon="-118.981343"/>
<trkpt lat="49.159817" lon="-118.981196"/>
<trkpt lat="49.157827" lon="-118.979425"/>
<trkpt lat="49.157064" lon="-118.979261"/>
<trkpt lat="49.148935" lon="-118.982632"/>
<trkpt lat="49.136598" lon="-118.988298"/>
<trkpt lat="49.135529" lon="-118.988144"/>
<trkpt lat="49.133692" lon="-118.986799"/>
<trkpt lat="49.132145" lon="-118.986860"/>
<trkpt lat="49.125815" lon="-118.990261"/>
<trkpt lat="49.119785" lon="-118.996250"/>
<trkpt lat="49.118757" lon="-118.996712"/>
<trkpt lat="49.118070" lon="-118.996629"/>
<trkpt lat="49.116104" lon="-118.995556"/>
<trkpt lat="49.114878" lon="-118.994188"/>
<trkpt lat="49.114531" lon="-118.992903"/>
<trkpt lat="49.114599" lon="-118.989134"/>
<trkpt lat="49.114425" lon="-118.987874"/>
<trkpt lat="49.114030" lon="-118.986619"/>
<trkpt lat="49.110335" lon="-118.979465"/>
<trkpt lat="49.109916" lon="-118.978575"/>
<trkpt lat="49.109177" lon="-118.977758"/>
<trkpt lat="49.108304" lon="-118.977489"/>
<trkpt lat="49.102563" lon="-118.978107"/>
<trkpt lat="49.101014" lon="-118.978629"/>
<trkpt lat="49.096502" lon="-118.983084"/>
<trkpt lat="49.087462" lon="-118.989411"/>
<trkpt lat="49.085616" lon="-118.992927"/>
<trkpt lat="49.078437" lon="-118.998571"/>
<trkpt lat="49.075945" lon="-119.000491"/>
<trkpt lat="49.074466" lon="-119.001201"/>
<trkpt lat="49.070330" lon="-119.001790"/>
<trkpt lat="49.069045" lon="-119.001678"/>
<trkpt lat="49.066506" lon="-118.999698"/>
<trkpt lat="49.065312" lon="-118.999576"/>
<trkpt lat="49.065203" lon="-118.999516"/>
<trkpt lat="49.063765" lon="-119.000026"/>
<trkpt lat="49.062422" lon="-118.999033"/>
<trkpt lat="49.060860" lon="-118.997575"/>
<trkpt lat="49.059777" lon="-118.996636"/>
<trkpt lat="49.056860" lon="-118.993944"/>
<trkpt lat="49.054881" lon="-118.991565"/>
<trkpt lat="49.052010" lon="-118.987052"/>
<trkpt lat="49.050959" lon="-118.984268"/>
<trkpt lat="49.050423" lon="-118.981242"/>
<trkpt lat="49.050492" lon="-118.977295"/>
<trkpt lat="49.051269" lon="-118.974053"/>
<trkpt lat="49.052991" lon="-118.969835"/>
<trkpt lat="49.054263" lon="-118.968111"/>
<trkpt lat="49.055738" lon="-118.965828"/>
<trkpt lat="49.056989" lon="-118.964509"/>
<trkpt lat="49.057710" lon="-118.964255"/>
<trkpt lat="49.059534" lon="-118.964505"/>
<trkpt lat="49.060371" lon="-118.956577"/>
<trkpt lat="49.060796" lon="-118.954384"/>
<trkpt lat="49.060962" lon="-118.953518"/>
<trkpt lat="49.060674" lon="-118.950794"/>
<trkpt lat="49.058659" lon="-118.947363"/>
<trkpt lat="49.058010" lon="-118.945924"/>
<trkpt lat="49.057836" lon="-118.944139"/>
<trkpt lat="49.059043" lon="-118.939947"/>
<trkpt lat="49.059786" lon="-118.935819"/>
<trkpt lat="49.059292" lon="-118.931340"/>
<trkpt lat="49.058143" lon="-118.928256"/>
<trkpt lat="49.057701" lon="-118.927070"/>
<trkpt lat="49.057266" lon="-118.926804"/>
<trkpt lat="49.056774" lon="-118.925926"/>
<trkpt lat="49.055629" lon="-118.923302"/>
<trkpt lat="49.054094" lon="-118.916555"/>
<trkpt lat="49.048609" lon="-118.898782"/>
<trkpt lat="49.048267" lon="-118.893241"/>
<trkpt lat="49.046797" lon="-118.881144"/>
<trkpt lat="49.046399" lon="-118.879726"/>
<trkpt lat="49.045067" lon="-118.877707"/>
<trkpt lat="49.044079" lon="-118.877036"/>
<trkpt lat="49.038778" lon="-118.874786"/>
<trkpt lat="49.035622" lon="-118.874404"/>
<trkpt lat="49.034208" lon="-118.873863"/>
<trkpt lat="49.027557" lon="-118.867356"/>
<trkpt lat="49.026659" lon="-118.865832"/>
<trkpt lat="49.026083" lon="-118.861062"/>
<trkpt lat="49.025080" lon="-118.858725"/>
<trkpt lat="49.022724" lon="-118.857727"/>
<trkpt lat="49.020496" lon="-118.857564"/>
<trkpt lat="49.015385" lon="-118.851786"/>
<trkpt lat="49.013995" lon="-118.847225"/>
<trkpt lat="49.012129" lon="-118.843091"/>
<trkpt lat="49.012240" lon="-118.840679"/>
<trkpt lat="49.012388" lon="-118.836717"/>
<trkpt lat="49.012584" lon="-118.836187"/>
<trkpt lat="49.012380" lon="-118.834085"/>
<trkpt lat="49.012575" lon="-118.825443"/>
<trkpt lat="49.013099" lon="-118.812939"/>
<trkpt lat="49.011747" lon="-118.785914"/>
</trkseg>
<trkseg>
<trkpt lat="49.800314" lon="-119.312464"/>
<trkpt lat="49.801626" lon="-119.312627"/>
</trkseg>
</trk>
</gpx>