<?xml version="1.0" encoding="UTF-8"?>
<gpx version="1.1" creator="BC Bike Stops (bccycletourism.ca)" xmlns="http://www.topografix.com/GPX/1/1">
<metadata>
<name>Delta South Surrey Regional Greenway</name>
<link href="https://bccycletourism.ca/trail/delta-south-surrey-regional-greenway/"><text>BC Bike Stops</text></link>
</metadata>
<wpt lat="49.112745" lon="-122.903071">
<name>Watershed Park</name>
<cmt>park</cmt>
<desc>Park / Nature</desc>
<sym>Dot</sym>
<type>rest_area</type>
</wpt>
<wpt lat="49.064637" lon="-123.022618">
<name>Kings Links Clubhouse</name>
<cmt>food</cmt>
<desc>Restaurant</desc>
<sym>Dot</sym>
<type>food</type>
</wpt>
<wpt lat="49.118237" lon="-122.931488">
<name>Sunshine Woods Golf Centre</name>
<cmt>food</cmt>
<desc>Restaurant</desc>
<sym>Dot</sym>
<type>food</type>
</wpt>
</gpx>