<?xml version="1.0" encoding="UTF-8"?>
<gpx version="1.1" creator="We Welcome Cyclists (bccycletourism.ca)" xmlns="http://www.topografix.com/GPX/1/1">
<metadata>
<name>Kettle Valley Rail Trail (Highway 97)</name>
<link href="https://bccycletourism.ca/trail/kettle-valley-rail-trail-highway-97/"><text>We Welcome Cyclists</text></link>
</metadata>
<wpt lat="49.576174" lon="-119.649192">
<name>Silkscarf Winery</name>
<cmt>winery</cmt>
<desc>Winery / Cidery</desc>
<sym>Dot</sym>
<type>food</type>
</wpt>
<wpt lat="49.568571" lon="-119.658122">
<name>Sleeping Giant Fruit Winery</name>
<cmt>winery</cmt>
<desc>Winery / Cidery</desc>
<sym>Dot</sym>
<type>food</type>
</wpt>
<wpt lat="49.573796" lon="-119.631777">
<name>Summerland Motel</name>
<cmt>lodging</cmt>
<desc>Hotel / Motel</desc>
<sym>Dot</sym>
<type>shelter</type>
</wpt>
<wpt lat="49.575186" lon="-119.657518">
<name>Lightning Rock Winery</name>
<cmt>winery</cmt>
<desc>Winery / Cidery</desc>
<sym>Dot</sym>
<type>food</type>
</wpt>
<wpt lat="49.578736" lon="-119.635571">
<name>8th generation vineyard</name>
<cmt>winery</cmt>
<desc>Winery / Cidery</desc>
<sym>Dot</sym>
<type>food</type>
</wpt>
<wpt lat="49.566939" lon="-119.651839">
<name>Summerland Ornamental Gardens</name>
<cmt>park</cmt>
<desc>Park / Nature</desc>
<sym>Dot</sym>
<type>rest_area</type>
</wpt>
<wpt lat="49.575529" lon="-119.631464">
<name>8th Generation Vineyard</name>
<cmt>winery</cmt>
<desc>Winery / Cidery</desc>
<sym>Dot</sym>
<type>food</type>
</wpt>
<wpt lat="49.566277" lon="-119.664270">
<name>Dirty Laundry Vineyard</name>
<cmt>winery</cmt>
<desc>Winery / Cidery</desc>
<sym>Dot</sym>
<type>food</type>
</wpt>
<wpt lat="49.580956" lon="-119.652123">
<name>Heaven's Gate Estate Winery</name>
<cmt>winery</cmt>
<desc>Winery / Cidery</desc>
<sym>Dot</sym>
<type>food</type>
</wpt>
<wpt lat="49.496744" lon="-119.615580">
<name>Booster Juice</name>
<cmt>food</cmt>
<desc>Fast Food / Chain</desc>
<sym>Dot</sym>
<type>food</type>
</wpt>
<wpt lat="49.496506" lon="-119.615419">
<name>Angry Otter Liquor @ Riverside</name>
<cmt>convenience_store</cmt>
<desc>Liquor Store</desc>
<sym>Dot</sym>
<type>store</type>
</wpt>
<wpt lat="49.495770" lon="-119.615338">
<name>Starbucks</name>
<cmt>food</cmt>
<desc>Fast Food / Chain</desc>
<sym>Dot</sym>
<type>food</type>
</wpt>
<wpt lat="49.496712" lon="-119.615377">
<name>Domino's</name>
<cmt>food</cmt>
<desc>Fast Food / Chain</desc>
<sym>Dot</sym>
<type>food</type>
</wpt>
<wpt lat="49.495999" lon="-119.614502">
<name>A&amp;W</name>
<cmt>food</cmt>
<desc>Fast Food / Chain</desc>
<sym>Dot</sym>
<type>food</type>
</wpt>
<wpt lat="49.496141" lon="-119.614122">
<name>Cob's Bakery</name>
<cmt>food</cmt>
<desc>Bakery / Donuts</desc>
<sym>Dot</sym>
<type>food</type>
</wpt>
<wpt lat="49.496393" lon="-119.614018">
<name>Quality Greens</name>
<cmt>convenience_store</cmt>
<desc>Grocery Store</desc>
<sym>Dot</sym>
<type>store</type>
</wpt>
<wpt lat="49.496383" lon="-119.613435">
<name>Tim Hortons</name>
<cmt>food</cmt>
<desc>Fast Food / Chain</desc>
<sym>Dot</sym>
<type>food</type>
</wpt>
<wpt lat="49.495356" lon="-119.613288">
<name>Quiznos</name>
<cmt>food</cmt>
<desc>Fast Food / Chain</desc>
<sym>Dot</sym>
<type>food</type>
</wpt>
<wpt lat="49.495553" lon="-119.613226">
<name>24 Seven</name>
<cmt>convenience_store</cmt>
<desc>Convenience Store</desc>
<sym>Dot</sym>
<type>store</type>
</wpt>
<wpt lat="49.498365" lon="-119.612987">
<name>Days Inn by Wyndham Penticton Conference Centre</name>
<cmt>lodging</cmt>
<desc>Hotel / Motel</desc>
<sym>Dot</sym>
<type>shelter</type>
</wpt>
<wpt lat="49.502034" lon="-119.611535">
<name>SS Naramata</name>
<cmt>viewpoint</cmt>
<desc>Activity / Experience</desc>
<sym>Dot</sym>
<type>overlook</type>
</wpt>
<wpt lat="49.501725" lon="-119.611429">
<name>SS Sicamous</name>
<cmt>monument</cmt>
<desc>Museum / Gallery</desc>
<sym>Dot</sym>
<type>info</type>
</wpt>
<wpt lat="49.501385" lon="-119.611476">
<name>Rose Gardens Park</name>
<cmt>park</cmt>
<desc>Park / Nature</desc>
<sym>Dot</sym>
<type>rest_area</type>
</wpt>
<wpt lat="49.499482" lon="-119.611659">
<name>Riverside Motel</name>
<cmt>lodging</cmt>
<desc>Hotel / Motel</desc>
<sym>Dot</sym>
<type>shelter</type>
</wpt>
<wpt lat="49.494570" lon="-119.612453">
<name>Ramada Inn &amp; Suites</name>
<cmt>lodging</cmt>
<desc>Hotel / Motel</desc>
<sym>Dot</sym>
<type>shelter</type>
</wpt>
<wpt lat="49.500019" lon="-119.610973">
<name>Bowmont Motel</name>
<cmt>lodging</cmt>
<desc>Hotel / Motel</desc>
<sym>Dot</sym>
<type>shelter</type>
</wpt>
<wpt lat="49.498089" lon="-119.615444">
<name>Coyote Cruises - Channel Float</name>
<cmt>viewpoint</cmt>
<desc>Activity / Experience</desc>
<sym>Dot</sym>
<type>overlook</type>
</wpt>
<trk><name>Kettle Valley Rail Trail (Highway 97)</name>
<trkseg>
<trkpt lat="49.496079" lon="-119.618121"/>
<trkpt lat="49.496863" lon="-119.618726"/>
<trkpt lat="49.498622" lon="-119.618132"/>
<trkpt lat="49.499187" lon="-119.617898"/>
<trkpt lat="49.500259" lon="-119.617463"/>
<trkpt lat="49.502424" lon="-119.616662"/>
<trkpt lat="49.505838" lon="-119.615658"/>
<trkpt lat="49.510389" lon="-119.617249"/>
<trkpt lat="49.521677" lon="-119.617947"/>
<trkpt lat="49.525657" lon="-119.617627"/>
<trkpt lat="49.527718" lon="-119.618085"/>
<trkpt lat="49.531012" lon="-119.619413"/>
<trkpt lat="49.532758" lon="-119.620907"/>
<trkpt lat="49.535817" lon="-119.624482"/>
<trkpt lat="49.536889" lon="-119.625049"/>
<trkpt lat="49.539893" lon="-119.625691"/>
<trkpt lat="49.542315" lon="-119.628029"/>
<trkpt lat="49.543068" lon="-119.628819"/>
<trkpt lat="49.544078" lon="-119.629985"/>
<trkpt lat="49.546210" lon="-119.633419"/>
<trkpt lat="49.547174" lon="-119.634067"/>
<trkpt lat="49.548357" lon="-119.634212"/>
<trkpt lat="49.550020" lon="-119.634067"/>
<trkpt lat="49.550277" lon="-119.634090"/>
<trkpt lat="49.551272" lon="-119.634466"/>
<trkpt lat="49.553684" lon="-119.636304"/>
<trkpt lat="49.555895" lon="-119.636930"/>
<trkpt lat="49.558167" lon="-119.638271"/>
<trkpt lat="49.559391" lon="-119.638543"/>
<trkpt lat="49.560462" lon="-119.638350"/>
<trkpt lat="49.561541" lon="-119.637706"/>
<trkpt lat="49.564567" lon="-119.633950"/>
<trkpt lat="49.565794" lon="-119.632556"/>
<trkpt lat="49.567007" lon="-119.631762"/>
<trkpt lat="49.567886" lon="-119.631343"/>
<trkpt lat="49.568064" lon="-119.631283"/>
<trkpt lat="49.570177" lon="-119.630990"/>
</trkseg>
<trkseg>
<trkpt lat="49.571525" lon="-119.631045"/>
<trkpt lat="49.571672" lon="-119.631675"/>
<trkpt lat="49.571701" lon="-119.639479"/>
<trkpt lat="49.571987" lon="-119.640248"/>
<trkpt lat="49.574219" lon="-119.640294"/>
<trkpt lat="49.574928" lon="-119.639266"/>
<trkpt lat="49.575137" lon="-119.637922"/>
<trkpt lat="49.575500" lon="-119.637674"/>
<trkpt lat="49.576572" lon="-119.639379"/>
<trkpt lat="49.576697" lon="-119.640774"/>
<trkpt lat="49.576229" lon="-119.641112"/>
<trkpt lat="49.575168" lon="-119.640767"/>
<trkpt lat="49.574982" lon="-119.641162"/>
<trkpt lat="49.576460" lon="-119.643469"/>
<trkpt lat="49.576683" lon="-119.645563"/>
<trkpt lat="49.576474" lon="-119.648097"/>
<trkpt lat="49.576210" lon="-119.651995"/>
<trkpt lat="49.576838" lon="-119.653482"/>
<trkpt lat="49.570486" lon="-119.653758"/>
<trkpt lat="49.570127" lon="-119.657549"/>
<trkpt lat="49.570121" lon="-119.658764"/>
<trkpt lat="49.570348" lon="-119.662035"/>
<trkpt lat="49.570352" lon="-119.665891"/>
<trkpt lat="49.570356" lon="-119.668660"/>
<trkpt lat="49.574083" lon="-119.668712"/>
<trkpt lat="49.574090" lon="-119.671636"/>
</trkseg>
</trk>
</gpx>