<?xml version="1.0" encoding="UTF-8"?>
<gpx version="1.1" creator="We Welcome Cyclists (bccycletourism.ca)" xmlns="http://www.topografix.com/GPX/1/1">
<metadata>
<name>Kettle Valley Rail Trail</name>
<link href="https://bccycletourism.ca/trail/kettle-valley-rail-trail/"><text>We Welcome Cyclists</text></link>
</metadata>
<wpt lat="49.377731" lon="-121.368743">
<name>Othello / Quintette Tunnels</name>
<cmt>viewpoint</cmt>
<desc>Activity / Experience</desc>
<sym>Dot</sym>
<type>overlook</type>
</wpt>
<wpt lat="49.454941" lon="-120.509516">
<name>Booster Juice</name>
<cmt>food</cmt>
<desc>Fast Food / Chain</desc>
<sym>Dot</sym>
<type>food</type>
</wpt>
<wpt lat="49.454859" lon="-120.509655">
<name>Subway</name>
<cmt>food</cmt>
<desc>Fast Food / Chain</desc>
<sym>Dot</sym>
<type>food</type>
</wpt>
<wpt lat="49.456955" lon="-120.506414">
<name>A&amp;W</name>
<cmt>food</cmt>
<desc>Fast Food / Chain</desc>
<sym>Dot</sym>
<type>food</type>
</wpt>
<wpt lat="49.458769" lon="-120.505581">
<name>Little Creek Grill</name>
<cmt>food</cmt>
<desc>Restaurant</desc>
<sym>Dot</sym>
<type>food</type>
</wpt>
<wpt lat="49.455077" lon="-120.510609">
<name>Billy's Family Restaurant</name>
<cmt>food</cmt>
<desc>Restaurant</desc>
<sym>Dot</sym>
<type>food</type>
</wpt>
<wpt lat="49.456593" lon="-120.508657">
<name>Prince Cold Beer and Wine Liquor Store</name>
<cmt>convenience_store</cmt>
<desc>Liquor Store</desc>
<sym>Dot</sym>
<type>store</type>
</wpt>
<wpt lat="49.453648" lon="-120.514392">
<name>Deerview Lodge &amp; Cabins</name>
<cmt>lodging</cmt>
<desc>Hotel / Motel</desc>
<sym>Dot</sym>
<type>shelter</type>
</wpt>
<wpt lat="49.455918" lon="-120.510019">
<name>Brown Bridge Pub</name>
<cmt>bar</cmt>
<desc>Brewery / Pub</desc>
<sym>Dot</sym>
<type>food</type>
</wpt>
<wpt lat="49.456904" lon="-120.508526">
<name>Copper Mountain Inn</name>
<cmt>lodging</cmt>
<desc>Hotel / Motel</desc>
<sym>Dot</sym>
<type>shelter</type>
</wpt>
<wpt lat="49.458179" lon="-120.506607">
<name>Cool Beanz Coffee House</name>
<cmt>coffee</cmt>
<desc>Café / Coffee</desc>
<sym>Dot</sym>
<type>food</type>
</wpt>
<wpt lat="49.457535" lon="-120.507600">
<name>Dairy Queen</name>
<cmt>food</cmt>
<desc>Ice Cream</desc>
<sym>Dot</sym>
<type>food</type>
</wpt>
<wpt lat="49.458807" lon="-120.506462">
<name>Mikado Sushi</name>
<cmt>food</cmt>
<desc>Restaurant</desc>
<sym>Dot</sym>
<type>food</type>
</wpt>
<wpt lat="49.457352" lon="-120.507921">
<name>CitySlice Pizzeria</name>
<cmt>food</cmt>
<desc>Restaurant</desc>
<sym>Dot</sym>
<type>food</type>
</wpt>
<wpt lat="49.458682" lon="-120.506664">
<name>Ace Motel</name>
<cmt>lodging</cmt>
<desc>Hotel / Motel</desc>
<sym>Dot</sym>
<type>shelter</type>
</wpt>
<wpt lat="49.455894" lon="-120.510820">
<name>Villager Inn</name>
<cmt>lodging</cmt>
<desc>Hotel / Motel</desc>
<sym>Dot</sym>
<type>shelter</type>
</wpt>
<wpt lat="49.465213" lon="-120.506042">
<name>Princeton Arena</name>
<cmt>rest_stop</cmt>
<desc>Community Centre</desc>
<sym>Dot</sym>
<type>rest_area</type>
</wpt>
<wpt lat="49.459817" lon="-120.507108">
<name>Princeton Visitor Centre</name>
<cmt>generic</cmt>
<desc>Visitor Centre</desc>
<sym>Dot</sym>
<type>generic</type>
</wpt>
<wpt lat="49.457056" lon="-120.509788">
<name>FIELDS</name>
<cmt>convenience_store</cmt>
<desc>Grocery Store</desc>
<sym>Dot</sym>
<type>store</type>
</wpt>
<wpt lat="49.456851" lon="-120.510398">
<name>Frannie's coffee</name>
<cmt>coffee</cmt>
<desc>Café / Coffee</desc>
<sym>Dot</sym>
<type>food</type>
</wpt>
<wpt lat="49.480083" lon="-120.488199">
<name>Swan Lake Wildlife Refuge</name>
<cmt>park</cmt>
<desc>Park / Nature</desc>
<sym>Dot</sym>
<type>rest_area</type>
</wpt>
<wpt lat="49.458609" lon="-120.508936">
<name>Princeton &amp; District Museum</name>
<cmt>monument</cmt>
<desc>Museum / Gallery</desc>
<sym>Dot</sym>
<type>info</type>
</wpt>
<wpt lat="49.459971" lon="-120.508403">
<name>Princeton Library Branch</name>
<cmt>library</cmt>
<desc>Library</desc>
<sym>Dot</sym>
<type>info</type>
</wpt>
<wpt lat="49.458792" lon="-120.508920">
<name>The Copper Pit</name>
<cmt>food</cmt>
<desc>Restaurant</desc>
<sym>Dot</sym>
<type>food</type>
</wpt>
<wpt lat="49.464237" lon="-120.497113">
<name>Centennial Outdoor Pool</name>
<cmt>rest_stop</cmt>
<desc>Community Centre</desc>
<sym>Dot</sym>
<type>rest_area</type>
</wpt>
<wpt lat="49.461151" lon="-120.509418">
<name>Gold &amp; Jade Restaurant</name>
<cmt>food</cmt>
<desc>Restaurant</desc>
<sym>Dot</sym>
<type>food</type>
</wpt>
<wpt lat="49.452711" lon="-120.526326">
<name>The Vermilion Fork</name>
<cmt>food</cmt>
<desc>Restaurant</desc>
<sym>Dot</sym>
<type>food</type>
</wpt>
<wpt lat="49.479948" lon="-120.479638">
<name>Rainbow Lake Castle Resort</name>
<cmt>lodging</cmt>
<desc>Hotel / Motel</desc>
<sym>Dot</sym>
<type>shelter</type>
</wpt>
<wpt lat="49.452795" lon="-120.526449">
<name>Sandman Inn Princeton</name>
<cmt>lodging</cmt>
<desc>Hotel / Motel</desc>
<sym>Dot</sym>
<type>shelter</type>
</wpt>
<wpt lat="49.446182" lon="-120.527297">
<name>Livinit</name>
<cmt>food</cmt>
<desc>Restaurant</desc>
<sym>Dot</sym>
<type>food</type>
</wpt>
<wpt lat="49.462091" lon="-120.510178">
<name>Thomasina</name>
<cmt>coffee</cmt>
<desc>Café / Coffee</desc>
<sym>Dot</sym>
<type>food</type>
</wpt>
<wpt lat="49.460804" lon="-120.510176">
<name>BC Liquor Stores</name>
<cmt>convenience_store</cmt>
<desc>Liquor Store</desc>
<sym>Dot</sym>
<type>store</type>
</wpt>
<wpt lat="49.461259" lon="-120.510800">
<name>Save-On-Foods</name>
<cmt>convenience_store</cmt>
<desc>Grocery Store</desc>
<sym>Dot</sym>
<type>store</type>
</wpt>
<wpt lat="49.462910" lon="-120.511368">
<name>Riverside Cabins</name>
<cmt>lodging</cmt>
<desc>Hotel / Motel</desc>
<sym>Dot</sym>
<type>shelter</type>
</wpt>
<wpt lat="49.690069" lon="-119.981917">
<name>Trout Creek Ranch (basic campsite)</name>
<cmt>camping</cmt>
<desc>Public Campground</desc>
<sym>Dot</sym>
<type>campsite</type>
</wpt>
<wpt lat="49.620653" lon="-119.866351">
<name>Crump Siding (BC Recreation Site)</name>
<cmt>camping</cmt>
<desc>Public Campground</desc>
<sym>Dot</sym>
<type>campsite</type>
</wpt>
<wpt lat="49.647352" lon="-119.922832">
<name>Trout Creek Crossing</name>
<cmt>camping</cmt>
<desc>Public Campground</desc>
<sym>Dot</sym>
<type>campsite</type>
</wpt>
<wpt lat="49.638677" lon="-121.003288">
<name>Coquihalla Lakes Lodge</name>
<cmt>lodging</cmt>
<desc>Resort</desc>
<sym>Dot</sym>
<type>shelter</type>
</wpt>
<wpt lat="49.381807" lon="-121.425033">
<name>Hope Bike Park</name>
<cmt>rest_stop</cmt>
<desc>Community Centre</desc>
<sym>Dot</sym>
<type>rest_area</type>
</wpt>
<wpt lat="49.379721" lon="-121.427388">
<name>Coquihalla Campground</name>
<cmt>camping</cmt>
<desc>Private Campground</desc>
<sym>Dot</sym>
<type>campsite</type>
</wpt>
<wpt lat="49.873656" lon="-120.911138">
<name>Camp Ground</name>
<cmt>camping</cmt>
<desc>Private Campground</desc>
<sym>Dot</sym>
<type>campsite</type>
</wpt>
<wpt lat="49.580292" lon="-119.684321">
<name>NOMAD Cider</name>
<cmt>winery</cmt>
<desc>Winery / Cidery</desc>
<sym>Dot</sym>
<type>food</type>
</wpt>
<wpt lat="49.590365" lon="-119.707810">
<name>Millionaires' Row Cider Co.</name>
<cmt>bar</cmt>
<desc>Brewery / Pub</desc>
<sym>Dot</sym>
<type>food</type>
</wpt>
<trk><name>Kettle Valley Rail Trail</name>
<trkseg>
<trkpt lat="49.381888" lon="-121.422898"/>
<trkpt lat="49.382809" lon="-121.424293"/>
<trkpt lat="49.383186" lon="-121.424209"/>
</trkseg>
<trkseg>
<trkpt lat="49.383241" lon="-121.423612"/>
<trkpt lat="49.383341" lon="-121.423283"/>
<trkpt lat="49.383354" lon="-121.423198"/>
<trkpt lat="49.383615" lon="-121.421519"/>
<trkpt lat="49.383626" lon="-121.421423"/>
<trkpt lat="49.383606" lon="-121.421211"/>
<trkpt lat="49.384616" lon="-121.414935"/>
<trkpt lat="49.384630" lon="-121.413395"/>
</trkseg>
<trkseg>
<trkpt lat="49.384440" lon="-121.413164"/>
<trkpt lat="49.383946" lon="-121.411748"/>
<trkpt lat="49.383323" lon="-121.410939"/>
<trkpt lat="49.381176" lon="-121.410119"/>
<trkpt lat="49.376594" lon="-121.408586"/>
<trkpt lat="49.373804" lon="-121.406321"/>
<trkpt lat="49.373561" lon="-121.406191"/>
<trkpt lat="49.372921" lon="-121.405428"/>
<trkpt lat="49.372204" lon="-121.403737"/>
<trkpt lat="49.371892" lon="-121.401910"/>
<trkpt lat="49.370427" lon="-121.399133"/>
<trkpt lat="49.370244" lon="-121.395706"/>
<trkpt lat="49.368810" lon="-121.390892"/>
<trkpt lat="49.368676" lon="-121.389823"/>
<trkpt lat="49.368870" lon="-121.387807"/>
<trkpt lat="49.369347" lon="-121.385892"/>
<trkpt lat="49.369148" lon="-121.381786"/>
<trkpt lat="49.367786" lon="-121.376341"/>
<trkpt lat="49.366309" lon="-121.374007"/>
<trkpt lat="49.365790" lon="-121.372678"/>
<trkpt lat="49.365829" lon="-121.371372"/>
<trkpt lat="49.367232" lon="-121.365912"/>
<trkpt lat="49.368279" lon="-121.364406"/>
<trkpt lat="49.369066" lon="-121.364326"/>
<trkpt lat="49.369893" lon="-121.364839"/>
<trkpt lat="49.369954" lon="-121.364895"/>
<trkpt lat="49.370328" lon="-121.365238"/>
<trkpt lat="49.370512" lon="-121.365406"/>
<trkpt lat="49.370853" lon="-121.365803"/>
<trkpt lat="49.370907" lon="-121.365845"/>
<trkpt lat="49.371277" lon="-121.366136"/>
<trkpt lat="49.371617" lon="-121.366463"/>
<trkpt lat="49.371846" lon="-121.366632"/>
<trkpt lat="49.372545" lon="-121.366785"/>
<trkpt lat="49.373008" lon="-121.367298"/>
<trkpt lat="49.374433" lon="-121.369082"/>
<trkpt lat="49.375068" lon="-121.370291"/>
<trkpt lat="49.375584" lon="-121.370624"/>
<trkpt lat="49.376673" lon="-121.370259"/>
<trkpt lat="49.377441" lon="-121.368925"/>
<trkpt lat="49.377909" lon="-121.368804"/>
<trkpt lat="49.378093" lon="-121.367294"/>
<trkpt lat="49.380036" lon="-121.362331"/>
<trkpt lat="49.380883" lon="-121.357958"/>
<trkpt lat="49.379544" lon="-121.346569"/>
<trkpt lat="49.379821" lon="-121.343305"/>
<trkpt lat="49.381243" lon="-121.339194"/>
<trkpt lat="49.381486" lon="-121.337574"/>
<trkpt lat="49.380066" lon="-121.330080"/>
<trkpt lat="49.380069" lon="-121.324173"/>
<trkpt lat="49.380270" lon="-121.322334"/>
<trkpt lat="49.381121" lon="-121.321270"/>
<trkpt lat="49.381867" lon="-121.321170"/>
<trkpt lat="49.383029" lon="-121.321598"/>
<trkpt lat="49.385218" lon="-121.320517"/>
<trkpt lat="49.386088" lon="-121.319990"/>
<trkpt lat="49.387333" lon="-121.320402"/>
<trkpt lat="49.388240" lon="-121.319955"/>
<trkpt lat="49.388530" lon="-121.319446"/>
<trkpt lat="49.388858" lon="-121.318869"/>
<trkpt lat="49.395055" lon="-121.319765"/>
<trkpt lat="49.396480" lon="-121.319045"/>
<trkpt lat="49.399945" lon="-121.316433"/>
<trkpt lat="49.402303" lon="-121.315749"/>
<trkpt lat="49.409089" lon="-121.317697"/>
<trkpt lat="49.416520" lon="-121.317255"/>
<trkpt lat="49.418014" lon="-121.316364"/>
<trkpt lat="49.423060" lon="-121.312018"/>
<trkpt lat="49.427983" lon="-121.311291"/>
<trkpt lat="49.430923" lon="-121.309106"/>
<trkpt lat="49.433795" lon="-121.308673"/>
<trkpt lat="49.434805" lon="-121.308160"/>
<trkpt lat="49.435872" lon="-121.307009"/>
<trkpt lat="49.438997" lon="-121.301647"/>
<trkpt lat="49.439136" lon="-121.301246"/>
<trkpt lat="49.439873" lon="-121.297819"/>
<trkpt lat="49.439920" lon="-121.292497"/>
<trkpt lat="49.440226" lon="-121.290128"/>
<trkpt lat="49.441377" lon="-121.283244"/>
<trkpt lat="49.442471" lon="-121.279691"/>
<trkpt lat="49.443751" lon="-121.277223"/>
<trkpt lat="49.445104" lon="-121.274902"/>
<trkpt lat="49.446078" lon="-121.273646"/>
<trkpt lat="49.447906" lon="-121.270717"/>
<trkpt lat="49.447673" lon="-121.272357"/>
<trkpt lat="49.447172" lon="-121.272983"/>
<trkpt lat="49.447055" lon="-121.273718"/>
<trkpt lat="49.447799" lon="-121.273414"/>
<trkpt lat="49.448390" lon="-121.271989"/>
<trkpt lat="49.449384" lon="-121.271989"/>
<trkpt lat="49.450764" lon="-121.270314"/>
<trkpt lat="49.454087" lon="-121.267251"/>
<trkpt lat="49.455475" lon="-121.265155"/>
<trkpt lat="49.457132" lon="-121.264609"/>
<trkpt lat="49.460410" lon="-121.264349"/>
<trkpt lat="49.466434" lon="-121.263759"/>
<trkpt lat="49.467198" lon="-121.261530"/>
<trkpt lat="49.467939" lon="-121.260786"/>
<trkpt lat="49.468758" lon="-121.260703"/>
<trkpt lat="49.469920" lon="-121.261881"/>
<trkpt lat="49.471150" lon="-121.262298"/>
<trkpt lat="49.472368" lon="-121.261760"/>
<trkpt lat="49.473613" lon="-121.260363"/>
<trkpt lat="49.474276" lon="-121.260936"/>
<trkpt lat="49.474461" lon="-121.260904"/>
<trkpt lat="49.474826" lon="-121.259532"/>
<trkpt lat="49.477494" lon="-121.257777"/>
<trkpt lat="49.481825" lon="-121.254247"/>
<trkpt lat="49.479953" lon="-121.253963"/>
<trkpt lat="49.478776" lon="-121.254802"/>
<trkpt lat="49.477931" lon="-121.254345"/>
<trkpt lat="49.477902" lon="-121.254146"/>
<trkpt lat="49.476581" lon="-121.254558"/>
<trkpt lat="49.476283" lon="-121.253792"/>
<trkpt lat="49.476278" lon="-121.253620"/>
<trkpt lat="49.476530" lon="-121.253188"/>
<trkpt lat="49.477146" lon="-121.252987"/>
<trkpt lat="49.478762" lon="-121.253094"/>
<trkpt lat="49.480395" lon="-121.251799"/>
<trkpt lat="49.481349" lon="-121.251632"/>
<trkpt lat="49.482391" lon="-121.250647"/>
<trkpt lat="49.484689" lon="-121.249038"/>
<trkpt lat="49.488700" lon="-121.248535"/>
<trkpt lat="49.489462" lon="-121.247990"/>
<trkpt lat="49.489745" lon="-121.247425"/>
<trkpt lat="49.492814" lon="-121.241386"/>
<trkpt lat="49.493130" lon="-121.239564"/>
<trkpt lat="49.493170" lon="-121.239300"/>
<trkpt lat="49.492904" lon="-121.235436"/>
<trkpt lat="49.493880" lon="-121.232042"/>
<trkpt lat="49.493941" lon="-121.227984"/>
<trkpt lat="49.493565" lon="-121.224177"/>
<trkpt lat="49.493753" lon="-121.221279"/>
<trkpt lat="49.493248" lon="-121.219286"/>
<trkpt lat="49.491157" lon="-121.216416"/>
<trkpt lat="49.490227" lon="-121.214233"/>
<trkpt lat="49.490643" lon="-121.214014"/>
<trkpt lat="49.491047" lon="-121.215064"/>
<trkpt lat="49.491636" lon="-121.215535"/>
<trkpt lat="49.493108" lon="-121.215303"/>
<trkpt lat="49.493414" lon="-121.214896"/>
<trkpt lat="49.494771" lon="-121.208520"/>
<trkpt lat="49.496686" lon="-121.204986"/>
<trkpt lat="49.499298" lon="-121.202055"/>
<trkpt lat="49.505008" lon="-121.199122"/>
<trkpt lat="49.504998" lon="-121.199060"/>
<trkpt lat="49.504918" lon="-121.198565"/>
<trkpt lat="49.504885" lon="-121.198358"/>
<trkpt lat="49.504739" lon="-121.198201"/>
<trkpt lat="49.503295" lon="-121.197110"/>
<trkpt lat="49.502034" lon="-121.197110"/>
<trkpt lat="49.498607" lon="-121.198139"/>
<trkpt lat="49.497274" lon="-121.198875"/>
<trkpt lat="49.494774" lon="-121.200937"/>
<trkpt lat="49.493539" lon="-121.200976"/>
<trkpt lat="49.492826" lon="-121.200203"/>
<trkpt lat="49.492452" lon="-121.198983"/>
<trkpt lat="49.492465" lon="-121.197300"/>
<trkpt lat="49.491886" lon="-121.193082"/>
<trkpt lat="49.490803" lon="-121.191303"/>
<trkpt lat="49.490090" lon="-121.189267"/>
<trkpt lat="49.489720" lon="-121.179488"/>
<trkpt lat="49.490141" lon="-121.178096"/>
<trkpt lat="49.489918" lon="-121.177769"/>
<trkpt lat="49.490210" lon="-121.176283"/>
<trkpt lat="49.492285" lon="-121.169878"/>
<trkpt lat="49.493445" lon="-121.167700"/>
<trkpt lat="49.495260" lon="-121.165412"/>
<trkpt lat="49.496668" lon="-121.162503"/>
<trkpt lat="49.497401" lon="-121.161531"/>
<trkpt lat="49.498785" lon="-121.160969"/>
<trkpt lat="49.500318" lon="-121.161058"/>
<trkpt lat="49.504503" lon="-121.160422"/>
<trkpt lat="49.506918" lon="-121.159245"/>
<trkpt lat="49.509847" lon="-121.158330"/>
<trkpt lat="49.511951" lon="-121.157118"/>
<trkpt lat="49.514905" lon="-121.154602"/>
<trkpt lat="49.516799" lon="-121.152439"/>
<trkpt lat="49.519915" lon="-121.146109"/>
<trkpt lat="49.521369" lon="-121.143938"/>
<trkpt lat="49.524879" lon="-121.139839"/>
<trkpt lat="49.527193" lon="-121.137541"/>
<trkpt lat="49.529801" lon="-121.135650"/>
<trkpt lat="49.532190" lon="-121.135507"/>
<trkpt lat="49.533455" lon="-121.134663"/>
<trkpt lat="49.534944" lon="-121.132251"/>
<trkpt lat="49.535644" lon="-121.128948"/>
<trkpt lat="49.537740" lon="-121.126319"/>
<trkpt lat="49.538433" lon="-121.124911"/>
<trkpt lat="49.538671" lon="-121.124186"/>
<trkpt lat="49.539416" lon="-121.122486"/>
<trkpt lat="49.540306" lon="-121.121642"/>
<trkpt lat="49.540446" lon="-121.121572"/>
<trkpt lat="49.540875" lon="-121.121387"/>
<trkpt lat="49.542054" lon="-121.120033"/>
<trkpt lat="49.542094" lon="-121.119568"/>
<trkpt lat="49.542259" lon="-121.118891"/>
<trkpt lat="49.544219" lon="-121.116968"/>
<trkpt lat="49.548891" lon="-121.113591"/>
<trkpt lat="49.550237" lon="-121.112192"/>
<trkpt lat="49.553259" lon="-121.110531"/>
<trkpt lat="49.553459" lon="-121.110542"/>
<trkpt lat="49.558700" lon="-121.106879"/>
<trkpt lat="49.560472" lon="-121.104008"/>
<trkpt lat="49.560639" lon="-121.103798"/>
<trkpt lat="49.563139" lon="-121.100309"/>
<trkpt lat="49.563255" lon="-121.100167"/>
<trkpt lat="49.566704" lon="-121.096395"/>
<trkpt lat="49.568594" lon="-121.094864"/>
<trkpt lat="49.569932" lon="-121.092912"/>
<trkpt lat="49.572359" lon="-121.090309"/>
<trkpt lat="49.573578" lon="-121.089691"/>
<trkpt lat="49.575507" lon="-121.088105"/>
<trkpt lat="49.579309" lon="-121.086054"/>
<trkpt lat="49.580565" lon="-121.084092"/>
<trkpt lat="49.581970" lon="-121.083731"/>
<trkpt lat="49.583182" lon="-121.082165"/>
<trkpt lat="49.584379" lon="-121.082353"/>
<trkpt lat="49.586180" lon="-121.081259"/>
<trkpt lat="49.587253" lon="-121.079576"/>
<trkpt lat="49.589404" lon="-121.070745"/>
<trkpt lat="49.590404" lon="-121.070179"/>
<trkpt lat="49.590676" lon="-121.070027"/>
<trkpt lat="49.593259" lon="-121.068273"/>
<trkpt lat="49.592883" lon="-121.066285"/>
<trkpt lat="49.593060" lon="-121.065273"/>
<trkpt lat="49.593774" lon="-121.064115"/>
<trkpt lat="49.593992" lon="-121.063183"/>
<trkpt lat="49.595400" lon="-121.062557"/>
<trkpt lat="49.596369" lon="-121.060661"/>
<trkpt lat="49.600080" lon="-121.056525"/>
<trkpt lat="49.600771" lon="-121.055043"/>
<trkpt lat="49.602349" lon="-121.052769"/>
<trkpt lat="49.603705" lon="-121.048917"/>
<trkpt lat="49.607699" lon="-121.042343"/>
<trkpt lat="49.609145" lon="-121.041082"/>
<trkpt lat="49.612173" lon="-121.040365"/>
<trkpt lat="49.615259" lon="-121.037605"/>
<trkpt lat="49.615808" lon="-121.037553"/>
<trkpt lat="49.616239" lon="-121.038020"/>
<trkpt lat="49.616308" lon="-121.038305"/>
<trkpt lat="49.616505" lon="-121.038735"/>
<trkpt lat="49.616821" lon="-121.038582"/>
<trkpt lat="49.618356" lon="-121.036286"/>
<trkpt lat="49.620277" lon="-121.034807"/>
<trkpt lat="49.621005" lon="-121.033121"/>
<trkpt lat="49.620964" lon="-121.030623"/>
<trkpt lat="49.621812" lon="-121.029538"/>
<trkpt lat="49.623073" lon="-121.028773"/>
<trkpt lat="49.623685" lon="-121.027718"/>
<trkpt lat="49.624369" lon="-121.027633"/>
<trkpt lat="49.624756" lon="-121.026911"/>
<trkpt lat="49.625055" lon="-121.025211"/>
<trkpt lat="49.624123" lon="-121.020168"/>
<trkpt lat="49.624920" lon="-121.016079"/>
<trkpt lat="49.626181" lon="-121.014175"/>
<trkpt lat="49.629242" lon="-121.012157"/>
<trkpt lat="49.630646" lon="-121.011262"/>
<trkpt lat="49.632110" lon="-121.010151"/>
<trkpt lat="49.633763" lon="-121.008064"/>
<trkpt lat="49.636921" lon="-121.005871"/>
<trkpt lat="49.642361" lon="-121.001007"/>
<trkpt lat="49.643200" lon="-121.000802"/>
<trkpt lat="49.645421" lon="-121.001433"/>
<trkpt lat="49.647543" lon="-121.001026"/>
<trkpt lat="49.650518" lon="-121.001411"/>
<trkpt lat="49.653650" lon="-121.003276"/>
<trkpt lat="49.656185" lon="-121.004465"/>
<trkpt lat="49.656507" lon="-121.005190"/>
<trkpt lat="49.656444" lon="-121.006201"/>
<trkpt lat="49.656233" lon="-121.007468"/>
<trkpt lat="49.656140" lon="-121.008029"/>
<trkpt lat="49.656376" lon="-121.009117"/>
<trkpt lat="49.658351" lon="-121.009646"/>
<trkpt lat="49.658559" lon="-121.009748"/>
<trkpt lat="49.658722" lon="-121.009833"/>
<trkpt lat="49.658752" lon="-121.009760"/>
<trkpt lat="49.659119" lon="-121.009139"/>
<trkpt lat="49.659221" lon="-121.009049"/>
<trkpt lat="49.660594" lon="-121.009391"/>
<trkpt lat="49.663193" lon="-121.008243"/>
<trkpt lat="49.664646" lon="-121.007170"/>
<trkpt lat="49.665709" lon="-121.005910"/>
<trkpt lat="49.666959" lon="-121.005429"/>
<trkpt lat="49.667810" lon="-121.006203"/>
<trkpt lat="49.670874" lon="-121.011614"/>
<trkpt lat="49.671716" lon="-121.012239"/>
<trkpt lat="49.673072" lon="-121.012461"/>
<trkpt lat="49.674318" lon="-121.012385"/>
<trkpt lat="49.676405" lon="-121.013034"/>
<trkpt lat="49.681634" lon="-121.012510"/>
<trkpt lat="49.689234" lon="-121.011579"/>
<trkpt lat="49.691752" lon="-121.012800"/>
<trkpt lat="49.692550" lon="-121.012734"/>
<trkpt lat="49.695650" lon="-121.010649"/>
<trkpt lat="49.697832" lon="-121.010948"/>
<trkpt lat="49.698253" lon="-121.010750"/>
<trkpt lat="49.705663" lon="-121.015224"/>
<trkpt lat="49.706533" lon="-121.015282"/>
<trkpt lat="49.706678" lon="-121.015686"/>
<trkpt lat="49.707757" lon="-121.016155"/>
<trkpt lat="49.709563" lon="-121.015884"/>
<trkpt lat="49.712944" lon="-121.012602"/>
<trkpt lat="49.714686" lon="-121.011962"/>
<trkpt lat="49.716728" lon="-121.012022"/>
<trkpt lat="49.719326" lon="-121.013025"/>
<trkpt lat="49.725371" lon="-121.013043"/>
<trkpt lat="49.726579" lon="-121.012452"/>
<trkpt lat="49.727152" lon="-121.011149"/>
<trkpt lat="49.727743" lon="-121.011602"/>
<trkpt lat="49.730761" lon="-121.011603"/>
<trkpt lat="49.740681" lon="-121.008003"/>
<trkpt lat="49.741707" lon="-121.007953"/>
<trkpt lat="49.742492" lon="-121.008345"/>
<trkpt lat="49.743178" lon="-121.009148"/>
<trkpt lat="49.743494" lon="-121.009586"/>
<trkpt lat="49.743646" lon="-121.010730"/>
<trkpt lat="49.741927" lon="-121.011170"/>
<trkpt lat="49.740776" lon="-121.011950"/>
<trkpt lat="49.740056" lon="-121.012995"/>
<trkpt lat="49.739815" lon="-121.014514"/>
<trkpt lat="49.742149" lon="-121.014439"/>
<trkpt lat="49.745010" lon="-121.013421"/>
<trkpt lat="49.746013" lon="-121.012884"/>
<trkpt lat="49.752910" lon="-121.012261"/>
<trkpt lat="49.753183" lon="-121.012228"/>
<trkpt lat="49.754421" lon="-121.011730"/>
<trkpt lat="49.755178" lon="-121.011032"/>
<trkpt lat="49.757451" lon="-121.007975"/>
<trkpt lat="49.757998" lon="-121.007626"/>
<trkpt lat="49.760123" lon="-121.007254"/>
<trkpt lat="49.762527" lon="-121.005134"/>
<trkpt lat="49.763161" lon="-121.004985"/>
<trkpt lat="49.765669" lon="-121.002282"/>
<trkpt lat="49.767900" lon="-121.001197"/>
<trkpt lat="49.769228" lon="-121.000968"/>
<trkpt lat="49.769646" lon="-121.000442"/>
<trkpt lat="49.769868" lon="-120.999526"/>
<trkpt lat="49.770994" lon="-120.998265"/>
<trkpt lat="49.772497" lon="-120.997200"/>
<trkpt lat="49.773757" lon="-120.995515"/>
<trkpt lat="49.774926" lon="-120.995018"/>
<trkpt lat="49.776661" lon="-120.993294"/>
<trkpt lat="49.777814" lon="-120.990299"/>
<trkpt lat="49.782631" lon="-120.982874"/>
<trkpt lat="49.785476" lon="-120.979544"/>
<trkpt lat="49.789668" lon="-120.976279"/>
<trkpt lat="49.792997" lon="-120.972518"/>
<trkpt lat="49.794743" lon="-120.970040"/>
<trkpt lat="49.796640" lon="-120.968272"/>
<trkpt lat="49.799484" lon="-120.964016"/>
<trkpt lat="49.801510" lon="-120.962550"/>
<trkpt lat="49.803008" lon="-120.960169"/>
<trkpt lat="49.803891" lon="-120.957644"/>
<trkpt lat="49.804399" lon="-120.956875"/>
<trkpt lat="49.806714" lon="-120.955534"/>
<trkpt lat="49.807723" lon="-120.954504"/>
<trkpt lat="49.810209" lon="-120.949745"/>
<trkpt lat="49.809940" lon="-120.947693"/>
<trkpt lat="49.813501" lon="-120.944438"/>
<trkpt lat="49.813623" lon="-120.943670"/>
<trkpt lat="49.815456" lon="-120.942556"/>
<trkpt lat="49.816160" lon="-120.941758"/>
<trkpt lat="49.816354" lon="-120.941158"/>
<trkpt lat="49.816299" lon="-120.938604"/>
<trkpt lat="49.816542" lon="-120.937219"/>
<trkpt lat="49.818286" lon="-120.935043"/>
<trkpt lat="49.818500" lon="-120.934800"/>
<trkpt lat="49.819707" lon="-120.933492"/>
<trkpt lat="49.819934" lon="-120.933257"/>
<trkpt lat="49.823590" lon="-120.929685"/>
<trkpt lat="49.824701" lon="-120.929069"/>
<trkpt lat="49.826068" lon="-120.928859"/>
<trkpt lat="49.826338" lon="-120.928633"/>
<trkpt lat="49.827241" lon="-120.927149"/>
<trkpt lat="49.827430" lon="-120.926809"/>
<trkpt lat="49.828721" lon="-120.924562"/>
<trkpt lat="49.829459" lon="-120.924180"/>
<trkpt lat="49.833287" lon="-120.925409"/>
<trkpt lat="49.836453" lon="-120.927597"/>
<trkpt lat="49.837438" lon="-120.927866"/>
<trkpt lat="49.838159" lon="-120.927606"/>
<trkpt lat="49.840914" lon="-120.925115"/>
<trkpt lat="49.843186" lon="-120.924390"/>
<trkpt lat="49.844939" lon="-120.921891"/>
<trkpt lat="49.846565" lon="-120.917665"/>
<trkpt lat="49.846750" lon="-120.916516"/>
<trkpt lat="49.846557" lon="-120.914277"/>
<trkpt lat="49.846800" lon="-120.913204"/>
<trkpt lat="49.849110" lon="-120.910772"/>
<trkpt lat="49.850418" lon="-120.909900"/>
<trkpt lat="49.850733" lon="-120.909707"/>
<trkpt lat="49.853013" lon="-120.907508"/>
<trkpt lat="49.854047" lon="-120.907534"/>
<trkpt lat="49.854657" lon="-120.907666"/>
<trkpt lat="49.856837" lon="-120.907081"/>
<trkpt lat="49.858339" lon="-120.907546"/>
<trkpt lat="49.860355" lon="-120.907553"/>
<trkpt lat="49.866639" lon="-120.909374"/>
<trkpt lat="49.872416" lon="-120.909328"/>
<trkpt lat="49.874244" lon="-120.908088"/>
<trkpt lat="49.875511" lon="-120.906107"/>
<trkpt lat="49.877970" lon="-120.905294"/>
<trkpt lat="49.879762" lon="-120.902555"/>
<trkpt lat="49.880567" lon="-120.902011"/>
</trkseg>
<trkseg>
<trkpt lat="49.806376" lon="-120.839487"/>
<trkpt lat="49.806324" lon="-120.839446"/>
</trkseg>
<trkseg>
<trkpt lat="49.772674" lon="-120.768382"/>
<trkpt lat="49.772734" lon="-120.768044"/>
</trkseg>
<trkseg>
<trkpt lat="49.449367" lon="-120.525389"/>
<trkpt lat="49.453162" lon="-120.512435"/>
<trkpt lat="49.456328" lon="-120.506822"/>
<trkpt lat="49.457789" lon="-120.504932"/>
<trkpt lat="49.458623" lon="-120.504370"/>
<trkpt lat="49.458907" lon="-120.504670"/>
<trkpt lat="49.461973" lon="-120.504586"/>
<trkpt lat="49.462330" lon="-120.504644"/>
<trkpt lat="49.462899" lon="-120.504719"/>
<trkpt lat="49.462955" lon="-120.504726"/>
<trkpt lat="49.463673" lon="-120.504709"/>
<trkpt lat="49.464221" lon="-120.504296"/>
<trkpt lat="49.466394" lon="-120.500664"/>
<trkpt lat="49.467317" lon="-120.497269"/>
<trkpt lat="49.467464" lon="-120.495593"/>
<trkpt lat="49.467338" lon="-120.493433"/>
<trkpt lat="49.467612" lon="-120.492324"/>
<trkpt lat="49.469401" lon="-120.489773"/>
<trkpt lat="49.470045" lon="-120.485668"/>
<trkpt lat="49.470696" lon="-120.484759"/>
<trkpt lat="49.476604" lon="-120.483879"/>
<trkpt lat="49.481214" lon="-120.485260"/>
<trkpt lat="49.482279" lon="-120.484670"/>
<trkpt lat="49.483567" lon="-120.482110"/>
<trkpt lat="49.484044" lon="-120.481074"/>
<trkpt lat="49.484683" lon="-120.479686"/>
<trkpt lat="49.485555" lon="-120.478771"/>
<trkpt lat="49.491035" lon="-120.479075"/>
<trkpt lat="49.492913" lon="-120.481554"/>
<trkpt lat="49.497960" lon="-120.483450"/>
<trkpt lat="49.500593" lon="-120.485105"/>
<trkpt lat="49.502335" lon="-120.485170"/>
<trkpt lat="49.504453" lon="-120.486313"/>
<trkpt lat="49.505982" lon="-120.486749"/>
<trkpt lat="49.507339" lon="-120.488449"/>
<trkpt lat="49.509034" lon="-120.489583"/>
<trkpt lat="49.511022" lon="-120.491897"/>
<trkpt lat="49.512396" lon="-120.492968"/>
<trkpt lat="49.519915" lon="-120.494651"/>
<trkpt lat="49.522903" lon="-120.493671"/>
<trkpt lat="49.523971" lon="-120.493676"/>
<trkpt lat="49.525231" lon="-120.494718"/>
<trkpt lat="49.526560" lon="-120.497627"/>
<trkpt lat="49.527121" lon="-120.497954"/>
<trkpt lat="49.527751" lon="-120.497839"/>
<trkpt lat="49.528570" lon="-120.496534"/>
<trkpt lat="49.528364" lon="-120.494764"/>
<trkpt lat="49.525099" lon="-120.489598"/>
<trkpt lat="49.524137" lon="-120.489129"/>
<trkpt lat="49.522213" lon="-120.490108"/>
<trkpt lat="49.521629" lon="-120.490045"/>
<trkpt lat="49.520844" lon="-120.489095"/>
<trkpt lat="49.520747" lon="-120.487565"/>
<trkpt lat="49.521251" lon="-120.486431"/>
<trkpt lat="49.522007" lon="-120.486088"/>
<trkpt lat="49.526875" lon="-120.486386"/>
<trkpt lat="49.528782" lon="-120.487485"/>
<trkpt lat="49.529446" lon="-120.487468"/>
<trkpt lat="49.530288" lon="-120.486403"/>
<trkpt lat="49.530316" lon="-120.484650"/>
<trkpt lat="49.529435" lon="-120.483551"/>
<trkpt lat="49.525440" lon="-120.483083"/>
<trkpt lat="49.524246" lon="-120.482612"/>
<trkpt lat="49.522580" lon="-120.481346"/>
<trkpt lat="49.522146" lon="-120.480864"/>
<trkpt lat="49.521629" lon="-120.479428"/>
<trkpt lat="49.521566" lon="-120.478042"/>
<trkpt lat="49.521806" lon="-120.476811"/>
<trkpt lat="49.522574" lon="-120.475516"/>
<trkpt lat="49.523525" lon="-120.475007"/>
<trkpt lat="49.526161" lon="-120.475464"/>
<trkpt lat="49.527551" lon="-120.474995"/>
<trkpt lat="49.530001" lon="-120.471605"/>
<trkpt lat="49.532412" lon="-120.469795"/>
<trkpt lat="49.537939" lon="-120.463250"/>
<trkpt lat="49.538397" lon="-120.462396"/>
<trkpt lat="49.538741" lon="-120.460936"/>
<trkpt lat="49.538311" lon="-120.456080"/>
<trkpt lat="49.538540" lon="-120.454201"/>
<trkpt lat="49.539285" lon="-120.452724"/>
<trkpt lat="49.542884" lon="-120.447917"/>
<trkpt lat="49.543759" lon="-120.446107"/>
<trkpt lat="49.544521" lon="-120.442413"/>
<trkpt lat="49.545499" lon="-120.440422"/>
<trkpt lat="49.546198" lon="-120.440016"/>
<trkpt lat="49.547046" lon="-120.440211"/>
<trkpt lat="49.548652" lon="-120.442988"/>
<trkpt lat="49.549459" lon="-120.443274"/>
<trkpt lat="49.549978" lon="-120.443101"/>
<trkpt lat="49.551028" lon="-120.441728"/>
<trkpt lat="49.551630" lon="-120.437904"/>
<trkpt lat="49.553528" lon="-120.434192"/>
<trkpt lat="49.556674" lon="-120.432070"/>
<trkpt lat="49.558888" lon="-120.431764"/>
<trkpt lat="49.564185" lon="-120.428264"/>
<trkpt lat="49.565656" lon="-120.427758"/>
<trkpt lat="49.566969" lon="-120.425556"/>
<trkpt lat="49.569872" lon="-120.423975"/>
<trkpt lat="49.573961" lon="-120.419531"/>
<trkpt lat="49.577500" lon="-120.414503"/>
<trkpt lat="49.579779" lon="-120.413667"/>
<trkpt lat="49.581016" lon="-120.412567"/>
<trkpt lat="49.582259" lon="-120.412046"/>
<trkpt lat="49.583788" lon="-120.410368"/>
<trkpt lat="49.585266" lon="-120.409687"/>
<trkpt lat="49.588745" lon="-120.404258"/>
<trkpt lat="49.590645" lon="-120.402365"/>
<trkpt lat="49.591380" lon="-120.402088"/>
<trkpt lat="49.593403" lon="-120.402652"/>
<trkpt lat="49.594071" lon="-120.402375"/>
<trkpt lat="49.596125" lon="-120.398619"/>
<trkpt lat="49.598063" lon="-120.397635"/>
<trkpt lat="49.598976" lon="-120.396379"/>
<trkpt lat="49.599855" lon="-120.394788"/>
<trkpt lat="49.601166" lon="-120.393037"/>
<trkpt lat="49.603115" lon="-120.392867"/>
<trkpt lat="49.604603" lon="-120.392095"/>
<trkpt lat="49.606457" lon="-120.390314"/>
<trkpt lat="49.611176" lon="-120.386642"/>
<trkpt lat="49.614637" lon="-120.383333"/>
<trkpt lat="49.621021" lon="-120.379400"/>
<trkpt lat="49.624006" lon="-120.379382"/>
<trkpt lat="49.625676" lon="-120.380938"/>
<trkpt lat="49.626338" lon="-120.381164"/>
<trkpt lat="49.627814" lon="-120.380225"/>
<trkpt lat="49.629535" lon="-120.380441"/>
<trkpt lat="49.630434" lon="-120.380060"/>
<trkpt lat="49.632691" lon="-120.378121"/>
<trkpt lat="49.638290" lon="-120.371643"/>
<trkpt lat="49.639958" lon="-120.370719"/>
<trkpt lat="49.643161" lon="-120.369699"/>
<trkpt lat="49.643867" lon="-120.368496"/>
<trkpt lat="49.644631" lon="-120.365634"/>
<trkpt lat="49.646991" lon="-120.362825"/>
<trkpt lat="49.648522" lon="-120.361812"/>
<trkpt lat="49.650134" lon="-120.358806"/>
<trkpt lat="49.650923" lon="-120.357900"/>
<trkpt lat="49.651617" lon="-120.357301"/>
<trkpt lat="49.653356" lon="-120.356633"/>
<trkpt lat="49.654000" lon="-120.355964"/>
<trkpt lat="49.655641" lon="-120.352721"/>
<trkpt lat="49.657318" lon="-120.351297"/>
<trkpt lat="49.659655" lon="-120.348176"/>
<trkpt lat="49.661222" lon="-120.346884"/>
<trkpt lat="49.663246" lon="-120.344017"/>
<trkpt lat="49.667552" lon="-120.339680"/>
<trkpt lat="49.669025" lon="-120.338688"/>
<trkpt lat="49.670242" lon="-120.336013"/>
<trkpt lat="49.672481" lon="-120.335026"/>
<trkpt lat="49.675522" lon="-120.335149"/>
<trkpt lat="49.676438" lon="-120.334340"/>
<trkpt lat="49.676481" lon="-120.334263"/>
<trkpt lat="49.676761" lon="-120.332702"/>
<trkpt lat="49.675524" lon="-120.328149"/>
<trkpt lat="49.675111" lon="-120.325497"/>
<trkpt lat="49.675066" lon="-120.323064"/>
<trkpt lat="49.675487" lon="-120.318754"/>
<trkpt lat="49.675484" lon="-120.317921"/>
<trkpt lat="49.675104" lon="-120.316601"/>
<trkpt lat="49.671034" lon="-120.312710"/>
<trkpt lat="49.670444" lon="-120.310213"/>
<trkpt lat="49.669063" lon="-120.307647"/>
<trkpt lat="49.667260" lon="-120.301621"/>
<trkpt lat="49.666870" lon="-120.295752"/>
<trkpt lat="49.667015" lon="-120.294813"/>
<trkpt lat="49.669244" lon="-120.288959"/>
<trkpt lat="49.672755" lon="-120.286528"/>
<trkpt lat="49.674852" lon="-120.284735"/>
<trkpt lat="49.676082" lon="-120.282932"/>
<trkpt lat="49.677354" lon="-120.282245"/>
<trkpt lat="49.679944" lon="-120.282155"/>
<trkpt lat="49.683545" lon="-120.282538"/>
<trkpt lat="49.689062" lon="-120.284741"/>
<trkpt lat="49.692578" lon="-120.285458"/>
<trkpt lat="49.693545" lon="-120.285151"/>
<trkpt lat="49.695066" lon="-120.284038"/>
<trkpt lat="49.697623" lon="-120.283528"/>
<trkpt lat="49.699114" lon="-120.282184"/>
<trkpt lat="49.704348" lon="-120.275552"/>
<trkpt lat="49.706038" lon="-120.271590"/>
<trkpt lat="49.707629" lon="-120.269216"/>
<trkpt lat="49.709820" lon="-120.264090"/>
<trkpt lat="49.710720" lon="-120.260843"/>
<trkpt lat="49.713592" lon="-120.254456"/>
<trkpt lat="49.716099" lon="-120.246301"/>
<trkpt lat="49.716171" lon="-120.242380"/>
<trkpt lat="49.717028" lon="-120.239019"/>
<trkpt lat="49.716969" lon="-120.237041"/>
<trkpt lat="49.716191" lon="-120.235571"/>
<trkpt lat="49.711223" lon="-120.231499"/>
<trkpt lat="49.710705" lon="-120.230685"/>
<trkpt lat="49.708260" lon="-120.223339"/>
<trkpt lat="49.707910" lon="-120.221240"/>
<trkpt lat="49.707986" lon="-120.219430"/>
<trkpt lat="49.708608" lon="-120.217285"/>
<trkpt lat="49.710290" lon="-120.214136"/>
<trkpt lat="49.711551" lon="-120.209179"/>
<trkpt lat="49.711909" lon="-120.205941"/>
<trkpt lat="49.711202" lon="-120.198908"/>
<trkpt lat="49.711031" lon="-120.197485"/>
<trkpt lat="49.711027" lon="-120.195428"/>
<trkpt lat="49.717055" lon="-120.176057"/>
<trkpt lat="49.718766" lon="-120.170762"/>
<trkpt lat="49.722658" lon="-120.163789"/>
<trkpt lat="49.722752" lon="-120.162726"/>
<trkpt lat="49.722312" lon="-120.159377"/>
<trkpt lat="49.722455" lon="-120.150385"/>
<trkpt lat="49.722415" lon="-120.149823"/>
<trkpt lat="49.722181" lon="-120.148911"/>
<trkpt lat="49.720096" lon="-120.145508"/>
<trkpt lat="49.719194" lon="-120.139102"/>
<trkpt lat="49.718604" lon="-120.138246"/>
<trkpt lat="49.716606" lon="-120.136515"/>
<trkpt lat="49.716103" lon="-120.135169"/>
<trkpt lat="49.715923" lon="-120.129798"/>
<trkpt lat="49.716096" lon="-120.126545"/>
<trkpt lat="49.715344" lon="-120.122674"/>
<trkpt lat="49.715607" lon="-120.121668"/>
<trkpt lat="49.716736" lon="-120.119883"/>
<trkpt lat="49.716941" lon="-120.118515"/>
<trkpt lat="49.715363" lon="-120.113739"/>
<trkpt lat="49.715380" lon="-120.111901"/>
<trkpt lat="49.716054" lon="-120.107721"/>
<trkpt lat="49.715910" lon="-120.105909"/>
<trkpt lat="49.714589" lon="-120.104073"/>
<trkpt lat="49.714077" lon="-120.102125"/>
<trkpt lat="49.714636" lon="-120.098318"/>
<trkpt lat="49.713923" lon="-120.088555"/>
<trkpt lat="49.713904" lon="-120.085188"/>
<trkpt lat="49.714126" lon="-120.082065"/>
<trkpt lat="49.715107" lon="-120.079459"/>
<trkpt lat="49.714990" lon="-120.077773"/>
<trkpt lat="49.714435" lon="-120.073853"/>
<trkpt lat="49.714442" lon="-120.072228"/>
<trkpt lat="49.715916" lon="-120.063774"/>
<trkpt lat="49.715933" lon="-120.062230"/>
<trkpt lat="49.714236" lon="-120.053854"/>
<trkpt lat="49.713954" lon="-120.045682"/>
<trkpt lat="49.714197" lon="-120.043508"/>
<trkpt lat="49.715936" lon="-120.038050"/>
<trkpt lat="49.715991" lon="-120.035194"/>
<trkpt lat="49.713493" lon="-120.023126"/>
<trkpt lat="49.709752" lon="-120.014425"/>
<trkpt lat="49.709589" lon="-120.012762"/>
<trkpt lat="49.710173" lon="-120.010842"/>
<trkpt lat="49.710229" lon="-120.009582"/>
<trkpt lat="49.707875" lon="-120.003336"/>
<trkpt lat="49.707012" lon="-120.002273"/>
<trkpt lat="49.705454" lon="-120.001514"/>
<trkpt lat="49.702341" lon="-119.996410"/>
<trkpt lat="49.699299" lon="-119.992778"/>
<trkpt lat="49.696322" lon="-119.990100"/>
<trkpt lat="49.690494" lon="-119.982992"/>
<trkpt lat="49.689476" lon="-119.981480"/>
<trkpt lat="49.688315" lon="-119.977926"/>
<trkpt lat="49.687544" lon="-119.976636"/>
<trkpt lat="49.686562" lon="-119.976057"/>
<trkpt lat="49.683806" lon="-119.975833"/>
<trkpt lat="49.680836" lon="-119.973287"/>
<trkpt lat="49.677823" lon="-119.971510"/>
<trkpt lat="49.676189" lon="-119.971036"/>
<trkpt lat="49.673634" lon="-119.969134"/>
<trkpt lat="49.672518" lon="-119.967555"/>
<trkpt lat="49.671621" lon="-119.963413"/>
<trkpt lat="49.670712" lon="-119.961626"/>
<trkpt lat="49.667421" lon="-119.958801"/>
<trkpt lat="49.664826" lon="-119.958190"/>
<trkpt lat="49.663600" lon="-119.956717"/>
<trkpt lat="49.661613" lon="-119.955390"/>
<trkpt lat="49.661192" lon="-119.954180"/>
<trkpt lat="49.660818" lon="-119.950461"/>
<trkpt lat="49.659294" lon="-119.946285"/>
<trkpt lat="49.656911" lon="-119.943259"/>
<trkpt lat="49.656698" lon="-119.941267"/>
<trkpt lat="49.656721" lon="-119.937863"/>
<trkpt lat="49.656368" lon="-119.934759"/>
<trkpt lat="49.657077" lon="-119.932578"/>
<trkpt lat="49.657196" lon="-119.932266"/>
<trkpt lat="49.657358" lon="-119.930613"/>
<trkpt lat="49.656650" lon="-119.928118"/>
<trkpt lat="49.654733" lon="-119.925630"/>
<trkpt lat="49.653991" lon="-119.925170"/>
<trkpt lat="49.652055" lon="-119.925280"/>
<trkpt lat="49.650430" lon="-119.926621"/>
<trkpt lat="49.648606" lon="-119.927137"/>
<trkpt lat="49.647633" lon="-119.926208"/>
<trkpt lat="49.647185" lon="-119.924021"/>
<trkpt lat="49.646635" lon="-119.922743"/>
<trkpt lat="49.644661" lon="-119.920777"/>
<trkpt lat="49.644229" lon="-119.920646"/>
<trkpt lat="49.642343" lon="-119.921035"/>
<trkpt lat="49.641273" lon="-119.920317"/>
<trkpt lat="49.639153" lon="-119.914657"/>
<trkpt lat="49.638627" lon="-119.909218"/>
<trkpt lat="49.638153" lon="-119.908287"/>
<trkpt lat="49.637231" lon="-119.907401"/>
<trkpt lat="49.634842" lon="-119.905710"/>
<trkpt lat="49.634481" lon="-119.905040"/>
<trkpt lat="49.634070" lon="-119.902885"/>
<trkpt lat="49.632700" lon="-119.900322"/>
<trkpt lat="49.630965" lon="-119.898600"/>
<trkpt lat="49.629407" lon="-119.893371"/>
<trkpt lat="49.629206" lon="-119.888724"/>
<trkpt lat="49.628372" lon="-119.886634"/>
<trkpt lat="49.628136" lon="-119.883863"/>
<trkpt lat="49.627587" lon="-119.882556"/>
<trkpt lat="49.626997" lon="-119.880111"/>
<trkpt lat="49.625096" lon="-119.877283"/>
<trkpt lat="49.623848" lon="-119.874700"/>
<trkpt lat="49.622559" lon="-119.869144"/>
<trkpt lat="49.616383" lon="-119.857632"/>
<trkpt lat="49.616168" lon="-119.857668"/>
<trkpt lat="49.612990" lon="-119.852527"/>
<trkpt lat="49.612476" lon="-119.850718"/>
<trkpt lat="49.611986" lon="-119.846895"/>
<trkpt lat="49.611176" lon="-119.843684"/>
<trkpt lat="49.611148" lon="-119.842533"/>
<trkpt lat="49.611448" lon="-119.841505"/>
<trkpt lat="49.612915" lon="-119.839420"/>
<trkpt lat="49.614081" lon="-119.838513"/>
<trkpt lat="49.614464" lon="-119.837824"/>
<trkpt lat="49.614693" lon="-119.836030"/>
<trkpt lat="49.614223" lon="-119.830802"/>
<trkpt lat="49.614456" lon="-119.829584"/>
<trkpt lat="49.615555" lon="-119.826895"/>
<trkpt lat="49.615685" lon="-119.823711"/>
<trkpt lat="49.615291" lon="-119.820572"/>
<trkpt lat="49.615330" lon="-119.818088"/>
<trkpt lat="49.614709" lon="-119.815512"/>
<trkpt lat="49.614634" lon="-119.813419"/>
<trkpt lat="49.613834" lon="-119.810377"/>
<trkpt lat="49.614159" lon="-119.805960"/>
<trkpt lat="49.613175" lon="-119.802368"/>
<trkpt lat="49.613538" lon="-119.795466"/>
<trkpt lat="49.612642" lon="-119.789293"/>
<trkpt lat="49.610713" lon="-119.786143"/>
<trkpt lat="49.610407" lon="-119.784834"/>
<trkpt lat="49.610606" lon="-119.783365"/>
<trkpt lat="49.611312" lon="-119.781719"/>
<trkpt lat="49.611395" lon="-119.781495"/>
<trkpt lat="49.611435" lon="-119.781386"/>
<trkpt lat="49.611763" lon="-119.779833"/>
<trkpt lat="49.611394" lon="-119.778327"/>
<trkpt lat="49.611342" lon="-119.778230"/>
<trkpt lat="49.607013" lon="-119.770461"/>
<trkpt lat="49.606097" lon="-119.769339"/>
<trkpt lat="49.605270" lon="-119.769007"/>
<trkpt lat="49.602908" lon="-119.769334"/>
<trkpt lat="49.600657" lon="-119.768446"/>
<trkpt lat="49.598451" lon="-119.767476"/>
<trkpt lat="49.596237" lon="-119.765435"/>
<trkpt lat="49.594171" lon="-119.761961"/>
<trkpt lat="49.593559" lon="-119.760459"/>
<trkpt lat="49.592208" lon="-119.758518"/>
<trkpt lat="49.589524" lon="-119.753084"/>
<trkpt lat="49.588530" lon="-119.750887"/>
<trkpt lat="49.587887" lon="-119.748297"/>
<trkpt lat="49.586792" lon="-119.744957"/>
<trkpt lat="49.586259" lon="-119.744159"/>
<trkpt lat="49.586112" lon="-119.742292"/>
<trkpt lat="49.586832" lon="-119.740904"/>
<trkpt lat="49.587028" lon="-119.739836"/>
<trkpt lat="49.587512" lon="-119.739270"/>
<trkpt lat="49.587715" lon="-119.738266"/>
<trkpt lat="49.588144" lon="-119.737836"/>
<trkpt lat="49.588075" lon="-119.735650"/>
<trkpt lat="49.587719" lon="-119.734558"/>
<trkpt lat="49.588357" lon="-119.733036"/>
<trkpt lat="49.586924" lon="-119.732116"/>
<trkpt lat="49.586490" lon="-119.732271"/>
<trkpt lat="49.586222" lon="-119.732637"/>
<trkpt lat="49.585896" lon="-119.732629"/>
<trkpt lat="49.586028" lon="-119.731675"/>
<trkpt lat="49.584987" lon="-119.729607"/>
<trkpt lat="49.584624" lon="-119.727502"/>
<trkpt lat="49.584830" lon="-119.726713"/>
<trkpt lat="49.584734" lon="-119.725715"/>
<trkpt lat="49.584356" lon="-119.724753"/>
<trkpt lat="49.584968" lon="-119.723104"/>
<trkpt lat="49.586718" lon="-119.721068"/>
<trkpt lat="49.586744" lon="-119.719067"/>
<trkpt lat="49.586494" lon="-119.717707"/>
<trkpt lat="49.587293" lon="-119.715720"/>
<trkpt lat="49.587486" lon="-119.713758"/>
<trkpt lat="49.586478" lon="-119.711009"/>
<trkpt lat="49.585439" lon="-119.710260"/>
<trkpt lat="49.585080" lon="-119.708062"/>
<trkpt lat="49.584751" lon="-119.707442"/>
<trkpt lat="49.584789" lon="-119.706323"/>
<trkpt lat="49.584409" lon="-119.705361"/>
<trkpt lat="49.584670" lon="-119.704532"/>
<trkpt lat="49.584634" lon="-119.703816"/>
<trkpt lat="49.583532" lon="-119.702382"/>
<trkpt lat="49.583538" lon="-119.701666"/>
<trkpt lat="49.582806" lon="-119.700461"/>
<trkpt lat="49.583470" lon="-119.697136"/>
<trkpt lat="49.582596" lon="-119.695791"/>
<trkpt lat="49.581701" lon="-119.695864"/>
<trkpt lat="49.581321" lon="-119.695590"/>
<trkpt lat="49.580667" lon="-119.694076"/>
<trkpt lat="49.580057" lon="-119.693392"/>
<trkpt lat="49.580647" lon="-119.693301"/>
<trkpt lat="49.580433" lon="-119.692300"/>
<trkpt lat="49.580466" lon="-119.690473"/>
<trkpt lat="49.582028" lon="-119.690241"/>
<trkpt lat="49.582442" lon="-119.689212"/>
<trkpt lat="49.581641" lon="-119.688187"/>
<trkpt lat="49.581738" lon="-119.685988"/>
<trkpt lat="49.582127" lon="-119.685240"/>
<trkpt lat="49.582876" lon="-119.684602"/>
<trkpt lat="49.585704" lon="-119.683493"/>
<trkpt lat="49.585730" lon="-119.682880"/>
<trkpt lat="49.583909" lon="-119.683349"/>
<trkpt lat="49.581648" lon="-119.680657"/>
<trkpt lat="49.578450" lon="-119.680001"/>
<trkpt lat="49.576878" lon="-119.678920"/>
<trkpt lat="49.575994" lon="-119.678702"/>
<trkpt lat="49.574863" lon="-119.676978"/>
<trkpt lat="49.574090" lon="-119.675083"/>
<trkpt lat="49.574090" lon="-119.671636"/>
</trkseg>
</trk>
</gpx>