<?xml version="1.0" encoding="UTF-8"?>
<gpx version="1.1" creator="BC Bike Stops (bccycletourism.ca)" xmlns="http://www.topografix.com/GPX/1/1">
<metadata>
<name>North Shuswap - Tsutswecw — cycling stops</name>
<link href="https://bccycletourism.ca/route/ok-31/"><text>BC Bike Stops</text></link>
</metadata>
<wpt lat="50.910745" lon="-119.446850">
<name>Shuswap Lake Provincial Campground</name>
<cmt>camping</cmt>
<desc>Public Campground</desc>
<sym>Dot</sym>
<type>campsite</type>
</wpt>
<wpt lat="50.912251" lon="-119.457940">
<name>Scotch Creek Market</name>
<cmt>convenience_store</cmt>
<desc>Grocery Store</desc>
<sym>Dot</sym>
<type>store</type>
</wpt>
<wpt lat="50.913137" lon="-119.457751">
<name>North Shuswap Library Branch</name>
<cmt>library</cmt>
<desc>Library</desc>
<sym>Dot</sym>
<type>info</type>
</wpt>
<wpt lat="50.912015" lon="-119.440591">
<name>Creekside Restaurant</name>
<cmt>bar</cmt>
<desc>Brewery / Pub</desc>
<sym>Dot</sym>
<type>food</type>
</wpt>
<wpt lat="50.911337" lon="-119.437614">
<name>The Hub</name>
<cmt>food</cmt>
<desc>Restaurant</desc>
<sym>Dot</sym>
<type>food</type>
</wpt>
<wpt lat="50.875963" lon="-119.615946">
<name>Talking Rock Golf and Quaaout Lodge</name>
<cmt>lodging</cmt>
<desc>Resort</desc>
<sym>Dot</sym>
<type>shelter</type>
</wpt>
<wpt lat="50.942205" lon="-119.349959">
<name>Fetch Panda Market</name>
<cmt>convenience_store</cmt>
<desc>Convenience Store</desc>
<sym>Dot</sym>
<type>store</type>
</wpt>
<wpt lat="50.954852" lon="-119.359538">
<name>Celista Estate Winery</name>
<cmt>winery</cmt>
<desc>Winery / Cidery</desc>
<sym>Dot</sym>
<type>food</type>
</wpt>
<wpt lat="50.962122" lon="-119.235013">
<name>Ross Creek Country Store</name>
<cmt>convenience_store</cmt>
<desc>Convenience Store</desc>
<sym>Dot</sym>
<type>store</type>
</wpt>
</gpx>