<?xml version="1.0" encoding="UTF-8"?>
<gpx version="1.1" creator="BC Bike Stops (bccycletourism.ca)" xmlns="http://www.topografix.com/GPX/1/1">
<metadata>
<name>Sooke Hills Wilderness Trail</name>
<link href="https://bccycletourism.ca/trail/sooke-hills-wilderness-trail/"><text>BC Bike Stops</text></link>
</metadata>
<wpt lat="48.462500" lon="-123.575373">
<name>Goldstream Suspension Bridge</name>
<cmt>viewpoint</cmt>
<desc>Activity / Experience</desc>
<sym>Dot</sym>
<type>overlook</type>
</wpt>
<wpt lat="48.464409" lon="-123.563458">
<name>Goldstream Campground</name>
<cmt>camping</cmt>
<desc>Public Campground</desc>
<sym>Dot</sym>
<type>campsite</type>
</wpt>
</gpx>