<?xml version="1.0" encoding="UTF-8"?>
<gpx version="1.1" creator="We Welcome Cyclists (bccycletourism.ca)" xmlns="http://www.topografix.com/GPX/1/1">
<metadata>
<name>Whatcom Road</name>
<link href="https://bccycletourism.ca/trail/whatcom-road/"><text>We Welcome Cyclists</text></link>
</metadata>
<wpt lat="49.045445" lon="-122.223207">
<name>Save-On-Foods</name>
<cmt>convenience_store</cmt>
<desc>Grocery Store</desc>
<sym>Dot</sym>
<type>store</type>
</wpt>
<wpt lat="49.043092" lon="-122.223242">
<name>Chevron Town Pantry</name>
<cmt>convenience_store</cmt>
<desc>Convenience Store</desc>
<sym>Dot</sym>
<type>store</type>
</wpt>
<wpt lat="49.043144" lon="-122.223102">
<name>Triple O's</name>
<cmt>food</cmt>
<desc>Fast Food / Chain</desc>
<sym>Dot</sym>
<type>food</type>
</wpt>
<wpt lat="49.039877" lon="-122.221728">
<name>Sparkes Corn Barn</name>
<cmt>convenience_store</cmt>
<desc>Grocery Store</desc>
<sym>Dot</sym>
<type>store</type>
</wpt>
<wpt lat="49.041364" lon="-122.221232">
<name>McDonald's</name>
<cmt>food</cmt>
<desc>Fast Food / Chain</desc>
<sym>Dot</sym>
<type>food</type>
</wpt>
<wpt lat="49.040684" lon="-122.220522">
<name>Petro-Canada</name>
<cmt>convenience_store</cmt>
<desc>Convenience Store</desc>
<sym>Dot</sym>
<type>store</type>
</wpt>
<wpt lat="49.040662" lon="-122.220376">
<name>Tim Hortons</name>
<cmt>food</cmt>
<desc>Fast Food / Chain</desc>
<sym>Dot</sym>
<type>food</type>
</wpt>
<wpt lat="49.040664" lon="-122.220198">
<name>Taco Del Mar</name>
<cmt>food</cmt>
<desc>Fast Food / Chain</desc>
<sym>Dot</sym>
<type>food</type>
</wpt>
<wpt lat="49.041246" lon="-122.220782">
<name>Booster Juice</name>
<cmt>food</cmt>
<desc>Fast Food / Chain</desc>
<sym>Dot</sym>
<type>food</type>
</wpt>
<wpt lat="49.041218" lon="-122.220706">
<name>Donair Affair</name>
<cmt>food</cmt>
<desc>Fast Food / Chain</desc>
<sym>Dot</sym>
<type>food</type>
</wpt>
<wpt lat="49.040663" lon="-122.220085">
<name>Subway</name>
<cmt>food</cmt>
<desc>Fast Food / Chain</desc>
<sym>Dot</sym>
<type>food</type>
</wpt>
<wpt lat="49.041202" lon="-122.220637">
<name>Freshii</name>
<cmt>food</cmt>
<desc>Restaurant</desc>
<sym>Dot</sym>
<type>food</type>
</wpt>
<wpt lat="49.041185" lon="-122.220572">
<name>Pizza Hut Delivery</name>
<cmt>food</cmt>
<desc>Fast Food / Chain</desc>
<sym>Dot</sym>
<type>food</type>
</wpt>
<wpt lat="49.040665" lon="-122.219885">
<name>HIKO SUSHI</name>
<cmt>food</cmt>
<desc>Restaurant</desc>
<sym>Dot</sym>
<type>food</type>
</wpt>
<wpt lat="49.040664" lon="-122.219765">
<name>A&amp;W</name>
<cmt>food</cmt>
<desc>Fast Food / Chain</desc>
<sym>Dot</sym>
<type>food</type>
</wpt>
<wpt lat="49.041094" lon="-122.220149">
<name>Starbucks</name>
<cmt>food</cmt>
<desc>Fast Food / Chain</desc>
<sym>Dot</sym>
<type>food</type>
</wpt>
<wpt lat="49.044966" lon="-122.221888">
<name>Starbucks</name>
<cmt>food</cmt>
<desc>Fast Food / Chain</desc>
<sym>Dot</sym>
<type>food</type>
</wpt>
<wpt lat="49.044685" lon="-122.221741">
<name>Sumas Mountain Abbotsford liquor store</name>
<cmt>convenience_store</cmt>
<desc>Liquor Store</desc>
<sym>Dot</sym>
<type>store</type>
</wpt>
<wpt lat="49.044739" lon="-122.221741">
<name>Freshslice Pizza</name>
<cmt>food</cmt>
<desc>Fast Food / Chain</desc>
<sym>Dot</sym>
<type>food</type>
</wpt>
<wpt lat="49.044790" lon="-122.221746">
<name>Sushi Nara</name>
<cmt>food</cmt>
<desc>Fast Food / Chain</desc>
<sym>Dot</sym>
<type>food</type>
</wpt>
<wpt lat="49.044450" lon="-122.221732">
<name>The Chopped Leaf</name>
<cmt>food</cmt>
<desc>Restaurant</desc>
<sym>Dot</sym>
<type>food</type>
</wpt>
<wpt lat="49.037203" lon="-122.226155">
<name>White Spot</name>
<cmt>food</cmt>
<desc>Fast Food / Chain</desc>
<sym>Dot</sym>
<type>food</type>
</wpt>
<trk><name>Whatcom Road</name>
<trkseg>
<trkpt lat="49.017087" lon="-122.219103"/>
<trkpt lat="49.020352" lon="-122.219035"/>
<trkpt lat="49.027163" lon="-122.218937"/>
<trkpt lat="49.027522" lon="-122.218931"/>
<trkpt lat="49.038299" lon="-122.219301"/>
</trkseg>
<trkseg>
<trkpt lat="49.040014" lon="-122.220997"/>
<trkpt lat="49.040548" lon="-122.221570"/>
<trkpt lat="49.040852" lon="-122.221859"/>
<trkpt lat="49.041309" lon="-122.222344"/>
<trkpt lat="49.042140" lon="-122.223417"/>
<trkpt lat="49.042424" lon="-122.223646"/>
<trkpt lat="49.042764" lon="-122.223808"/>
</trkseg>
<trkseg>
<trkpt lat="49.042764" lon="-122.223808"/>
<trkpt lat="49.044054" lon="-122.223641"/>
<trkpt lat="49.044097" lon="-122.223627"/>
<trkpt lat="49.044943" lon="-122.223604"/>
<trkpt lat="49.045521" lon="-122.223939"/>
<trkpt lat="49.046344" lon="-122.224788"/>
</trkseg>
<trkseg>
<trkpt lat="49.046344" lon="-122.224788"/>
<trkpt lat="49.047811" lon="-122.227579"/>
<trkpt lat="49.048629" lon="-122.227975"/>
<trkpt lat="49.049494" lon="-122.227682"/>
<trkpt lat="49.049946" lon="-122.227154"/>
</trkseg>
<trkseg>
<trkpt lat="49.049946" lon="-122.227154"/>
<trkpt lat="49.050784" lon="-122.225590"/>
<trkpt lat="49.051680" lon="-122.225129"/>
</trkseg>
<trkseg>
<trkpt lat="49.051680" lon="-122.225129"/>
<trkpt lat="49.050836" lon="-122.225700"/>
<trkpt lat="49.050697" lon="-122.225895"/>
<trkpt lat="49.050475" lon="-122.226213"/>
<trkpt lat="49.049946" lon="-122.227154"/>
</trkseg>
<trkseg>
<trkpt lat="49.051680" lon="-122.225129"/>
<trkpt lat="49.052064" lon="-122.225119"/>
<trkpt lat="49.052411" lon="-122.225224"/>
</trkseg>
<trkseg>
<trkpt lat="49.052411" lon="-122.225224"/>
<trkpt lat="49.053055" lon="-122.225871"/>
<trkpt lat="49.053316" lon="-122.226405"/>
<trkpt lat="49.053554" lon="-122.227689"/>
<trkpt lat="49.054002" lon="-122.228847"/>
</trkseg>
<trkseg>
<trkpt lat="49.054002" lon="-122.228847"/>
<trkpt lat="49.054880" lon="-122.230053"/>
<trkpt lat="49.056309" lon="-122.234071"/>
<trkpt lat="49.056994" lon="-122.235380"/>
<trkpt lat="49.059973" lon="-122.237623"/>
<trkpt lat="49.060588" lon="-122.238026"/>
</trkseg>
<trkseg>
<trkpt lat="49.060588" lon="-122.238026"/>
<trkpt lat="49.061783" lon="-122.238513"/>
<trkpt lat="49.062675" lon="-122.238798"/>
<trkpt lat="49.063372" lon="-122.239165"/>
</trkseg>
<trkseg>
<trkpt lat="49.063372" lon="-122.239165"/>
<trkpt lat="49.063835" lon="-122.239675"/>
<trkpt lat="49.064096" lon="-122.239994"/>
</trkseg>
<trkseg>
<trkpt lat="49.064096" lon="-122.239994"/>
<trkpt lat="49.064786" lon="-122.240902"/>
</trkseg>
<trkseg>
<trkpt lat="49.064786" lon="-122.240902"/>
<trkpt lat="49.065058" lon="-122.241242"/>
<trkpt lat="49.065165" lon="-122.241329"/>
</trkseg>
<trkseg>
<trkpt lat="49.065165" lon="-122.241329"/>
<trkpt lat="49.065857" lon="-122.241818"/>
</trkseg>
<trkseg>
<trkpt lat="49.065895" lon="-122.241694"/>
<trkpt lat="49.065165" lon="-122.241329"/>
</trkseg>
<trkseg>
<trkpt lat="49.064786" lon="-122.240902"/>
<trkpt lat="49.064096" lon="-122.239994"/>
</trkseg>
<trkseg>
<trkpt lat="49.063372" lon="-122.239165"/>
<trkpt lat="49.061980" lon="-122.238396"/>
<trkpt lat="49.061794" lon="-122.238362"/>
<trkpt lat="49.061620" lon="-122.238323"/>
<trkpt lat="49.060588" lon="-122.238026"/>
</trkseg>
<trkseg>
<trkpt lat="49.054002" lon="-122.228847"/>
<trkpt lat="49.053640" lon="-122.227658"/>
<trkpt lat="49.053143" lon="-122.225814"/>
<trkpt lat="49.053084" lon="-122.225724"/>
<trkpt lat="49.052577" lon="-122.225237"/>
<trkpt lat="49.052411" lon="-122.225224"/>
</trkseg>
<trkseg>
<trkpt lat="49.046344" lon="-122.224788"/>
<trkpt lat="49.045769" lon="-122.224001"/>
<trkpt lat="49.044984" lon="-122.223455"/>
<trkpt lat="49.044218" lon="-122.223399"/>
<trkpt lat="49.043569" lon="-122.223632"/>
<trkpt lat="49.042775" lon="-122.223675"/>
<trkpt lat="49.042463" lon="-122.223517"/>
<trkpt lat="49.042193" lon="-122.223301"/>
<trkpt lat="49.041905" lon="-122.222912"/>
<trkpt lat="49.041539" lon="-122.222362"/>
<trkpt lat="49.040893" lon="-122.221716"/>
<trkpt lat="49.040522" lon="-122.221341"/>
<trkpt lat="49.040065" lon="-122.220876"/>
</trkseg>
<trkseg>
<trkpt lat="49.042223" lon="-122.224300"/>
<trkpt lat="49.042764" lon="-122.223808"/>
</trkseg>
</trk>
</gpx>