<?xml version="1.0" encoding="UTF-8"?>
<gpx version="1.1" creator="BC Bike Stops (bccycletourism.ca)" xmlns="http://www.topografix.com/GPX/1/1">
<metadata>
<name>Menzies Trail</name>
<link href="https://bccycletourism.ca/trail/menzies-trail/"><text>BC Bike Stops</text></link>
</metadata>
<wpt lat="49.323858" lon="-122.466277">
<name>Woodlands Groupsite</name>
<cmt>camping</cmt>
<desc>Public Campground</desc>
<sym>Dot</sym>
<type>campsite</type>
</wpt>
<wpt lat="49.328587" lon="-122.459291">
<name>Golden Ears Groupsite</name>
<cmt>camping</cmt>
<desc>Public Campground</desc>
<sym>Dot</sym>
<type>campsite</type>
</wpt>
<wpt lat="49.324458" lon="-122.462304">
<name>Golden Ears Store</name>
<cmt>convenience_store</cmt>
<desc>Convenience Store</desc>
<sym>Dot</sym>
<type>store</type>
</wpt>
</gpx>