<?xml version="1.0" encoding="UTF-8"?>
<gpx version="1.1" creator="BC Bike Stops (bccycletourism.ca)" xmlns="http://www.topografix.com/GPX/1/1">
<metadata>
<name>South Fraser Perimeter Road Path (Highway 17)</name>
<link href="https://bccycletourism.ca/trail/south-fraser-perimeter-road-path-highway-17/"><text>BC Bike Stops</text></link>
</metadata>
<wpt lat="49.209885" lon="-122.863348">
<name>Central City Beer Store</name>
<cmt>bar</cmt>
<desc>Brewery / Pub</desc>
<sym>Dot</sym>
<type>food</type>
</wpt>
<wpt lat="49.205934" lon="-122.867930">
<name>McDonald's</name>
<cmt>food</cmt>
<desc>Fast Food / Chain</desc>
<sym>Dot</sym>
<type>food</type>
</wpt>
<wpt lat="49.211739" lon="-122.862483">
<name>Tim Hortons</name>
<cmt>food</cmt>
<desc>Fast Food / Chain</desc>
<sym>Dot</sym>
<type>food</type>
</wpt>
<wpt lat="49.205688" lon="-122.866689">
<name>A&amp;W</name>
<cmt>food</cmt>
<desc>Fast Food / Chain</desc>
<sym>Dot</sym>
<type>food</type>
</wpt>
<wpt lat="49.202266" lon="-122.871142">
<name>North Surrey Sport and Ice Complex</name>
<cmt>rest_stop</cmt>
<desc>Community Centre</desc>
<sym>Dot</sym>
<type>rest_area</type>
</wpt>
<wpt lat="49.203057" lon="-122.871917">
<name>Pizza Pizza</name>
<cmt>food</cmt>
<desc>Fast Food / Chain</desc>
<sym>Dot</sym>
<type>food</type>
</wpt>
<wpt lat="49.203177" lon="-122.879255">
<name>Subway</name>
<cmt>food</cmt>
<desc>Fast Food / Chain</desc>
<sym>Dot</sym>
<type>food</type>
</wpt>
<wpt lat="49.192845" lon="-122.889012">
<name>Tim Hortons</name>
<cmt>food</cmt>
<desc>Fast Food / Chain</desc>
<sym>Dot</sym>
<type>food</type>
</wpt>
<wpt lat="49.192408" lon="-122.889272">
<name>Triple O's</name>
<cmt>food</cmt>
<desc>Fast Food / Chain</desc>
<sym>Dot</sym>
<type>food</type>
</wpt>
<wpt lat="49.204210" lon="-122.871929">
<name>Chai Coffee Company</name>
<cmt>coffee</cmt>
<desc>Café / Coffee</desc>
<sym>Dot</sym>
<type>food</type>
</wpt>
<wpt lat="49.191533" lon="-122.890878">
<name>Starbucks</name>
<cmt>food</cmt>
<desc>Fast Food / Chain</desc>
<sym>Dot</sym>
<type>food</type>
</wpt>
<wpt lat="49.185555" lon="-122.899133">
<name>Maple Pizza and Grace Market</name>
<cmt>convenience_store</cmt>
<desc>Convenience Store</desc>
<sym>Dot</sym>
<type>store</type>
</wpt>
<wpt lat="49.190925" lon="-122.890884">
<name>Burger King</name>
<cmt>food</cmt>
<desc>Fast Food / Chain</desc>
<sym>Dot</sym>
<type>food</type>
</wpt>
<wpt lat="49.190916" lon="-122.891049">
<name>Quiznos</name>
<cmt>food</cmt>
<desc>Fast Food / Chain</desc>
<sym>Dot</sym>
<type>food</type>
</wpt>
<wpt lat="49.190909" lon="-122.891173">
<name>Quesada</name>
<cmt>food</cmt>
<desc>Fast Food / Chain</desc>
<sym>Dot</sym>
<type>food</type>
</wpt>
<wpt lat="49.206830" lon="-122.878493">
<name>Turf Hotel</name>
<cmt>lodging</cmt>
<desc>Hotel / Motel</desc>
<sym>Dot</sym>
<type>shelter</type>
</wpt>
<wpt lat="49.209609" lon="-122.805720">
<name>Dogwood Campgrounds &amp; RV Park</name>
<cmt>camping</cmt>
<desc>Private Campground</desc>
<sym>Dot</sym>
<type>campsite</type>
</wpt>
<wpt lat="49.156616" lon="-122.940544">
<name>Tide Waters Pub</name>
<cmt>bar</cmt>
<desc>Brewery / Pub</desc>
<sym>Dot</sym>
<type>food</type>
</wpt>
<wpt lat="49.035036" lon="-123.087634">
<name>Montana's</name>
<cmt>food</cmt>
<desc>Restaurant</desc>
<sym>Dot</sym>
<type>food</type>
</wpt>
<wpt lat="49.035275" lon="-123.088497">
<name>Boston Pizza</name>
<cmt>food</cmt>
<desc>Fast Food / Chain</desc>
<sym>Dot</sym>
<type>food</type>
</wpt>
<wpt lat="49.035151" lon="-123.088867">
<name>Milestones</name>
<cmt>food</cmt>
<desc>Restaurant</desc>
<sym>Dot</sym>
<type>food</type>
</wpt>
<wpt lat="49.169400" lon="-122.914908">
<name>Greek Fellas Restaurant</name>
<cmt>food</cmt>
<desc>Restaurant</desc>
<sym>Dot</sym>
<type>food</type>
</wpt>
<wpt lat="49.032572" lon="-123.081231">
<name>Pat Quinn's</name>
<cmt>food</cmt>
<desc>Restaurant</desc>
<sym>Dot</sym>
<type>food</type>
</wpt>
<wpt lat="49.169114" lon="-122.914849">
<name>Annieville Market</name>
<cmt>convenience_store</cmt>
<desc>Grocery Store</desc>
<sym>Dot</sym>
<type>store</type>
</wpt>
<wpt lat="49.031821" lon="-123.080752">
<name>Newman's Fine Foods</name>
<cmt>convenience_store</cmt>
<desc>Grocery Store</desc>
<sym>Dot</sym>
<type>store</type>
</wpt>
<wpt lat="49.031785" lon="-123.080347">
<name>Nat's Coffee House</name>
<cmt>coffee</cmt>
<desc>Café / Coffee</desc>
<sym>Dot</sym>
<type>food</type>
</wpt>
<wpt lat="49.138319" lon="-123.014493">
<name>Divine Sandwich</name>
<cmt>food</cmt>
<desc>Fast Food / Chain</desc>
<sym>Dot</sym>
<type>food</type>
</wpt>
<wpt lat="49.033064" lon="-123.092280">
<name>Big Splash Water Slide Park</name>
<cmt>park</cmt>
<desc>Park / Nature</desc>
<sym>Dot</sym>
<type>rest_area</type>
</wpt>
<wpt lat="49.036014" lon="-123.088186">
<name>Big Orange</name>
<cmt>coffee</cmt>
<desc>Café / Coffee</desc>
<sym>Dot</sym>
<type>food</type>
</wpt>
<wpt lat="49.038164" lon="-123.085700">
<name>California Thai</name>
<cmt>food</cmt>
<desc>Restaurant</desc>
<sym>Dot</sym>
<type>food</type>
</wpt>
<wpt lat="49.033520" lon="-123.095712">
<name>ParkCanada RV Park</name>
<cmt>camping</cmt>
<desc>Private Campground</desc>
<sym>Dot</sym>
<type>campsite</type>
</wpt>
<wpt lat="49.038800" lon="-123.082715">
<name>Starbucks</name>
<cmt>food</cmt>
<desc>Fast Food / Chain</desc>
<sym>Dot</sym>
<type>food</type>
</wpt>
<wpt lat="49.038086" lon="-123.084720">
<name>Elements Outfitters</name>
<cmt>convenience_store</cmt>
<desc>Outdoor Gear</desc>
<sym>Dot</sym>
<type>store</type>
</wpt>
<wpt lat="49.039167" lon="-123.082491">
<name>Kernels Popcorn</name>
<cmt>food</cmt>
<desc>Fast Food / Chain</desc>
<sym>Dot</sym>
<type>food</type>
</wpt>
<wpt lat="49.039078" lon="-123.082841">
<name>CoCo Fresh Tea &amp; Juice</name>
<cmt>coffee</cmt>
<desc>Café / Coffee</desc>
<sym>Dot</sym>
<type>food</type>
</wpt>
<wpt lat="49.039282" lon="-123.082500">
<name>Chai Samosa</name>
<cmt>food</cmt>
<desc>Restaurant</desc>
<sym>Dot</sym>
<type>food</type>
</wpt>
<wpt lat="49.039484" lon="-123.082493">
<name>South Street Burger</name>
<cmt>food</cmt>
<desc>Fast Food / Chain</desc>
<sym>Dot</sym>
<type>food</type>
</wpt>
<wpt lat="49.037851" lon="-123.085920">
<name>Freshly Squeezed</name>
<cmt>food</cmt>
<desc>Fast Food / Chain</desc>
<sym>Dot</sym>
<type>food</type>
</wpt>
<wpt lat="49.039439" lon="-123.082786">
<name>Togo Sushi</name>
<cmt>food</cmt>
<desc>Restaurant</desc>
<sym>Dot</sym>
<type>food</type>
</wpt>
<wpt lat="49.039589" lon="-123.082537">
<name>Tim Hortons</name>
<cmt>food</cmt>
<desc>Fast Food / Chain</desc>
<sym>Dot</sym>
<type>food</type>
</wpt>
<wpt lat="49.038116" lon="-123.085634">
<name>New York Fries</name>
<cmt>food</cmt>
<desc>Fast Food / Chain</desc>
<sym>Dot</sym>
<type>food</type>
</wpt>
<wpt lat="49.039536" lon="-123.082790">
<name>Mr. Pretzels</name>
<cmt>food</cmt>
<desc>Fast Food / Chain</desc>
<sym>Dot</sym>
<type>food</type>
</wpt>
<wpt lat="49.037924" lon="-123.086202">
<name>A&amp;W</name>
<cmt>food</cmt>
<desc>Fast Food / Chain</desc>
<sym>Dot</sym>
<type>food</type>
</wpt>
<wpt lat="49.039586" lon="-123.082791">
<name>Jugo Juice</name>
<cmt>food</cmt>
<desc>Fast Food / Chain</desc>
<sym>Dot</sym>
<type>food</type>
</wpt>
<wpt lat="49.036688" lon="-123.088846">
<name>Winners</name>
<cmt>convenience_store</cmt>
<desc>Grocery Store</desc>
<sym>Dot</sym>
<type>store</type>
</wpt>
<wpt lat="49.037962" lon="-123.086249">
<name>Hula Poke</name>
<cmt>food</cmt>
<desc>Restaurant</desc>
<sym>Dot</sym>
<type>food</type>
</wpt>
<wpt lat="49.038209" lon="-123.085750">
<name>Opa! Of Greece</name>
<cmt>food</cmt>
<desc>Restaurant</desc>
<sym>Dot</sym>
<type>food</type>
</wpt>
<wpt lat="49.039519" lon="-123.083078">
<name>Daruma</name>
<cmt>food</cmt>
<desc>Restaurant</desc>
<sym>Dot</sym>
<type>food</type>
</wpt>
<wpt lat="49.038002" lon="-123.086301">
<name>Bourbon St. Grill</name>
<cmt>food</cmt>
<desc>Fast Food / Chain</desc>
<sym>Dot</sym>
<type>food</type>
</wpt>
<wpt lat="49.038258" lon="-123.085805">
<name>KFC</name>
<cmt>food</cmt>
<desc>Fast Food / Chain</desc>
<sym>Dot</sym>
<type>food</type>
</wpt>
<wpt lat="49.038047" lon="-123.086356">
<name>Chachi's</name>
<cmt>food</cmt>
<desc>Fast Food / Chain</desc>
<sym>Dot</sym>
<type>food</type>
</wpt>
<wpt lat="49.038298" lon="-123.085858">
<name>Shanghai 360</name>
<cmt>food</cmt>
<desc>Fast Food / Chain</desc>
<sym>Dot</sym>
<type>food</type>
</wpt>
<wpt lat="49.038331" lon="-123.085901">
<name>Edo Japan</name>
<cmt>food</cmt>
<desc>Fast Food / Chain</desc>
<sym>Dot</sym>
<type>food</type>
</wpt>
<wpt lat="49.037999" lon="-123.086867">
<name>Yogen Früz</name>
<cmt>food</cmt>
<desc>Ice Cream</desc>
<sym>Dot</sym>
<type>food</type>
</wpt>
<wpt lat="49.038185" lon="-123.086512">
<name>Presotea</name>
<cmt>coffee</cmt>
<desc>Café / Coffee</desc>
<sym>Dot</sym>
<type>food</type>
</wpt>
<wpt lat="49.038502" lon="-123.085923">
<name>Menbow Ramen Bar</name>
<cmt>food</cmt>
<desc>Fast Food / Chain</desc>
<sym>Dot</sym>
<type>food</type>
</wpt>
<wpt lat="49.037460" lon="-123.088146">
<name>Marshalls</name>
<cmt>convenience_store</cmt>
<desc>Grocery Store</desc>
<sym>Dot</sym>
<type>store</type>
</wpt>
<wpt lat="49.038417" lon="-123.086202">
<name>Crepe Delicious</name>
<cmt>food</cmt>
<desc>Restaurant</desc>
<sym>Dot</sym>
<type>food</type>
</wpt>
<wpt lat="49.041599" lon="-123.083045">
<name>De Dutch</name>
<cmt>food</cmt>
<desc>Restaurant</desc>
<sym>Dot</sym>
<type>food</type>
</wpt>
<trk><name>South Fraser Perimeter Road Path (Highway 17)</name>
<trkseg>
<trkpt lat="49.011212" lon="-123.123607"/>
<trkpt lat="49.011418" lon="-123.123277"/>
<trkpt lat="49.011720" lon="-123.122845"/>
<trkpt lat="49.013320" lon="-123.120550"/>
<trkpt lat="49.013961" lon="-123.119481"/>
</trkseg>
<trkseg>
<trkpt lat="49.013961" lon="-123.119481"/>
<trkpt lat="49.012755" lon="-123.121098"/>
<trkpt lat="49.012319" lon="-123.121724"/>
<trkpt lat="49.011724" lon="-123.122553"/>
</trkseg>
<trkseg>
<trkpt lat="49.013961" lon="-123.119481"/>
<trkpt lat="49.016539" lon="-123.115841"/>
<trkpt lat="49.017531" lon="-123.114440"/>
<trkpt lat="49.026216" lon="-123.102155"/>
<trkpt lat="49.028580" lon="-123.098250"/>
<trkpt lat="49.029093" lon="-123.097208"/>
<trkpt lat="49.030330" lon="-123.094686"/>
<trkpt lat="49.031318" lon="-123.092669"/>
</trkseg>
<trkseg>
<trkpt lat="49.031318" lon="-123.092669"/>
<trkpt lat="49.031983" lon="-123.091222"/>
<trkpt lat="49.032622" lon="-123.089872"/>
<trkpt lat="49.032679" lon="-123.089763"/>
<trkpt lat="49.036698" lon="-123.081353"/>
<trkpt lat="49.037013" lon="-123.080670"/>
<trkpt lat="49.037443" lon="-123.079746"/>
<trkpt lat="49.037637" lon="-123.079339"/>
<trkpt lat="49.042352" lon="-123.069513"/>
<trkpt lat="49.042776" lon="-123.068668"/>
<trkpt lat="49.043087" lon="-123.068028"/>
<trkpt lat="49.045429" lon="-123.063178"/>
<trkpt lat="49.046419" lon="-123.061505"/>
<trkpt lat="49.047908" lon="-123.059695"/>
<trkpt lat="49.050338" lon="-123.057977"/>
<trkpt lat="49.053236" lon="-123.057251"/>
<trkpt lat="49.056413" lon="-123.056856"/>
<trkpt lat="49.057599" lon="-123.056122"/>
<trkpt lat="49.058789" lon="-123.054873"/>
<trkpt lat="49.059540" lon="-123.053370"/>
<trkpt lat="49.059809" lon="-123.051484"/>
<trkpt lat="49.059507" lon="-123.047847"/>
<trkpt lat="49.059493" lon="-123.043394"/>
<trkpt lat="49.059776" lon="-123.041131"/>
<trkpt lat="49.060815" lon="-123.038494"/>
<trkpt lat="49.062024" lon="-123.036995"/>
<trkpt lat="49.064298" lon="-123.035971"/>
<trkpt lat="49.077899" lon="-123.035887"/>
<trkpt lat="49.079456" lon="-123.035431"/>
<trkpt lat="49.081139" lon="-123.033973"/>
<trkpt lat="49.082425" lon="-123.031714"/>
<trkpt lat="49.082903" lon="-123.030008"/>
<trkpt lat="49.083272" lon="-123.027392"/>
<trkpt lat="49.083846" lon="-123.025944"/>
<trkpt lat="49.085105" lon="-123.024733"/>
<trkpt lat="49.086851" lon="-123.024495"/>
<trkpt lat="49.086853" lon="-123.024104"/>
<trkpt lat="49.090065" lon="-123.024090"/>
</trkseg>
<trkseg>
<trkpt lat="49.090065" lon="-123.024090"/>
<trkpt lat="49.090072" lon="-123.025084"/>
<trkpt lat="49.088522" lon="-123.024676"/>
<trkpt lat="49.085783" lon="-123.024713"/>
<trkpt lat="49.084283" lon="-123.025619"/>
<trkpt lat="49.083497" lon="-123.027059"/>
<trkpt lat="49.082925" lon="-123.030461"/>
<trkpt lat="49.082044" lon="-123.032798"/>
<trkpt lat="49.081221" lon="-123.034098"/>
<trkpt lat="49.079415" lon="-123.035604"/>
<trkpt lat="49.077500" lon="-123.036050"/>
<trkpt lat="49.064097" lon="-123.036137"/>
<trkpt lat="49.062619" lon="-123.036709"/>
<trkpt lat="49.061417" lon="-123.037813"/>
<trkpt lat="49.060472" lon="-123.039386"/>
<trkpt lat="49.059808" lon="-123.041501"/>
<trkpt lat="49.059556" lon="-123.044181"/>
<trkpt lat="49.059594" lon="-123.047853"/>
<trkpt lat="49.059907" lon="-123.051714"/>
<trkpt lat="49.059595" lon="-123.053571"/>
<trkpt lat="49.058833" lon="-123.055020"/>
<trkpt lat="49.056770" lon="-123.056843"/>
<trkpt lat="49.054699" lon="-123.057378"/>
<trkpt lat="49.051925" lon="-123.057577"/>
<trkpt lat="49.049694" lon="-123.058475"/>
<trkpt lat="49.047332" lon="-123.060535"/>
<trkpt lat="49.045649" lon="-123.063146"/>
<trkpt lat="49.043225" lon="-123.068153"/>
<trkpt lat="49.042952" lon="-123.068684"/>
<trkpt lat="49.042800" lon="-123.069061"/>
<trkpt lat="49.042073" lon="-123.070537"/>
<trkpt lat="49.038053" lon="-123.078879"/>
<trkpt lat="49.037630" lon="-123.079752"/>
<trkpt lat="49.036673" lon="-123.081725"/>
<trkpt lat="49.033574" lon="-123.088166"/>
<trkpt lat="49.032783" lon="-123.089872"/>
<trkpt lat="49.032726" lon="-123.089989"/>
<trkpt lat="49.032512" lon="-123.090435"/>
<trkpt lat="49.031690" lon="-123.092108"/>
<trkpt lat="49.031318" lon="-123.092669"/>
</trkseg>
<trkseg>
<trkpt lat="49.090065" lon="-123.024090"/>
<trkpt lat="49.091758" lon="-123.024102"/>
<trkpt lat="49.092432" lon="-123.023717"/>
<trkpt lat="49.092886" lon="-123.023182"/>
<trkpt lat="49.093614" lon="-123.021629"/>
<trkpt lat="49.093479" lon="-123.019492"/>
<trkpt lat="49.093652" lon="-123.019238"/>
<trkpt lat="49.094088" lon="-123.019040"/>
<trkpt lat="49.094372" lon="-123.018910"/>
<trkpt lat="49.095935" lon="-123.023733"/>
<trkpt lat="49.096409" lon="-123.024058"/>
<trkpt lat="49.097258" lon="-123.024064"/>
<trkpt lat="49.097261" lon="-123.025137"/>
</trkseg>
<trkseg>
<trkpt lat="49.097261" lon="-123.025137"/>
<trkpt lat="49.097095" lon="-123.025936"/>
<trkpt lat="49.097872" lon="-123.026610"/>
</trkseg>
<trkseg>
<trkpt lat="49.097872" lon="-123.026610"/>
<trkpt lat="49.098159" lon="-123.027117"/>
</trkseg>
<trkseg>
<trkpt lat="49.098159" lon="-123.027117"/>
<trkpt lat="49.099569" lon="-123.028538"/>
<trkpt lat="49.101404" lon="-123.029264"/>
<trkpt lat="49.103205" lon="-123.029550"/>
<trkpt lat="49.107539" lon="-123.028928"/>
<trkpt lat="49.111765" lon="-123.028906"/>
<trkpt lat="49.111932" lon="-123.028906"/>
<trkpt lat="49.116308" lon="-123.028733"/>
<trkpt lat="49.119077" lon="-123.026150"/>
<trkpt lat="49.124321" lon="-123.023061"/>
<trkpt lat="49.125115" lon="-123.022261"/>
<trkpt lat="49.126005" lon="-123.020752"/>
<trkpt lat="49.127755" lon="-123.014905"/>
<trkpt lat="49.128551" lon="-123.013555"/>
<trkpt lat="49.129774" lon="-123.012736"/>
<trkpt lat="49.132841" lon="-123.012225"/>
<trkpt lat="49.133866" lon="-123.011439"/>
<trkpt lat="49.135031" lon="-123.009821"/>
<trkpt lat="49.136308" lon="-123.005613"/>
<trkpt lat="49.138681" lon="-123.001057"/>
<trkpt lat="49.139582" lon="-122.998161"/>
<trkpt lat="49.140185" lon="-122.996485"/>
<trkpt lat="49.140471" lon="-122.995944"/>
<trkpt lat="49.140527" lon="-122.995830"/>
<trkpt lat="49.140748" lon="-122.995401"/>
<trkpt lat="49.142659" lon="-122.993262"/>
<trkpt lat="49.144590" lon="-122.991547"/>
<trkpt lat="49.145676" lon="-122.989210"/>
<trkpt lat="49.145747" lon="-122.988965"/>
<trkpt lat="49.147094" lon="-122.984329"/>
<trkpt lat="49.147346" lon="-122.982190"/>
<trkpt lat="49.147379" lon="-122.976240"/>
<trkpt lat="49.147352" lon="-122.973658"/>
<trkpt lat="49.147488" lon="-122.971941"/>
<trkpt lat="49.148383" lon="-122.968181"/>
<trkpt lat="49.148468" lon="-122.962963"/>
<trkpt lat="49.148423" lon="-122.957770"/>
<trkpt lat="49.148553" lon="-122.954549"/>
<trkpt lat="49.148928" lon="-122.953371"/>
<trkpt lat="49.149674" lon="-122.952185"/>
<trkpt lat="49.149943" lon="-122.951829"/>
<trkpt lat="49.149986" lon="-122.951723"/>
<trkpt lat="49.150203" lon="-122.951634"/>
<trkpt lat="49.150720" lon="-122.951337"/>
<trkpt lat="49.151243" lon="-122.950837"/>
<trkpt lat="49.151497" lon="-122.949733"/>
<trkpt lat="49.151789" lon="-122.949416"/>
<trkpt lat="49.152049" lon="-122.949335"/>
<trkpt lat="49.152668" lon="-122.949307"/>
<trkpt lat="49.153167" lon="-122.948493"/>
<trkpt lat="49.153887" lon="-122.946025"/>
<trkpt lat="49.154972" lon="-122.943830"/>
<trkpt lat="49.157850" lon="-122.939459"/>
<trkpt lat="49.159949" lon="-122.937042"/>
<trkpt lat="49.160897" lon="-122.935452"/>
<trkpt lat="49.161101" lon="-122.935069"/>
<trkpt lat="49.164356" lon="-122.930580"/>
<trkpt lat="49.166704" lon="-122.925350"/>
<trkpt lat="49.166803" lon="-122.925142"/>
<trkpt lat="49.167416" lon="-122.924014"/>
<trkpt lat="49.167725" lon="-122.923533"/>
<trkpt lat="49.169020" lon="-122.921882"/>
<trkpt lat="49.169368" lon="-122.921466"/>
<trkpt lat="49.171787" lon="-122.918525"/>
</trkseg>
<trkseg>
<trkpt lat="49.171787" lon="-122.918525"/>
<trkpt lat="49.172131" lon="-122.918101"/>
</trkseg>
<trkseg>
<trkpt lat="49.172131" lon="-122.918101"/>
<trkpt lat="49.171787" lon="-122.918525"/>
</trkseg>
<trkseg>
<trkpt lat="49.171838" lon="-122.918620"/>
<trkpt lat="49.169431" lon="-122.921586"/>
<trkpt lat="49.169084" lon="-122.922005"/>
<trkpt lat="49.167804" lon="-122.923649"/>
<trkpt lat="49.167492" lon="-122.924128"/>
<trkpt lat="49.166859" lon="-122.925275"/>
<trkpt lat="49.166761" lon="-122.925483"/>
<trkpt lat="49.164348" lon="-122.930831"/>
<trkpt lat="49.161186" lon="-122.935155"/>
<trkpt lat="49.160984" lon="-122.935536"/>
<trkpt lat="49.160106" lon="-122.937047"/>
<trkpt lat="49.158074" lon="-122.939342"/>
<trkpt lat="49.155048" lon="-122.943921"/>
<trkpt lat="49.154021" lon="-122.945947"/>
<trkpt lat="49.153055" lon="-122.949188"/>
<trkpt lat="49.152016" lon="-122.951378"/>
<trkpt lat="49.151966" lon="-122.951706"/>
<trkpt lat="49.152150" lon="-122.952195"/>
<trkpt lat="49.152155" lon="-122.952199"/>
<trkpt lat="49.152273" lon="-122.952418"/>
<trkpt lat="49.152275" lon="-122.952427"/>
<trkpt lat="49.152095" lon="-122.952823"/>
<trkpt lat="49.151861" lon="-122.952603"/>
<trkpt lat="49.151475" lon="-122.951773"/>
<trkpt lat="49.150717" lon="-122.951656"/>
<trkpt lat="49.150198" lon="-122.951928"/>
<trkpt lat="49.150032" lon="-122.952047"/>
<trkpt lat="49.149964" lon="-122.954181"/>
<trkpt lat="49.149892" lon="-122.955579"/>
<trkpt lat="49.148755" lon="-122.956888"/>
<trkpt lat="49.148512" lon="-122.958231"/>
<trkpt lat="49.148535" lon="-122.961723"/>
<trkpt lat="49.148543" lon="-122.962940"/>
<trkpt lat="49.148593" lon="-122.966670"/>
<trkpt lat="49.148182" lon="-122.969743"/>
<trkpt lat="49.147462" lon="-122.973154"/>
<trkpt lat="49.147317" lon="-122.983515"/>
<trkpt lat="49.145834" lon="-122.989030"/>
<trkpt lat="49.145762" lon="-122.989274"/>
<trkpt lat="49.144662" lon="-122.991658"/>
<trkpt lat="49.142703" lon="-122.993415"/>
<trkpt lat="49.141624" lon="-122.994464"/>
<trkpt lat="49.141013" lon="-122.995279"/>
<trkpt lat="49.140615" lon="-122.995935"/>
<trkpt lat="49.140560" lon="-122.996049"/>
<trkpt lat="49.140138" lon="-122.996904"/>
<trkpt lat="49.139687" lon="-122.998234"/>
<trkpt lat="49.138405" lon="-123.001938"/>
<trkpt lat="49.136401" lon="-123.005662"/>
<trkpt lat="49.135105" lon="-123.009922"/>
<trkpt lat="49.134464" lon="-123.011055"/>
<trkpt lat="49.132911" lon="-123.012374"/>
<trkpt lat="49.129810" lon="-123.012886"/>
<trkpt lat="49.128540" lon="-123.013800"/>
<trkpt lat="49.127774" lon="-123.015132"/>
<trkpt lat="49.126085" lon="-123.020826"/>
<trkpt lat="49.124594" lon="-123.023023"/>
<trkpt lat="49.119247" lon="-123.026204"/>
<trkpt lat="49.116742" lon="-123.028687"/>
<trkpt lat="49.114630" lon="-123.029051"/>
<trkpt lat="49.111930" lon="-123.029066"/>
<trkpt lat="49.111765" lon="-123.029068"/>
<trkpt lat="49.107528" lon="-123.029059"/>
<trkpt lat="49.103195" lon="-123.029690"/>
<trkpt lat="49.101373" lon="-123.029417"/>
<trkpt lat="49.099711" lon="-123.028752"/>
<trkpt lat="49.098203" lon="-123.028278"/>
<trkpt lat="49.098002" lon="-123.028254"/>
<trkpt lat="49.097091" lon="-123.028974"/>
<trkpt lat="49.097066" lon="-123.029334"/>
<trkpt lat="49.097640" lon="-123.028950"/>
<trkpt lat="49.098109" lon="-123.028402"/>
<trkpt lat="49.098159" lon="-123.027117"/>
</trkseg>
<trkseg>
<trkpt lat="49.097872" lon="-123.026610"/>
<trkpt lat="49.097429" lon="-123.025994"/>
<trkpt lat="49.097261" lon="-123.025137"/>
</trkseg>
<trkseg>
<trkpt lat="49.171838" lon="-122.918620"/>
<trkpt lat="49.172183" lon="-122.918199"/>
</trkseg>
<trkseg>
<trkpt lat="49.172183" lon="-122.918199"/>
<trkpt lat="49.171838" lon="-122.918620"/>
</trkseg>
<trkseg>
<trkpt lat="49.172183" lon="-122.918199"/>
<trkpt lat="49.172976" lon="-122.917297"/>
</trkseg>
<trkseg>
<trkpt lat="49.172976" lon="-122.917297"/>
<trkpt lat="49.172183" lon="-122.918199"/>
</trkseg>
<trkseg>
<trkpt lat="49.172131" lon="-122.918101"/>
<trkpt lat="49.172945" lon="-122.917180"/>
</trkseg>
<trkseg>
<trkpt lat="49.172945" lon="-122.917180"/>
<trkpt lat="49.172131" lon="-122.918101"/>
</trkseg>
<trkseg>
<trkpt lat="49.172976" lon="-122.917297"/>
<trkpt lat="49.173119" lon="-122.917159"/>
</trkseg>
<trkseg>
<trkpt lat="49.173119" lon="-122.917159"/>
<trkpt lat="49.172976" lon="-122.917297"/>
</trkseg>
<trkseg>
<trkpt lat="49.172945" lon="-122.917180"/>
<trkpt lat="49.173087" lon="-122.917044"/>
</trkseg>
<trkseg>
<trkpt lat="49.173087" lon="-122.917044"/>
<trkpt lat="49.172945" lon="-122.917180"/>
</trkseg>
<trkseg>
<trkpt lat="49.173087" lon="-122.917044"/>
<trkpt lat="49.176914" lon="-122.913556"/>
<trkpt lat="49.180670" lon="-122.909418"/>
</trkseg>
<trkseg>
<trkpt lat="49.180670" lon="-122.909418"/>
<trkpt lat="49.176914" lon="-122.913556"/>
<trkpt lat="49.173087" lon="-122.917044"/>
</trkseg>
<trkseg>
<trkpt lat="49.173119" lon="-122.917159"/>
<trkpt lat="49.175938" lon="-122.914639"/>
<trkpt lat="49.177864" lon="-122.912656"/>
<trkpt lat="49.179545" lon="-122.910731"/>
<trkpt lat="49.193327" lon="-122.896560"/>
<trkpt lat="49.194844" lon="-122.894946"/>
<trkpt lat="49.196022" lon="-122.893894"/>
<trkpt lat="49.196315" lon="-122.893537"/>
<trkpt lat="49.196408" lon="-122.893405"/>
<trkpt lat="49.196452" lon="-122.893345"/>
<trkpt lat="49.196391" lon="-122.893252"/>
<trkpt lat="49.196357" lon="-122.893187"/>
<trkpt lat="49.196159" lon="-122.892809"/>
</trkseg>
<trkseg>
<trkpt lat="49.196159" lon="-122.892809"/>
<trkpt lat="49.196044" lon="-122.892491"/>
</trkseg>
<trkseg>
<trkpt lat="49.196044" lon="-122.892491"/>
<trkpt lat="49.196159" lon="-122.892809"/>
</trkseg>
<trkseg>
<trkpt lat="49.196044" lon="-122.892491"/>
<trkpt lat="49.196002" lon="-122.892435"/>
</trkseg>
<trkseg>
<trkpt lat="49.196002" lon="-122.892435"/>
<trkpt lat="49.195942" lon="-122.892513"/>
<trkpt lat="49.195855" lon="-122.892628"/>
<trkpt lat="49.195743" lon="-122.892755"/>
</trkseg>
<trkseg>
<trkpt lat="49.195743" lon="-122.892755"/>
<trkpt lat="49.195418" lon="-122.893099"/>
</trkseg>
<trkseg>
<trkpt lat="49.195418" lon="-122.893099"/>
<trkpt lat="49.194840" lon="-122.894018"/>
<trkpt lat="49.192939" lon="-122.896594"/>
<trkpt lat="49.192300" lon="-122.897295"/>
<trkpt lat="49.191599" lon="-122.898029"/>
<trkpt lat="49.189425" lon="-122.900409"/>
<trkpt lat="49.187287" lon="-122.902620"/>
<trkpt lat="49.180670" lon="-122.909418"/>
</trkseg>
<trkseg>
<trkpt lat="49.195418" lon="-122.893099"/>
<trkpt lat="49.195641" lon="-122.892708"/>
</trkseg>
<trkseg>
<trkpt lat="49.195641" lon="-122.892708"/>
<trkpt lat="49.195743" lon="-122.892755"/>
</trkseg>
<trkseg>
<trkpt lat="49.195641" lon="-122.892708"/>
<trkpt lat="49.195577" lon="-122.892077"/>
<trkpt lat="49.195207" lon="-122.891282"/>
<trkpt lat="49.195044" lon="-122.890977"/>
</trkseg>
<trkseg>
<trkpt lat="49.195044" lon="-122.890977"/>
<trkpt lat="49.195267" lon="-122.891103"/>
</trkseg>
<trkseg>
<trkpt lat="49.195044" lon="-122.890977"/>
<trkpt lat="49.194652" lon="-122.890200"/>
</trkseg>
<trkseg>
<trkpt lat="49.194652" lon="-122.890200"/>
<trkpt lat="49.194496" lon="-122.890022"/>
<trkpt lat="49.194108" lon="-122.889298"/>
<trkpt lat="49.193883" lon="-122.888872"/>
<trkpt lat="49.193813" lon="-122.888740"/>
<trkpt lat="49.193891" lon="-122.888648"/>
<trkpt lat="49.194220" lon="-122.888227"/>
<trkpt lat="49.194595" lon="-122.887762"/>
<trkpt lat="49.198478" lon="-122.883132"/>
<trkpt lat="49.198739" lon="-122.882855"/>
<trkpt lat="49.198897" lon="-122.882687"/>
<trkpt lat="49.199188" lon="-122.882384"/>
<trkpt lat="49.199247" lon="-122.882319"/>
<trkpt lat="49.199216" lon="-122.882260"/>
</trkseg>
<trkseg>
<trkpt lat="49.199205" lon="-122.882229"/>
<trkpt lat="49.199215" lon="-122.882172"/>
<trkpt lat="49.199226" lon="-122.882081"/>
<trkpt lat="49.199758" lon="-122.881691"/>
<trkpt lat="49.199888" lon="-122.881550"/>
<trkpt lat="49.200141" lon="-122.881300"/>
<trkpt lat="49.200237" lon="-122.881200"/>
<trkpt lat="49.200456" lon="-122.880927"/>
<trkpt lat="49.200564" lon="-122.880780"/>
<trkpt lat="49.201129" lon="-122.880145"/>
<trkpt lat="49.201229" lon="-122.880030"/>
<trkpt lat="49.202097" lon="-122.878991"/>
<trkpt lat="49.202268" lon="-122.878785"/>
<trkpt lat="49.202664" lon="-122.878169"/>
<trkpt lat="49.202689" lon="-122.878181"/>
<trkpt lat="49.202717" lon="-122.877780"/>
</trkseg>
<trkseg>
<trkpt lat="49.202717" lon="-122.877780"/>
<trkpt lat="49.202823" lon="-122.878091"/>
<trkpt lat="49.202871" lon="-122.878175"/>
<trkpt lat="49.202963" lon="-122.878334"/>
<trkpt lat="49.203023" lon="-122.878432"/>
<trkpt lat="49.202959" lon="-122.878503"/>
<trkpt lat="49.202933" lon="-122.878553"/>
<trkpt lat="49.202935" lon="-122.878652"/>
<trkpt lat="49.202446" lon="-122.879215"/>
<trkpt lat="49.202426" lon="-122.879219"/>
</trkseg>
<trkseg>
<trkpt lat="49.202426" lon="-122.879219"/>
<trkpt lat="49.202335" lon="-122.879321"/>
</trkseg>
<trkseg>
<trkpt lat="49.202335" lon="-122.879321"/>
<trkpt lat="49.202307" lon="-122.879369"/>
</trkseg>
<trkseg>
<trkpt lat="49.202307" lon="-122.879369"/>
<trkpt lat="49.201900" lon="-122.879821"/>
</trkseg>
<trkseg>
<trkpt lat="49.201900" lon="-122.879821"/>
<trkpt lat="49.201733" lon="-122.879986"/>
</trkseg>
<trkseg>
<trkpt lat="49.201733" lon="-122.879986"/>
<trkpt lat="49.201543" lon="-122.880269"/>
</trkseg>
<trkseg>
<trkpt lat="49.201543" lon="-122.880269"/>
<trkpt lat="49.201489" lon="-122.880327"/>
</trkseg>
<trkseg>
<trkpt lat="49.201489" lon="-122.880327"/>
<trkpt lat="49.200815" lon="-122.881120"/>
</trkseg>
<trkseg>
<trkpt lat="49.200815" lon="-122.881120"/>
<trkpt lat="49.200456" lon="-122.881524"/>
</trkseg>
<trkseg>
<trkpt lat="49.200456" lon="-122.881524"/>
<trkpt lat="49.199869" lon="-122.882147"/>
</trkseg>
<trkseg>
<trkpt lat="49.199869" lon="-122.882147"/>
<trkpt lat="49.199776" lon="-122.882250"/>
</trkseg>
<trkseg>
<trkpt lat="49.199776" lon="-122.882250"/>
<trkpt lat="49.199524" lon="-122.882507"/>
<trkpt lat="49.199469" lon="-122.882605"/>
<trkpt lat="49.199411" lon="-122.882600"/>
<trkpt lat="49.199383" lon="-122.882607"/>
<trkpt lat="49.199267" lon="-122.882728"/>
<trkpt lat="49.199254" lon="-122.882766"/>
<trkpt lat="49.199236" lon="-122.882863"/>
<trkpt lat="49.198922" lon="-122.883078"/>
<trkpt lat="49.198798" lon="-122.883219"/>
<trkpt lat="49.198645" lon="-122.883418"/>
<trkpt lat="49.198552" lon="-122.883535"/>
<trkpt lat="49.198168" lon="-122.883913"/>
<trkpt lat="49.198085" lon="-122.884008"/>
<trkpt lat="49.197861" lon="-122.884269"/>
<trkpt lat="49.197631" lon="-122.884522"/>
<trkpt lat="49.196989" lon="-122.885301"/>
<trkpt lat="49.196933" lon="-122.885368"/>
<trkpt lat="49.196806" lon="-122.885518"/>
<trkpt lat="49.196726" lon="-122.885617"/>
<trkpt lat="49.196381" lon="-122.886029"/>
<trkpt lat="49.196325" lon="-122.886099"/>
<trkpt lat="49.196226" lon="-122.886218"/>
<trkpt lat="49.196143" lon="-122.886319"/>
<trkpt lat="49.195745" lon="-122.886815"/>
<trkpt lat="49.195668" lon="-122.886908"/>
<trkpt lat="49.195440" lon="-122.887192"/>
<trkpt lat="49.195365" lon="-122.887282"/>
<trkpt lat="49.195256" lon="-122.887421"/>
<trkpt lat="49.195174" lon="-122.887519"/>
<trkpt lat="49.195079" lon="-122.887635"/>
<trkpt lat="49.194979" lon="-122.887727"/>
<trkpt lat="49.194716" lon="-122.888072"/>
<trkpt lat="49.194638" lon="-122.888168"/>
<trkpt lat="49.194476" lon="-122.888362"/>
<trkpt lat="49.194386" lon="-122.888476"/>
<trkpt lat="49.194183" lon="-122.888868"/>
<trkpt lat="49.194672" lon="-122.890042"/>
<trkpt lat="49.194741" lon="-122.890223"/>
<trkpt lat="49.195258" lon="-122.891024"/>
<trkpt lat="49.195276" lon="-122.891172"/>
<trkpt lat="49.195299" lon="-122.891217"/>
<trkpt lat="49.195383" lon="-122.891253"/>
<trkpt lat="49.195970" lon="-122.892182"/>
<trkpt lat="49.195958" lon="-122.892353"/>
<trkpt lat="49.195971" lon="-122.892393"/>
<trkpt lat="49.196002" lon="-122.892435"/>
</trkseg>
<trkseg>
<trkpt lat="49.194652" lon="-122.890200"/>
<trkpt lat="49.194193" lon="-122.889218"/>
<trkpt lat="49.194315" lon="-122.888356"/>
<trkpt lat="49.194851" lon="-122.887706"/>
<trkpt lat="49.198985" lon="-122.882837"/>
</trkseg>
<trkseg>
<trkpt lat="49.199776" lon="-122.882250"/>
<trkpt lat="49.199869" lon="-122.882147"/>
</trkseg>
<trkseg>
<trkpt lat="49.199869" lon="-122.882147"/>
<trkpt lat="49.200456" lon="-122.881524"/>
</trkseg>
<trkseg>
<trkpt lat="49.200815" lon="-122.881120"/>
<trkpt lat="49.201489" lon="-122.880327"/>
</trkseg>
<trkseg>
<trkpt lat="49.201489" lon="-122.880327"/>
<trkpt lat="49.201543" lon="-122.880269"/>
</trkseg>
<trkseg>
<trkpt lat="49.201543" lon="-122.880269"/>
<trkpt lat="49.201733" lon="-122.879986"/>
</trkseg>
<trkseg>
<trkpt lat="49.201733" lon="-122.879986"/>
<trkpt lat="49.201900" lon="-122.879821"/>
</trkseg>
<trkseg>
<trkpt lat="49.201900" lon="-122.879821"/>
<trkpt lat="49.202307" lon="-122.879369"/>
</trkseg>
<trkseg>
<trkpt lat="49.202307" lon="-122.879369"/>
<trkpt lat="49.202335" lon="-122.879321"/>
</trkseg>
<trkseg>
<trkpt lat="49.202335" lon="-122.879321"/>
<trkpt lat="49.202426" lon="-122.879219"/>
</trkseg>
<trkseg>
<trkpt lat="49.202717" lon="-122.877780"/>
<trkpt lat="49.202660" lon="-122.877188"/>
<trkpt lat="49.202628" lon="-122.875931"/>
<trkpt lat="49.202629" lon="-122.874890"/>
<trkpt lat="49.202630" lon="-122.872417"/>
<trkpt lat="49.202630" lon="-122.872237"/>
<trkpt lat="49.202635" lon="-122.871048"/>
<trkpt lat="49.202724" lon="-122.868353"/>
<trkpt lat="49.203169" lon="-122.867816"/>
<trkpt lat="49.203972" lon="-122.867626"/>
<trkpt lat="49.204353" lon="-122.867417"/>
<trkpt lat="49.204698" lon="-122.867268"/>
</trkseg>
<trkseg>
<trkpt lat="49.204698" lon="-122.867268"/>
<trkpt lat="49.205438" lon="-122.867329"/>
<trkpt lat="49.206093" lon="-122.867214"/>
<trkpt lat="49.206162" lon="-122.867103"/>
<trkpt lat="49.206201" lon="-122.867125"/>
<trkpt lat="49.206481" lon="-122.867171"/>
<trkpt lat="49.206537" lon="-122.867182"/>
<trkpt lat="49.206554" lon="-122.867133"/>
<trkpt lat="49.206600" lon="-122.867104"/>
<trkpt lat="49.206614" lon="-122.867093"/>
<trkpt lat="49.207273" lon="-122.867115"/>
<trkpt lat="49.207947" lon="-122.866543"/>
<trkpt lat="49.208071" lon="-122.866394"/>
<trkpt lat="49.209639" lon="-122.862862"/>
<trkpt lat="49.210390" lon="-122.862032"/>
<trkpt lat="49.211117" lon="-122.861760"/>
<trkpt lat="49.211327" lon="-122.861736"/>
<trkpt lat="49.212619" lon="-122.861685"/>
<trkpt lat="49.212919" lon="-122.861523"/>
<trkpt lat="49.212939" lon="-122.861545"/>
<trkpt lat="49.213169" lon="-122.858012"/>
<trkpt lat="49.213196" lon="-122.857174"/>
<trkpt lat="49.213179" lon="-122.847279"/>
<trkpt lat="49.213071" lon="-122.845232"/>
<trkpt lat="49.213144" lon="-122.842786"/>
<trkpt lat="49.213541" lon="-122.840251"/>
<trkpt lat="49.214334" lon="-122.836944"/>
<trkpt lat="49.214567" lon="-122.834488"/>
<trkpt lat="49.214313" lon="-122.829213"/>
<trkpt lat="49.214541" lon="-122.815844"/>
<trkpt lat="49.213999" lon="-122.808257"/>
<trkpt lat="49.213627" lon="-122.805809"/>
<trkpt lat="49.212558" lon="-122.799430"/>
<trkpt lat="49.212099" lon="-122.796439"/>
<trkpt lat="49.211879" lon="-122.793480"/>
<trkpt lat="49.212019" lon="-122.788355"/>
<trkpt lat="49.211351" lon="-122.781075"/>
<trkpt lat="49.211361" lon="-122.775411"/>
<trkpt lat="49.211078" lon="-122.772954"/>
<trkpt lat="49.210502" lon="-122.770740"/>
<trkpt lat="49.209832" lon="-122.769165"/>
<trkpt lat="49.204321" lon="-122.759793"/>
<trkpt lat="49.201766" lon="-122.755230"/>
<trkpt lat="49.198014" lon="-122.748277"/>
<trkpt lat="49.197021" lon="-122.746737"/>
<trkpt lat="49.194677" lon="-122.744016"/>
<trkpt lat="49.192768" lon="-122.741058"/>
<trkpt lat="49.192463" lon="-122.740455"/>
<trkpt lat="49.192368" lon="-122.740250"/>
<trkpt lat="49.192221" lon="-122.739973"/>
<trkpt lat="49.191773" lon="-122.739054"/>
<trkpt lat="49.191462" lon="-122.738471"/>
<trkpt lat="49.190726" lon="-122.736737"/>
<trkpt lat="49.189831" lon="-122.734776"/>
<trkpt lat="49.189217" lon="-122.734337"/>
<trkpt lat="49.187798" lon="-122.734294"/>
<trkpt lat="49.185255" lon="-122.734432"/>
<trkpt lat="49.184229" lon="-122.734601"/>
<trkpt lat="49.182146" lon="-122.734895"/>
<trkpt lat="49.182031" lon="-122.734905"/>
</trkseg>
<trkseg>
<trkpt lat="49.181984" lon="-122.734740"/>
<trkpt lat="49.182995" lon="-122.734584"/>
<trkpt lat="49.184221" lon="-122.734407"/>
<trkpt lat="49.184822" lon="-122.734326"/>
<trkpt lat="49.187799" lon="-122.734117"/>
<trkpt lat="49.189614" lon="-122.734419"/>
<trkpt lat="49.190384" lon="-122.735439"/>
<trkpt lat="49.190871" lon="-122.736798"/>
<trkpt lat="49.191443" lon="-122.738088"/>
<trkpt lat="49.191747" lon="-122.738654"/>
<trkpt lat="49.192882" lon="-122.740920"/>
<trkpt lat="49.194729" lon="-122.743867"/>
<trkpt lat="49.197783" lon="-122.747586"/>
<trkpt lat="49.201863" lon="-122.755077"/>
<trkpt lat="49.204447" lon="-122.759725"/>
<trkpt lat="49.209981" lon="-122.769191"/>
<trkpt lat="49.211165" lon="-122.772912"/>
<trkpt lat="49.211453" lon="-122.775404"/>
<trkpt lat="49.211423" lon="-122.781038"/>
<trkpt lat="49.212099" lon="-122.788362"/>
<trkpt lat="49.211964" lon="-122.793477"/>
<trkpt lat="49.212205" lon="-122.796538"/>
<trkpt lat="49.212609" lon="-122.798989"/>
<trkpt lat="49.212903" lon="-122.800705"/>
<trkpt lat="49.213227" lon="-122.802648"/>
<trkpt lat="49.213529" lon="-122.804423"/>
<trkpt lat="49.214009" lon="-122.807553"/>
<trkpt lat="49.214680" lon="-122.817771"/>
<trkpt lat="49.214387" lon="-122.828485"/>
<trkpt lat="49.214656" lon="-122.834491"/>
<trkpt lat="49.214420" lon="-122.836928"/>
<trkpt lat="49.213615" lon="-122.840303"/>
<trkpt lat="49.213294" lon="-122.842198"/>
<trkpt lat="49.213173" lon="-122.844806"/>
<trkpt lat="49.213188" lon="-122.845226"/>
<trkpt lat="49.213207" lon="-122.845602"/>
<trkpt lat="49.213299" lon="-122.857485"/>
<trkpt lat="49.213311" lon="-122.858991"/>
<trkpt lat="49.213315" lon="-122.861243"/>
<trkpt lat="49.213317" lon="-122.861793"/>
<trkpt lat="49.213317" lon="-122.861958"/>
<trkpt lat="49.213268" lon="-122.861960"/>
<trkpt lat="49.213181" lon="-122.861963"/>
<trkpt lat="49.213093" lon="-122.862059"/>
<trkpt lat="49.212791" lon="-122.862074"/>
<trkpt lat="49.212409" lon="-122.862044"/>
<trkpt lat="49.211328" lon="-122.862042"/>
<trkpt lat="49.211113" lon="-122.862071"/>
<trkpt lat="49.210320" lon="-122.862448"/>
<trkpt lat="49.209793" lon="-122.863093"/>
<trkpt lat="49.208233" lon="-122.866755"/>
<trkpt lat="49.207064" lon="-122.867484"/>
<trkpt lat="49.206855" lon="-122.867516"/>
<trkpt lat="49.206565" lon="-122.867647"/>
<trkpt lat="49.206554" lon="-122.867622"/>
<trkpt lat="49.206529" lon="-122.867541"/>
<trkpt lat="49.206522" lon="-122.867516"/>
<trkpt lat="49.206499" lon="-122.867510"/>
<trkpt lat="49.206456" lon="-122.867525"/>
<trkpt lat="49.206119" lon="-122.867645"/>
<trkpt lat="49.206085" lon="-122.867668"/>
<trkpt lat="49.206057" lon="-122.867637"/>
<trkpt lat="49.205476" lon="-122.867532"/>
<trkpt lat="49.205405" lon="-122.867462"/>
<trkpt lat="49.205092" lon="-122.867360"/>
<trkpt lat="49.204698" lon="-122.867268"/>
</trkseg>
</trk>
</gpx>